<?xml version="1.0" encoding="UTF-8"?>
<gpx xmlns="http://www.topografix.com/GPX/1/1" version="1.1" creator="az-planning">
  <metadata><name>Kearny west-bank track + Ripsey Wash 4x4 tracks</name></metadata>
  <trk><name>Kearny west-bank track + Ripsey Wash 4x4 tracks</name><trkseg>
    <trkpt lat="33.058809" lon="-110.9057285"></trkpt>
    <trkpt lat="33.0586832" lon="-110.9059297"></trkpt>
    <trkpt lat="33.059008" lon="-110.9062609"></trkpt>
    <trkpt lat="33.059283" lon="-110.9058953"></trkpt>
    <trkpt lat="33.0597443" lon="-110.9064395"></trkpt>
    <trkpt lat="33.0600682" lon="-110.9066548"></trkpt>
    <trkpt lat="33.0604244" lon="-110.906868"></trkpt>
    <trkpt lat="33.0606945" lon="-110.9070297"></trkpt>
    <trkpt lat="33.060233" lon="-110.9086476"></trkpt>
    <trkpt lat="33.0601339" lon="-110.9087784"></trkpt>
    <trkpt lat="33.0600143" lon="-110.908832"></trkpt>
    <trkpt lat="33.0597981" lon="-110.908829"></trkpt>
    <trkpt lat="33.0595796" lon="-110.9087816"></trkpt>
    <trkpt lat="33.0590406" lon="-110.9086646"></trkpt>
    <trkpt lat="33.058792" lon="-110.9086337"></trkpt>
    <trkpt lat="33.0584865" lon="-110.9086367"></trkpt>
    <trkpt lat="33.0581889" lon="-110.9086987"></trkpt>
    <trkpt lat="33.0576082" lon="-110.9089272"></trkpt>
    <trkpt lat="33.0575969" lon="-110.9092616"></trkpt>
    <trkpt lat="33.0575342" lon="-110.9096205"></trkpt>
    <trkpt lat="33.0574738" lon="-110.9098012"></trkpt>
    <trkpt lat="33.0572909" lon="-110.9101053"></trkpt>
    <trkpt lat="33.0569308" lon="-110.9107041"></trkpt>
    <trkpt lat="33.0565371" lon="-110.9113514"></trkpt>
    <trkpt lat="33.0560932" lon="-110.9120255"></trkpt>
    <trkpt lat="33.0557338" lon="-110.9126615"></trkpt>
    <trkpt lat="33.0553157" lon="-110.9132916"></trkpt>
    <trkpt lat="33.0549307" lon="-110.9139807"></trkpt>
    <trkpt lat="33.0545215" lon="-110.9146453"></trkpt>
    <trkpt lat="33.0542499" lon="-110.914951"></trkpt>
    <trkpt lat="33.0539476" lon="-110.9151691"></trkpt>
    <trkpt lat="33.0545249" lon="-110.9160851"></trkpt>
    <trkpt lat="33.0541274" lon="-110.9164477"></trkpt>
    <trkpt lat="33.0537241" lon="-110.9167852"></trkpt>
    <trkpt lat="33.0542934" lon="-110.9175988"></trkpt>
    <trkpt lat="33.0543204" lon="-110.9177061"></trkpt>
    <trkpt lat="33.0542575" lon="-110.9178831"></trkpt>
    <trkpt lat="33.0535042" lon="-110.9185796"></trkpt>
    <trkpt lat="33.0535016" lon="-110.9186385"></trkpt>
    <trkpt lat="33.0536727" lon="-110.9187865"></trkpt>
    <trkpt lat="33.0540109" lon="-110.9190397"></trkpt>
    <trkpt lat="33.0542461" lon="-110.9191626"></trkpt>
    <trkpt lat="33.0543131" lon="-110.919202"></trkpt>
    <trkpt lat="33.0542501" lon="-110.9193713"></trkpt>
    <trkpt lat="33.0541037" lon="-110.9197698"></trkpt>
    <trkpt lat="33.0539855" lon="-110.9201185"></trkpt>
    <trkpt lat="33.0539211" lon="-110.9202434"></trkpt>
    <trkpt lat="33.0533055" lon="-110.9204072"></trkpt>
    <trkpt lat="33.0532178" lon="-110.9204722"></trkpt>
    <trkpt lat="33.0530826" lon="-110.9207466"></trkpt>
    <trkpt lat="33.0530253" lon="-110.9209416"></trkpt>
    <trkpt lat="33.0530118" lon="-110.921194"></trkpt>
    <trkpt lat="33.053038" lon="-110.9217816"></trkpt>
    <trkpt lat="33.0530472" lon="-110.9220003"></trkpt>
    <trkpt lat="33.0529835" lon="-110.9222704"></trkpt>
    <trkpt lat="33.0528378" lon="-110.9226132"></trkpt>
    <trkpt lat="33.0525109" lon="-110.9230961"></trkpt>
    <trkpt lat="33.0524476" lon="-110.9231892"></trkpt>
    <trkpt lat="33.0522932" lon="-110.9231196"></trkpt>
    <trkpt lat="33.0521695" lon="-110.9229761"></trkpt>
    <trkpt lat="33.0521035" lon="-110.922785"></trkpt>
    <trkpt lat="33.0520535" lon="-110.9225976"></trkpt>
    <trkpt lat="33.0520084" lon="-110.9224782"></trkpt>
    <trkpt lat="33.0518603" lon="-110.9223946"></trkpt>
    <trkpt lat="33.0517933" lon="-110.9223397"></trkpt>
    <trkpt lat="33.0516932" lon="-110.9221964"></trkpt>
    <trkpt lat="33.0516011" lon="-110.9221427"></trkpt>
    <trkpt lat="33.0508086" lon="-110.9219541"></trkpt>
    <trkpt lat="33.049983" lon="-110.9217296"></trkpt>
    <trkpt lat="33.0494898" lon="-110.9215537"></trkpt>
    <trkpt lat="33.0485282" lon="-110.9235645"></trkpt>
    <trkpt lat="33.0483981" lon="-110.9238723"></trkpt>
    <trkpt lat="33.0482619" lon="-110.9242496"></trkpt>
    <trkpt lat="33.0475983" lon="-110.9256939"></trkpt>
    <trkpt lat="33.0468964" lon="-110.924978"></trkpt>
    <trkpt lat="33.0464731" lon="-110.9245361"></trkpt>
    <trkpt lat="33.0463673" lon="-110.9244324"></trkpt>
    <trkpt lat="33.0461746" lon="-110.9243828"></trkpt>
    <trkpt lat="33.0457627" lon="-110.9242386"></trkpt>
    <trkpt lat="33.0454376" lon="-110.9241303"></trkpt>
    <trkpt lat="33.0447344" lon="-110.9238321"></trkpt>
    <trkpt lat="33.0442855" lon="-110.9236096"></trkpt>
    <trkpt lat="33.0439426" lon="-110.9234397"></trkpt>
    <trkpt lat="33.0437586" lon="-110.9233439"></trkpt>
    <trkpt lat="33.043273" lon="-110.9231186"></trkpt>
    <trkpt lat="33.0427423" lon="-110.9229738"></trkpt>
    <trkpt lat="33.0426119" lon="-110.9230167"></trkpt>
    <trkpt lat="33.0424748" lon="-110.9231025"></trkpt>
    <trkpt lat="33.0423129" lon="-110.9233063"></trkpt>
    <trkpt lat="33.0421712" lon="-110.9233493"></trkpt>
    <trkpt lat="33.0419441" lon="-110.9232152"></trkpt>
    <trkpt lat="33.0417216" lon="-110.9229094"></trkpt>
    <trkpt lat="33.0416249" lon="-110.9227297"></trkpt>
    <trkpt lat="33.0415664" lon="-110.9226814"></trkpt>
    <trkpt lat="33.041445" lon="-110.9226733"></trkpt>
    <trkpt lat="33.04111" lon="-110.9227243"></trkpt>
    <trkpt lat="33.0409279" lon="-110.9227511"></trkpt>
    <trkpt lat="33.0403028" lon="-110.9227699"></trkpt>
    <trkpt lat="33.0395608" lon="-110.9227833"></trkpt>
    <trkpt lat="33.0389425" lon="-110.9228048"></trkpt>
    <trkpt lat="33.0384433" lon="-110.9228182"></trkpt>
    <trkpt lat="33.0382971" lon="-110.9228128"></trkpt>
    <trkpt lat="33.0381959" lon="-110.9227538"></trkpt>
    <trkpt lat="33.0381441" lon="-110.9227544"></trkpt>
    <trkpt lat="33.038043" lon="-110.9228075"></trkpt>
    <trkpt lat="33.037735" lon="-110.9228209"></trkpt>
    <trkpt lat="33.037409" lon="-110.9228182"></trkpt>
    <trkpt lat="33.0369323" lon="-110.9228396"></trkpt>
    <trkpt lat="33.0365433" lon="-110.9228665"></trkpt>
    <trkpt lat="33.0363387" lon="-110.9228906"></trkpt>
    <trkpt lat="33.0359024" lon="-110.9230113"></trkpt>
    <trkpt lat="33.0352548" lon="-110.9232017"></trkpt>
    <trkpt lat="33.03503" lon="-110.923309"></trkpt>
    <trkpt lat="33.0345825" lon="-110.9234566"></trkpt>
    <trkpt lat="33.0340316" lon="-110.923596"></trkpt>
    <trkpt lat="33.0334672" lon="-110.9237999"></trkpt>
    <trkpt lat="33.0330714" lon="-110.9238938"></trkpt>
    <trkpt lat="33.032673" lon="-110.923963"></trkpt>
    <trkpt lat="33.0324576" lon="-110.9240198"></trkpt>
    <trkpt lat="33.0319538" lon="-110.924229"></trkpt>
    <trkpt lat="33.0305552" lon="-110.924685"></trkpt>
    <trkpt lat="33.0301909" lon="-110.9248406"></trkpt>
    <trkpt lat="33.029731" lon="-110.9250377"></trkpt>
    <trkpt lat="33.0294083" lon="-110.9251933"></trkpt>
    <trkpt lat="33.0291115" lon="-110.925259"></trkpt>
    <trkpt lat="33.028257" lon="-110.9252054"></trkpt>
    <trkpt lat="33.0274856" lon="-110.9251021"></trkpt>
    <trkpt lat="33.0273012" lon="-110.9250847"></trkpt>
    <trkpt lat="33.0254909" lon="-110.9248781"></trkpt>
    <trkpt lat="33.0251761" lon="-110.9248567"></trkpt>
    <trkpt lat="33.0235164" lon="-110.9249479"></trkpt>
    <trkpt lat="33.0225449" lon="-110.925023"></trkpt>
    <trkpt lat="33.0220591" lon="-110.9250444"></trkpt>
    <trkpt lat="33.0217893" lon="-110.9251034"></trkpt>
    <trkpt lat="33.0216138" lon="-110.9250712"></trkpt>
    <trkpt lat="33.0210246" lon="-110.9249049"></trkpt>
    <trkpt lat="33.0205298" lon="-110.9247467"></trkpt>
    <trkpt lat="33.0200553" lon="-110.9246045"></trkpt>
    <trkpt lat="33.0197022" lon="-110.9245643"></trkpt>
    <trkpt lat="33.0194886" lon="-110.9245509"></trkpt>
    <trkpt lat="33.0191085" lon="-110.924508"></trkpt>
    <trkpt lat="33.0188521" lon="-110.9244758"></trkpt>
    <trkpt lat="33.0185147" lon="-110.9244597"></trkpt>
    <trkpt lat="33.0181009" lon="-110.9244758"></trkpt>
    <trkpt lat="33.0170574" lon="-110.9246689"></trkpt>
    <trkpt lat="33.0167841" lon="-110.9246904"></trkpt>
    <trkpt lat="33.0163163" lon="-110.9247574"></trkpt>
    <trkpt lat="33.0158609" lon="-110.9248218"></trkpt>
    <trkpt lat="33.0154628" lon="-110.9248862"></trkpt>
    <trkpt lat="33.0148465" lon="-110.9249881"></trkpt>
    <trkpt lat="33.0145699" lon="-110.9250149"></trkpt>
    <trkpt lat="33.0139964" lon="-110.9251007"></trkpt>
    <trkpt lat="33.013497" lon="-110.9251034"></trkpt>
    <trkpt lat="33.0132496" lon="-110.9251222"></trkpt>
    <trkpt lat="33.012901" lon="-110.9251061"></trkpt>
    <trkpt lat="33.0124534" lon="-110.925318"></trkpt>
    <trkpt lat="33.0120396" lon="-110.9254816"></trkpt>
    <trkpt lat="33.0118417" lon="-110.9256211"></trkpt>
    <trkpt lat="33.0116392" lon="-110.9258115"></trkpt>
    <trkpt lat="33.0115425" lon="-110.925841"></trkpt>
    <trkpt lat="33.0113536" lon="-110.9256908"></trkpt>
    <trkpt lat="33.0111129" lon="-110.9254253"></trkpt>
    <trkpt lat="33.0107508" lon="-110.9253368"></trkpt>
    <trkpt lat="33.010157" lon="-110.9252027"></trkpt>
    <trkpt lat="33.0100997" lon="-110.9251699"></trkpt>
    <trkpt lat="33.0100268" lon="-110.9253552"></trkpt>
    <trkpt lat="33.0098781" lon="-110.9257289"></trkpt>
    <trkpt lat="33.0100597" lon="-110.9260594"></trkpt>
    <trkpt lat="33.0101978" lon="-110.9261357"></trkpt>
    <trkpt lat="33.0103253" lon="-110.9263849"></trkpt>
    <trkpt lat="33.0105622" lon="-110.9265851"></trkpt>
    <trkpt lat="33.0107991" lon="-110.9267486"></trkpt>
    <trkpt lat="33.0110613" lon="-110.9268812"></trkpt>
    <trkpt lat="33.0112594" lon="-110.9270183"></trkpt>
    <trkpt lat="33.0115494" lon="-110.9274608"></trkpt>
    <trkpt lat="33.0119596" lon="-110.9279527"></trkpt>
    <trkpt lat="33.0121796" lon="-110.9280535"></trkpt>
    <trkpt lat="33.0125944" lon="-110.9281415"></trkpt>
    <trkpt lat="33.0126549" lon="-110.9281937"></trkpt>
    <trkpt lat="33.0126398" lon="-110.9283365"></trkpt>
    <trkpt lat="33.0125843" lon="-110.9296015"></trkpt>
    <trkpt lat="33.0125524" lon="-110.9308249"></trkpt>
    <trkpt lat="33.0123127" lon="-110.9330915"></trkpt>
    <trkpt lat="33.012295" lon="-110.933189"></trkpt>
    <trkpt lat="33.0123693" lon="-110.9335368"></trkpt>
    <trkpt lat="33.0126163" lon="-110.9335776"></trkpt>
    <trkpt lat="33.0131989" lon="-110.933702"></trkpt>
    <trkpt lat="33.0137954" lon="-110.9339844"></trkpt>
    <trkpt lat="33.0140797" lon="-110.9342375"></trkpt>
    <trkpt lat="33.0144058" lon="-110.9342482"></trkpt>
    <trkpt lat="33.0145575" lon="-110.9341602"></trkpt>
    <trkpt lat="33.0149357" lon="-110.9341184"></trkpt>
    <trkpt lat="33.0152192" lon="-110.9341568"></trkpt>
    <trkpt lat="33.0154857" lon="-110.9342493"></trkpt>
    <trkpt lat="33.0157293" lon="-110.9343861"></trkpt>
    <trkpt lat="33.0161577" lon="-110.9344412"></trkpt>
    <trkpt lat="33.0164927" lon="-110.9345244"></trkpt>
    <trkpt lat="33.0166055" lon="-110.9345495"></trkpt>
    <trkpt lat="33.0167093" lon="-110.9346336"></trkpt>
    <trkpt lat="33.0167573" lon="-110.9347571"></trkpt>
    <trkpt lat="33.0168912" lon="-110.9349574"></trkpt>
    <trkpt lat="33.0170337" lon="-110.9351379"></trkpt>
    <trkpt lat="33.017206" lon="-110.9353733"></trkpt>
    <trkpt lat="33.011108" lon="-110.935919"></trkpt>
    <trkpt lat="33.011108" lon="-110.935919"></trkpt>
    <trkpt lat="33.011097" lon="-110.936044"></trkpt>
    <trkpt lat="33.0111838" lon="-110.9363835"></trkpt>
    <trkpt lat="33.0119129" lon="-110.9368107"></trkpt>
    <trkpt lat="33.0121037" lon="-110.9368991"></trkpt>
    <trkpt lat="33.0124415" lon="-110.9371603"></trkpt>
    <trkpt lat="33.0124072" lon="-110.9373048"></trkpt>
    <trkpt lat="33.012174" lon="-110.93792"></trkpt>
    <trkpt lat="33.012309" lon="-110.938232"></trkpt>
    <trkpt lat="33.012884" lon="-110.939552"></trkpt>
    <trkpt lat="33.01309" lon="-110.940232"></trkpt>
    <trkpt lat="33.013026" lon="-110.940766"></trkpt>
    <trkpt lat="33.012999" lon="-110.940993"></trkpt>
    <trkpt lat="33.012861" lon="-110.941374"></trkpt>
    <trkpt lat="33.012861" lon="-110.941891"></trkpt>
    <trkpt lat="33.01309" lon="-110.942462"></trkpt>
    <trkpt lat="33.013021" lon="-110.942897"></trkpt>
    <trkpt lat="33.012804" lon="-110.942868"></trkpt>
    <trkpt lat="33.012403" lon="-110.942815"></trkpt>
    <trkpt lat="33.012105" lon="-110.943169"></trkpt>
    <trkpt lat="33.012036" lon="-110.943522"></trkpt>
    <trkpt lat="33.012151" lon="-110.943631"></trkpt>
    <trkpt lat="33.012563" lon="-110.943685"></trkpt>
    <trkpt lat="33.013087" lon="-110.944252"></trkpt>
    <trkpt lat="33.01335" lon="-110.944538"></trkpt>
    <trkpt lat="33.014121" lon="-110.945372"></trkpt>
    <trkpt lat="33.014786" lon="-110.945617"></trkpt>
    <trkpt lat="33.014602" lon="-110.946759"></trkpt>
    <trkpt lat="33.014622" lon="-110.947042"></trkpt>
    <trkpt lat="33.014677" lon="-110.94783"></trkpt>
    <trkpt lat="33.014698" lon="-110.948125"></trkpt>
    <trkpt lat="33.014739" lon="-110.948717"></trkpt>
    <trkpt lat="33.015129" lon="-110.949751"></trkpt>
    <trkpt lat="33.015264" lon="-110.950006"></trkpt>
    <trkpt lat="33.015862" lon="-110.951138"></trkpt>
    <trkpt lat="33.016072" lon="-110.951255"></trkpt>
    <trkpt lat="33.016595" lon="-110.951546"></trkpt>
    <trkpt lat="33.016457" lon="-110.952878"></trkpt>
    <trkpt lat="33.01646" lon="-110.952996"></trkpt>
    <trkpt lat="33.01648" lon="-110.953721"></trkpt>
    <trkpt lat="33.016583" lon="-110.954092"></trkpt>
    <trkpt lat="33.016665" lon="-110.954388"></trkpt>
    <trkpt lat="33.016858" lon="-110.95508"></trkpt>
    <trkpt lat="33.017328" lon="-110.956767"></trkpt>
    <trkpt lat="33.017581" lon="-110.957125"></trkpt>
    <trkpt lat="33.017694" lon="-110.957284"></trkpt>
    <trkpt lat="33.017969" lon="-110.958019"></trkpt>
    <trkpt lat="33.018198" lon="-110.958291"></trkpt>
    <trkpt lat="33.018784" lon="-110.958531"></trkpt>
    <trkpt lat="33.018862" lon="-110.958563"></trkpt>
    <trkpt lat="33.018934" lon="-110.958636"></trkpt>
    <trkpt lat="33.019592" lon="-110.959302"></trkpt>
    <trkpt lat="33.019641" lon="-110.959352"></trkpt>
    <trkpt lat="33.01965" lon="-110.959386"></trkpt>
    <trkpt lat="33.01987" lon="-110.960222"></trkpt>
    <trkpt lat="33.019962" lon="-110.960956"></trkpt>
    <trkpt lat="33.020168" lon="-110.961419"></trkpt>
    <trkpt lat="33.020328" lon="-110.962207"></trkpt>
    <trkpt lat="33.020526" lon="-110.962697"></trkpt>
    <trkpt lat="33.020855" lon="-110.963513"></trkpt>
    <trkpt lat="33.020855" lon="-110.964247"></trkpt>
    <trkpt lat="33.020763" lon="-110.964818"></trkpt>
    <trkpt lat="33.020786" lon="-110.965498"></trkpt>
    <trkpt lat="33.021976" lon="-110.970693"></trkpt>
    <trkpt lat="33.022182" lon="-110.970911"></trkpt>
    <trkpt lat="33.022755" lon="-110.970938"></trkpt>
    <trkpt lat="33.022824" lon="-110.97102"></trkpt>
    <trkpt lat="33.024015" lon="-110.971102"></trkpt>
    <trkpt lat="33.02445" lon="-110.970993"></trkpt>
    <trkpt lat="33.025344" lon="-110.970477"></trkpt>
    <trkpt lat="33.026306" lon="-110.97064"></trkpt>
    <trkpt lat="33.026581" lon="-110.970967"></trkpt>
    <trkpt lat="33.02681" lon="-110.971674"></trkpt>
    <trkpt lat="33.026696" lon="-110.972191"></trkpt>
    <trkpt lat="33.026123" lon="-110.973061"></trkpt>
    <trkpt lat="33.025985" lon="-110.973741"></trkpt>
    <trkpt lat="33.025503" lon="-110.974775"></trkpt>
    <trkpt lat="33.0252755" lon="-110.9768847"></trkpt>
    <trkpt lat="33.0252238" lon="-110.9769908"></trkpt>
    <trkpt lat="33.0252711" lon="-110.9773669"></trkpt>
    <trkpt lat="33.025451" lon="-110.9776516"></trkpt>
    <trkpt lat="33.025463" lon="-110.9778677"></trkpt>
    <trkpt lat="33.0255253" lon="-110.9780002"></trkpt>
    <trkpt lat="33.0255721" lon="-110.978038"></trkpt>
    <trkpt lat="33.0256045" lon="-110.9780643"></trkpt>
    <trkpt lat="33.0256689" lon="-110.9780706"></trkpt>
    <trkpt lat="33.0258126" lon="-110.9780846"></trkpt>
    <trkpt lat="33.0258833" lon="-110.9781901"></trkpt>
    <trkpt lat="33.0260061" lon="-110.9785726"></trkpt>
    <trkpt lat="33.0260821" lon="-110.9788095"></trkpt>
    <trkpt lat="33.0261035" lon="-110.978844"></trkpt>
    <trkpt lat="33.0262519" lon="-110.9790838"></trkpt>
    <trkpt lat="33.026327" lon="-110.9791531"></trkpt>
    <trkpt lat="33.0263616" lon="-110.979185"></trkpt>
    <trkpt lat="33.026446" lon="-110.9791766"></trkpt>
    <trkpt lat="33.0264769" lon="-110.9791736"></trkpt>
    <trkpt lat="33.026506" lon="-110.9791707"></trkpt>
    <trkpt lat="33.0265958" lon="-110.9791032"></trkpt>
    <trkpt lat="33.0266673" lon="-110.9790541"></trkpt>
    <trkpt lat="33.0267324" lon="-110.9790095"></trkpt>
    <trkpt lat="33.0268406" lon="-110.9790644"></trkpt>
    <trkpt lat="33.0269517" lon="-110.9791656"></trkpt>
    <trkpt lat="33.0269524" lon="-110.9793631"></trkpt>
    <trkpt lat="33.0269614" lon="-110.9794934"></trkpt>
    <trkpt lat="33.0269637" lon="-110.979526"></trkpt>
    <trkpt lat="33.0270267" lon="-110.9798281"></trkpt>
    <trkpt lat="33.0270591" lon="-110.9799664"></trkpt>
    <trkpt lat="33.0270975" lon="-110.9801302"></trkpt>
    <trkpt lat="33.0270734" lon="-110.9803496"></trkpt>
    <trkpt lat="33.0270027" lon="-110.9803758"></trkpt>
    <trkpt lat="33.0268951" lon="-110.9803243"></trkpt>
    <trkpt lat="33.0268404" lon="-110.980337"></trkpt>
    <trkpt lat="33.0267986" lon="-110.9805611"></trkpt>
    <trkpt lat="33.0267881" lon="-110.9806172"></trkpt>
    <trkpt lat="33.0268067" lon="-110.9806548"></trkpt>
    <trkpt lat="33.0268998" lon="-110.9808433"></trkpt>
    <trkpt lat="33.0269637" lon="-110.9808948"></trkpt>
    <trkpt lat="33.0270244" lon="-110.9809437"></trkpt>
    <trkpt lat="33.0271512" lon="-110.9809339"></trkpt>
    <trkpt lat="33.0272674" lon="-110.9808619"></trkpt>
    <trkpt lat="33.0272756" lon="-110.9808568"></trkpt>
    <trkpt lat="33.0273456" lon="-110.980818"></trkpt>
    <trkpt lat="33.0274297" lon="-110.980818"></trkpt>
    <trkpt lat="33.027456" lon="-110.980818"></trkpt>
    <trkpt lat="33.0275317" lon="-110.9809125"></trkpt>
    <trkpt lat="33.0275623" lon="-110.9810178"></trkpt>
    <trkpt lat="33.0276152" lon="-110.9812003"></trkpt>
    <trkpt lat="33.0277864" lon="-110.9813632"></trkpt>
    <trkpt lat="33.0279159" lon="-110.9813834"></trkpt>
    <trkpt lat="33.0280008" lon="-110.9813894"></trkpt>
    <trkpt lat="33.0280708" lon="-110.9813944"></trkpt>
    <trkpt lat="33.0280812" lon="-110.9814044"></trkpt>
    <trkpt lat="33.0281182" lon="-110.98144"></trkpt>
    <trkpt lat="33.028102" lon="-110.9815547"></trkpt>
    <trkpt lat="33.0279619" lon="-110.9816678"></trkpt>
    <trkpt lat="33.0278763" lon="-110.9817117"></trkpt>
    <trkpt lat="33.0277114" lon="-110.9816628"></trkpt>
    <trkpt lat="33.0276336" lon="-110.9816273"></trkpt>
    <trkpt lat="33.0274659" lon="-110.9816366"></trkpt>
    <trkpt lat="33.0273944" lon="-110.9816552"></trkpt>
    <trkpt lat="33.0272352" lon="-110.9816417"></trkpt>
    <trkpt lat="33.0271326" lon="-110.9816931"></trkpt>
    <trkpt lat="33.0270364" lon="-110.9817564"></trkpt>
    <trkpt lat="33.0269847" lon="-110.9819005"></trkpt>
  </trkseg></trk>
</gpx>
