<?xml version="1.0" encoding="UTF-8"?>
<gpx xmlns="http://www.topografix.com/GPX/1/1" version="1.1" creator="az-planning">
  <metadata><name>Link 4: Rio Salado Pathway from Tempe Town Lake</name></metadata>
  <trk><name>Link 4: Rio Salado Pathway from Tempe Town Lake</name><trkseg>
    <trkpt lat="33.440926" lon="-111.916707"><ele>358.8</ele></trkpt>
    <trkpt lat="33.440895" lon="-111.916738"><ele>358.8</ele></trkpt>
    <trkpt lat="33.440798" lon="-111.916891"><ele>359.0</ele></trkpt>
    <trkpt lat="33.440716" lon="-111.917087"><ele>358.8</ele></trkpt>
    <trkpt lat="33.440617" lon="-111.917381"><ele>358.2</ele></trkpt>
    <trkpt lat="33.440581" lon="-111.91744"><ele>358.0</ele></trkpt>
    <trkpt lat="33.440489" lon="-111.9175"><ele>357.8</ele></trkpt>
    <trkpt lat="33.440259" lon="-111.917569"><ele>356.8</ele></trkpt>
    <trkpt lat="33.440017" lon="-111.91757"><ele>356.0</ele></trkpt>
    <trkpt lat="33.439971" lon="-111.91757"><ele>355.8</ele></trkpt>
    <trkpt lat="33.43997" lon="-111.917871"><ele>355.8</ele></trkpt>
    <trkpt lat="33.439969" lon="-111.917955"><ele>355.8</ele></trkpt>
    <trkpt lat="33.439795" lon="-111.917956"><ele>355.5</ele></trkpt>
    <trkpt lat="33.439504" lon="-111.917958"><ele>355.2</ele></trkpt>
    <trkpt lat="33.439443" lon="-111.917958"><ele>355.2</ele></trkpt>
    <trkpt lat="33.439266" lon="-111.917959"><ele>355.0</ele></trkpt>
    <trkpt lat="33.439177" lon="-111.91796"><ele>354.8</ele></trkpt>
    <trkpt lat="33.439137" lon="-111.91796"><ele>354.8</ele></trkpt>
    <trkpt lat="33.438996" lon="-111.917958"><ele>354.8</ele></trkpt>
    <trkpt lat="33.438748" lon="-111.917955"><ele>354.8</ele></trkpt>
    <trkpt lat="33.438403" lon="-111.91797"><ele>354.8</ele></trkpt>
    <trkpt lat="33.438208" lon="-111.917993"><ele>355.0</ele></trkpt>
    <trkpt lat="33.437919" lon="-111.918059"><ele>355.0</ele></trkpt>
    <trkpt lat="33.437676" lon="-111.918142"><ele>355.0</ele></trkpt>
    <trkpt lat="33.437413" lon="-111.91827"><ele>354.2</ele></trkpt>
    <trkpt lat="33.437202" lon="-111.918403"><ele>352.8</ele></trkpt>
    <trkpt lat="33.437082" lon="-111.918498"><ele>352.2</ele></trkpt>
    <trkpt lat="33.436354" lon="-111.919179"><ele>352.2</ele></trkpt>
    <trkpt lat="33.43573" lon="-111.919787"><ele>353.0</ele></trkpt>
    <trkpt lat="33.435635" lon="-111.919899"><ele>353.0</ele></trkpt>
    <trkpt lat="33.435581" lon="-111.920013"><ele>353.2</ele></trkpt>
    <trkpt lat="33.435549" lon="-111.920096"><ele>352.8</ele></trkpt>
    <trkpt lat="33.435535" lon="-111.920211"><ele>352.2</ele></trkpt>
    <trkpt lat="33.435528" lon="-111.920371"><ele>351.8</ele></trkpt>
    <trkpt lat="33.435536" lon="-111.920856"><ele>350.0</ele></trkpt>
    <trkpt lat="33.435536" lon="-111.921244"><ele>351.2</ele></trkpt>
    <trkpt lat="33.435535" lon="-111.921723"><ele>352.8</ele></trkpt>
    <trkpt lat="33.43553" lon="-111.922871"><ele>354.2</ele></trkpt>
    <trkpt lat="33.435412" lon="-111.923972"><ele>357.5</ele></trkpt>
    <trkpt lat="33.435369" lon="-111.924367"><ele>358.5</ele></trkpt>
    <trkpt lat="33.435328" lon="-111.924541"><ele>358.5</ele></trkpt>
    <trkpt lat="33.435288" lon="-111.924635"><ele>358.5</ele></trkpt>
    <trkpt lat="33.4352" lon="-111.924766"><ele>358.2</ele></trkpt>
    <trkpt lat="33.43509" lon="-111.924869"><ele>358.0</ele></trkpt>
    <trkpt lat="33.435012" lon="-111.924915"><ele>357.8</ele></trkpt>
    <trkpt lat="33.434958" lon="-111.924937"><ele>357.8</ele></trkpt>
    <trkpt lat="33.434901" lon="-111.924948"><ele>357.5</ele></trkpt>
    <trkpt lat="33.434723" lon="-111.924954"><ele>357.2</ele></trkpt>
    <trkpt lat="33.434548" lon="-111.924953"><ele>356.8</ele></trkpt>
    <trkpt lat="33.434477" lon="-111.924985"><ele>356.5</ele></trkpt>
    <trkpt lat="33.434318" lon="-111.924994"><ele>356.2</ele></trkpt>
    <trkpt lat="33.434253" lon="-111.925017"><ele>356.0</ele></trkpt>
    <trkpt lat="33.434178" lon="-111.925066"><ele>356.0</ele></trkpt>
    <trkpt lat="33.434163" lon="-111.925083"><ele>355.8</ele></trkpt>
    <trkpt lat="33.434109" lon="-111.925179"><ele>355.5</ele></trkpt>
    <trkpt lat="33.434097" lon="-111.925227"><ele>355.5</ele></trkpt>
    <trkpt lat="33.434084" lon="-111.925302"><ele>355.5</ele></trkpt>
    <trkpt lat="33.434078" lon="-111.92552"><ele>355.5</ele></trkpt>
    <trkpt lat="33.434067" lon="-111.92605"><ele>355.5</ele></trkpt>
    <trkpt lat="33.434042" lon="-111.926255"><ele>355.5</ele></trkpt>
    <trkpt lat="33.433906" lon="-111.926259"><ele>355.2</ele></trkpt>
    <trkpt lat="33.433591" lon="-111.926271"><ele>355.0</ele></trkpt>
    <trkpt lat="33.432606" lon="-111.926283"><ele>354.2</ele></trkpt>
    <trkpt lat="33.431218" lon="-111.926288"><ele>353.2</ele></trkpt>
    <trkpt lat="33.429842" lon="-111.926288"><ele>352.2</ele></trkpt>
    <trkpt lat="33.429479" lon="-111.926293"><ele>352.2</ele></trkpt>
    <trkpt lat="33.429001" lon="-111.926285"><ele>354.2</ele></trkpt>
    <trkpt lat="33.428896" lon="-111.926283"><ele>355.0</ele></trkpt>
    <trkpt lat="33.428819" lon="-111.926282"><ele>355.2</ele></trkpt>
    <trkpt lat="33.428785" lon="-111.926282"><ele>355.5</ele></trkpt>
    <trkpt lat="33.428773" lon="-111.926105"><ele>355.2</ele></trkpt>
    <trkpt lat="33.428735" lon="-111.925529"><ele>355.8</ele></trkpt>
    <trkpt lat="33.428702" lon="-111.924833"><ele>357.0</ele></trkpt>
    <trkpt lat="33.428705" lon="-111.924755"><ele>357.0</ele></trkpt>
    <trkpt lat="33.428709" lon="-111.924627"><ele>356.8</ele></trkpt>
    <trkpt lat="33.428722" lon="-111.9245"><ele>356.8</ele></trkpt>
    <trkpt lat="33.428746" lon="-111.924373"><ele>356.5</ele></trkpt>
    <trkpt lat="33.42879" lon="-111.924211"><ele>356.2</ele></trkpt>
    <trkpt lat="33.428884" lon="-111.923923"><ele>355.2</ele></trkpt>
    <trkpt lat="33.429191" lon="-111.923123"><ele>353.8</ele></trkpt>
    <trkpt lat="33.429226" lon="-111.922974"><ele>353.8</ele></trkpt>
    <trkpt lat="33.429257" lon="-111.922802"><ele>353.8</ele></trkpt>
    <trkpt lat="33.429272" lon="-111.922541"><ele>353.8</ele></trkpt>
    <trkpt lat="33.42926" lon="-111.92175"><ele>350.2</ele></trkpt>
    <trkpt lat="33.429257" lon="-111.92116"><ele>354.5</ele></trkpt>
    <trkpt lat="33.429239" lon="-111.919298"><ele>355.8</ele></trkpt>
    <trkpt lat="33.429219" lon="-111.918602"><ele>356.8</ele></trkpt>
    <trkpt lat="33.429215" lon="-111.918075"><ele>356.0</ele></trkpt>
    <trkpt lat="33.429214" lon="-111.917926"><ele>355.8</ele></trkpt>
    <trkpt lat="33.429211" lon="-111.917781"><ele>355.2</ele></trkpt>
    <trkpt lat="33.429216" lon="-111.916674"><ele>348.8</ele></trkpt>
    <trkpt lat="33.429206" lon="-111.915184"><ele>348.0</ele></trkpt>
    <trkpt lat="33.429226" lon="-111.914735"><ele>349.5</ele></trkpt>
    <trkpt lat="33.429261" lon="-111.914244"><ele>351.8</ele></trkpt>
    <trkpt lat="33.429277" lon="-111.913907"><ele>352.8</ele></trkpt>
    <trkpt lat="33.42928" lon="-111.913654"><ele>353.8</ele></trkpt>
    <trkpt lat="33.429274" lon="-111.913367"><ele>354.8</ele></trkpt>
    <trkpt lat="33.429239" lon="-111.912713"><ele>352.0</ele></trkpt>
    <trkpt lat="33.429232" lon="-111.912637"><ele>351.8</ele></trkpt>
    <trkpt lat="33.429092" lon="-111.911443"><ele>351.0</ele></trkpt>
    <trkpt lat="33.429067" lon="-111.910801"><ele>350.2</ele></trkpt>
    <trkpt lat="33.429078" lon="-111.910151"><ele>352.0</ele></trkpt>
    <trkpt lat="33.429097" lon="-111.909958"><ele>352.5</ele></trkpt>
    <trkpt lat="33.429122" lon="-111.909714"><ele>353.0</ele></trkpt>
    <trkpt lat="33.42917" lon="-111.90924"><ele>353.8</ele></trkpt>
    <trkpt lat="33.429185" lon="-111.909083"><ele>354.0</ele></trkpt>
    <trkpt lat="33.429203" lon="-111.908897"><ele>354.5</ele></trkpt>
    <trkpt lat="33.429231" lon="-111.908573"><ele>355.2</ele></trkpt>
    <trkpt lat="33.429239" lon="-111.908374"><ele>355.8</ele></trkpt>
    <trkpt lat="33.429241" lon="-111.908246"><ele>356.0</ele></trkpt>
    <trkpt lat="33.429245" lon="-111.907935"><ele>356.2</ele></trkpt>
    <trkpt lat="33.429252" lon="-111.907443"><ele>357.0</ele></trkpt>
    <trkpt lat="33.429252" lon="-111.907278"><ele>357.0</ele></trkpt>
    <trkpt lat="33.42925" lon="-111.906817"><ele>357.0</ele></trkpt>
    <trkpt lat="33.429235" lon="-111.906605"><ele>356.8</ele></trkpt>
    <trkpt lat="33.429225" lon="-111.906459"><ele>356.5</ele></trkpt>
    <trkpt lat="33.429206" lon="-111.906214"><ele>355.8</ele></trkpt>
    <trkpt lat="33.429174" lon="-111.905504"><ele>355.8</ele></trkpt>
    <trkpt lat="33.429175" lon="-111.905416"><ele>356.0</ele></trkpt>
    <trkpt lat="33.429182" lon="-111.904868"><ele>357.2</ele></trkpt>
    <trkpt lat="33.429181" lon="-111.904759"><ele>357.5</ele></trkpt>
    <trkpt lat="33.429181" lon="-111.904663"><ele>357.8</ele></trkpt>
    <trkpt lat="33.429187" lon="-111.903648"><ele>358.2</ele></trkpt>
    <trkpt lat="33.429192" lon="-111.90288"><ele>357.2</ele></trkpt>
    <trkpt lat="33.429197" lon="-111.902499"><ele>357.0</ele></trkpt>
    <trkpt lat="33.429207" lon="-111.901631"><ele>358.8</ele></trkpt>
    <trkpt lat="33.429211" lon="-111.901379"><ele>358.5</ele></trkpt>
    <trkpt lat="33.429212" lon="-111.901287"><ele>358.5</ele></trkpt>
    <trkpt lat="33.429221" lon="-111.900576"><ele>358.2</ele></trkpt>
    <trkpt lat="33.429222" lon="-111.900497"><ele>358.2</ele></trkpt>
    <trkpt lat="33.429223" lon="-111.900408"><ele>358.5</ele></trkpt>
    <trkpt lat="33.429224" lon="-111.900333"><ele>358.5</ele></trkpt>
    <trkpt lat="33.429235" lon="-111.899653"><ele>359.0</ele></trkpt>
    <trkpt lat="33.429244" lon="-111.899158"><ele>359.0</ele></trkpt>
    <trkpt lat="33.429255" lon="-111.898758"><ele>359.8</ele></trkpt>
    <trkpt lat="33.42929" lon="-111.898009"><ele>360.5</ele></trkpt>
    <trkpt lat="33.429295" lon="-111.89736"><ele>360.2</ele></trkpt>
    <trkpt lat="33.429295" lon="-111.897306"><ele>360.2</ele></trkpt>
    <trkpt lat="33.429296" lon="-111.897171"><ele>360.2</ele></trkpt>
    <trkpt lat="33.429296" lon="-111.897038"><ele>360.2</ele></trkpt>
    <trkpt lat="33.429293" lon="-111.896903"><ele>360.0</ele></trkpt>
    <trkpt lat="33.429291" lon="-111.896774"><ele>360.0</ele></trkpt>
    <trkpt lat="33.429287" lon="-111.896229"><ele>360.5</ele></trkpt>
    <trkpt lat="33.429294" lon="-111.895607"><ele>360.0</ele></trkpt>
    <trkpt lat="33.429294" lon="-111.895445"><ele>359.5</ele></trkpt>
    <trkpt lat="33.429294" lon="-111.895329"><ele>359.0</ele></trkpt>
    <trkpt lat="33.429295" lon="-111.895215"><ele>358.8</ele></trkpt>
    <trkpt lat="33.4293" lon="-111.893907"><ele>360.2</ele></trkpt>
    <trkpt lat="33.429301" lon="-111.893615"><ele>360.2</ele></trkpt>
    <trkpt lat="33.429301" lon="-111.893185"><ele>360.0</ele></trkpt>
    <trkpt lat="33.429301" lon="-111.892415"><ele>358.2</ele></trkpt>
    <trkpt lat="33.429308" lon="-111.891964"><ele>360.0</ele></trkpt>
    <trkpt lat="33.429306" lon="-111.891845"><ele>360.5</ele></trkpt>
    <trkpt lat="33.429303" lon="-111.891756"><ele>360.8</ele></trkpt>
    <trkpt lat="33.429297" lon="-111.891632"><ele>361.5</ele></trkpt>
    <trkpt lat="33.429216" lon="-111.890256"><ele>363.2</ele></trkpt>
    <trkpt lat="33.429215" lon="-111.890141"><ele>362.8</ele></trkpt>
    <trkpt lat="33.429255" lon="-111.889229"><ele>361.8</ele></trkpt>
    <trkpt lat="33.429258" lon="-111.889145"><ele>361.8</ele></trkpt>
    <trkpt lat="33.429287" lon="-111.888119"><ele>359.0</ele></trkpt>
    <trkpt lat="33.429298" lon="-111.886756"><ele>360.8</ele></trkpt>
    <trkpt lat="33.429308" lon="-111.886682"><ele>360.8</ele></trkpt>
    <trkpt lat="33.429343" lon="-111.886494"><ele>360.0</ele></trkpt>
    <trkpt lat="33.429351" lon="-111.88536"><ele>358.0</ele></trkpt>
    <trkpt lat="33.429357" lon="-111.884568"><ele>358.5</ele></trkpt>
    <trkpt lat="33.429368" lon="-111.883002"><ele>360.8</ele></trkpt>
    <trkpt lat="33.429369" lon="-111.882872"><ele>361.2</ele></trkpt>
    <trkpt lat="33.42937" lon="-111.882736"><ele>361.8</ele></trkpt>
    <trkpt lat="33.429375" lon="-111.880412"><ele>363.5</ele></trkpt>
    <trkpt lat="33.429375" lon="-111.880274"><ele>363.0</ele></trkpt>
    <trkpt lat="33.429377" lon="-111.880138"><ele>362.5</ele></trkpt>
    <trkpt lat="33.429407" lon="-111.877828"><ele>363.5</ele></trkpt>
    <trkpt lat="33.429408" lon="-111.877732"><ele>363.2</ele></trkpt>
    <trkpt lat="33.429409" lon="-111.877608"><ele>363.0</ele></trkpt>
    <trkpt lat="33.429409" lon="-111.877525"><ele>363.0</ele></trkpt>
    <trkpt lat="33.429411" lon="-111.876729"><ele>363.5</ele></trkpt>
    <trkpt lat="33.429424" lon="-111.87546"><ele>363.8</ele></trkpt>
    <trkpt lat="33.429427" lon="-111.875166"><ele>362.8</ele></trkpt>
    <trkpt lat="33.429435" lon="-111.874473"><ele>362.5</ele></trkpt>
    <trkpt lat="33.429436" lon="-111.874275"><ele>362.5</ele></trkpt>
    <trkpt lat="33.429433" lon="-111.874098"><ele>363.0</ele></trkpt>
    <trkpt lat="33.429436" lon="-111.873435"><ele>366.8</ele></trkpt>
    <trkpt lat="33.429433" lon="-111.872954"><ele>367.0</ele></trkpt>
    <trkpt lat="33.429429" lon="-111.872255"><ele>366.2</ele></trkpt>
    <trkpt lat="33.429425" lon="-111.871679"><ele>365.5</ele></trkpt>
    <trkpt lat="33.42942" lon="-111.869931"><ele>366.5</ele></trkpt>
    <trkpt lat="33.429419" lon="-111.869644"><ele>367.2</ele></trkpt>
    <trkpt lat="33.429418" lon="-111.869291"><ele>368.0</ele></trkpt>
    <trkpt lat="33.429418" lon="-111.869129"><ele>368.2</ele></trkpt>
    <trkpt lat="33.429418" lon="-111.869013"><ele>367.8</ele></trkpt>
    <trkpt lat="33.429417" lon="-111.868652"><ele>366.2</ele></trkpt>
    <trkpt lat="33.429416" lon="-111.868359"><ele>365.2</ele></trkpt>
    <trkpt lat="33.429413" lon="-111.86707"><ele>365.8</ele></trkpt>
    <trkpt lat="33.429413" lon="-111.86701"><ele>366.0</ele></trkpt>
    <trkpt lat="33.429414" lon="-111.866546"><ele>367.8</ele></trkpt>
    <trkpt lat="33.429413" lon="-111.86547"><ele>371.2</ele></trkpt>
    <trkpt lat="33.429414" lon="-111.865107"><ele>372.2</ele></trkpt>
    <trkpt lat="33.429415" lon="-111.865026"><ele>372.5</ele></trkpt>
    <trkpt lat="33.429416" lon="-111.864667"><ele>373.0</ele></trkpt>
    <trkpt lat="33.429417" lon="-111.864368"><ele>373.5</ele></trkpt>
    <trkpt lat="33.429417" lon="-111.864219"><ele>373.5</ele></trkpt>
    <trkpt lat="33.429417" lon="-111.864058"><ele>373.8</ele></trkpt>
    <trkpt lat="33.429415" lon="-111.862344"><ele>376.0</ele></trkpt>
    <trkpt lat="33.429407" lon="-111.861746"><ele>376.0</ele></trkpt>
    <trkpt lat="33.429404" lon="-111.861329"><ele>376.2</ele></trkpt>
    <trkpt lat="33.429402" lon="-111.861232"><ele>376.2</ele></trkpt>
    <trkpt lat="33.429403" lon="-111.861152"><ele>376.2</ele></trkpt>
    <trkpt lat="33.429407" lon="-111.860797"><ele>376.5</ele></trkpt>
    <trkpt lat="33.429412" lon="-111.860338"><ele>375.8</ele></trkpt>
    <trkpt lat="33.429409" lon="-111.859818"><ele>375.5</ele></trkpt>
    <trkpt lat="33.429405" lon="-111.858554"><ele>377.0</ele></trkpt>
    <trkpt lat="33.429404" lon="-111.85844"><ele>377.2</ele></trkpt>
    <trkpt lat="33.4294" lon="-111.857339"><ele>378.5</ele></trkpt>
    <trkpt lat="33.429399" lon="-111.857107"><ele>378.0</ele></trkpt>
    <trkpt lat="33.429398" lon="-111.856825"><ele>377.2</ele></trkpt>
    <trkpt lat="33.429397" lon="-111.856483"><ele>377.2</ele></trkpt>
    <trkpt lat="33.429397" lon="-111.8563"><ele>377.8</ele></trkpt>
    <trkpt lat="33.429398" lon="-111.856119"><ele>378.2</ele></trkpt>
    <trkpt lat="33.4294" lon="-111.855909"><ele>378.8</ele></trkpt>
    <trkpt lat="33.4294" lon="-111.855867"><ele>379.0</ele></trkpt>
    <trkpt lat="33.4294" lon="-111.855825"><ele>379.0</ele></trkpt>
    <trkpt lat="33.429403" lon="-111.855566"><ele>377.8</ele></trkpt>
    <trkpt lat="33.429403" lon="-111.855517"><ele>377.5</ele></trkpt>
    <trkpt lat="33.429406" lon="-111.855215"><ele>376.0</ele></trkpt>
    <trkpt lat="33.429407" lon="-111.855154"><ele>375.8</ele></trkpt>
    <trkpt lat="33.429418" lon="-111.854605"><ele>374.5</ele></trkpt>
    <trkpt lat="33.429423" lon="-111.854349"><ele>374.2</ele></trkpt>
    <trkpt lat="33.429444" lon="-111.853155"><ele>374.8</ele></trkpt>
    <trkpt lat="33.429449" lon="-111.852888"><ele>376.5</ele></trkpt>
    <trkpt lat="33.429453" lon="-111.852714"><ele>377.2</ele></trkpt>
    <trkpt lat="33.42946" lon="-111.852357"><ele>378.5</ele></trkpt>
    <trkpt lat="33.429461" lon="-111.852245"><ele>378.5</ele></trkpt>
    <trkpt lat="33.429465" lon="-111.852152"><ele>378.5</ele></trkpt>
    <trkpt lat="33.429466" lon="-111.85206"><ele>378.2</ele></trkpt>
    <trkpt lat="33.429467" lon="-111.851966"><ele>378.2</ele></trkpt>
    <trkpt lat="33.429471" lon="-111.851569"><ele>378.2</ele></trkpt>
    <trkpt lat="33.429473" lon="-111.851406"><ele>378.8</ele></trkpt>
    <trkpt lat="33.429474" lon="-111.851282"><ele>379.0</ele></trkpt>
    <trkpt lat="33.429475" lon="-111.851137"><ele>379.2</ele></trkpt>
    <trkpt lat="33.429481" lon="-111.850566"><ele>380.0</ele></trkpt>
    <trkpt lat="33.429499" lon="-111.849807"><ele>380.2</ele></trkpt>
    <trkpt lat="33.429502" lon="-111.849705"><ele>380.0</ele></trkpt>
    <trkpt lat="33.429506" lon="-111.849411"><ele>379.2</ele></trkpt>
    <trkpt lat="33.429522" lon="-111.84838"><ele>380.5</ele></trkpt>
    <trkpt lat="33.429528" lon="-111.848096"><ele>380.5</ele></trkpt>
    <trkpt lat="33.429531" lon="-111.848"><ele>380.5</ele></trkpt>
    <trkpt lat="33.429542" lon="-111.847521"><ele>380.0</ele></trkpt>
    <trkpt lat="33.429547" lon="-111.847156"><ele>380.2</ele></trkpt>
    <trkpt lat="33.42956" lon="-111.846307"><ele>380.8</ele></trkpt>
    <trkpt lat="33.429563" lon="-111.846117"><ele>380.8</ele></trkpt>
    <trkpt lat="33.429568" lon="-111.845694"><ele>381.0</ele></trkpt>
    <trkpt lat="33.429569" lon="-111.845628"><ele>381.2</ele></trkpt>
    <trkpt lat="33.429571" lon="-111.845519"><ele>381.5</ele></trkpt>
    <trkpt lat="33.429573" lon="-111.845373"><ele>381.8</ele></trkpt>
    <trkpt lat="33.429574" lon="-111.845315"><ele>381.8</ele></trkpt>
    <trkpt lat="33.429578" lon="-111.845002"><ele>382.2</ele></trkpt>
    <trkpt lat="33.42958" lon="-111.844843"><ele>382.0</ele></trkpt>
    <trkpt lat="33.42958" lon="-111.844729"><ele>381.5</ele></trkpt>
    <trkpt lat="33.429686" lon="-111.844729"><ele>382.0</ele></trkpt>
    <trkpt lat="33.429966" lon="-111.844729"><ele>383.5</ele></trkpt>
    <trkpt lat="33.430139" lon="-111.844728"><ele>383.0</ele></trkpt>
    <trkpt lat="33.430314" lon="-111.844728"><ele>382.5</ele></trkpt>
    <trkpt lat="33.430452" lon="-111.844727"><ele>382.0</ele></trkpt>
    <trkpt lat="33.430741" lon="-111.844728"><ele>381.2</ele></trkpt>
    <trkpt lat="33.430879" lon="-111.844728"><ele>381.0</ele></trkpt>
    <trkpt lat="33.430913" lon="-111.844728"><ele>381.0</ele></trkpt>
    <trkpt lat="33.431105" lon="-111.844728"><ele>381.0</ele></trkpt>
    <trkpt lat="33.431274" lon="-111.844727"><ele>381.0</ele></trkpt>
    <trkpt lat="33.431408" lon="-111.844727"><ele>381.0</ele></trkpt>
    <trkpt lat="33.431637" lon="-111.844727"><ele>381.0</ele></trkpt>
    <trkpt lat="33.431866" lon="-111.844727"><ele>380.8</ele></trkpt>
    <trkpt lat="33.432303" lon="-111.844727"><ele>380.5</ele></trkpt>
    <trkpt lat="33.432501" lon="-111.844726"><ele>380.5</ele></trkpt>
    <trkpt lat="33.432777" lon="-111.844709"><ele>379.5</ele></trkpt>
    <trkpt lat="33.432908" lon="-111.84476"><ele>379.0</ele></trkpt>
    <trkpt lat="33.433206" lon="-111.844735"><ele>378.0</ele></trkpt>
    <trkpt lat="33.433534" lon="-111.844687"><ele>378.2</ele></trkpt>
    <trkpt lat="33.433862" lon="-111.844627"><ele>379.5</ele></trkpt>
    <trkpt lat="33.434018" lon="-111.844589"><ele>380.0</ele></trkpt>
    <trkpt lat="33.434246" lon="-111.844529"><ele>380.5</ele></trkpt>
    <trkpt lat="33.434379" lon="-111.844473"><ele>380.5</ele></trkpt>
    <trkpt lat="33.4345" lon="-111.844412"><ele>380.5</ele></trkpt>
    <trkpt lat="33.434581" lon="-111.844356"><ele>380.8</ele></trkpt>
    <trkpt lat="33.434744" lon="-111.844215"><ele>381.2</ele></trkpt>
    <trkpt lat="33.43481" lon="-111.844141"><ele>381.5</ele></trkpt>
    <trkpt lat="33.434926" lon="-111.843982"><ele>381.2</ele></trkpt>
    <trkpt lat="33.435027" lon="-111.843805"><ele>381.0</ele></trkpt>
    <trkpt lat="33.435109" lon="-111.84359"><ele>381.0</ele></trkpt>
    <trkpt lat="33.435155" lon="-111.843399"><ele>381.0</ele></trkpt>
    <trkpt lat="33.435184" lon="-111.843152"><ele>381.2</ele></trkpt>
    <trkpt lat="33.435187" lon="-111.84293"><ele>381.8</ele></trkpt>
    <trkpt lat="33.43519" lon="-111.84277"><ele>382.0</ele></trkpt>
    <trkpt lat="33.435195" lon="-111.842452"><ele>382.2</ele></trkpt>
    <trkpt lat="33.435201" lon="-111.84188"><ele>382.5</ele></trkpt>
    <trkpt lat="33.435203" lon="-111.841686"><ele>382.5</ele></trkpt>
    <trkpt lat="33.435214" lon="-111.841138"><ele>383.2</ele></trkpt>
    <trkpt lat="33.43528" lon="-111.840208"><ele>382.5</ele></trkpt>
    <trkpt lat="33.435295" lon="-111.84011"><ele>382.2</ele></trkpt>
    <trkpt lat="33.435306" lon="-111.840088"><ele>382.2</ele></trkpt>
    <trkpt lat="33.435342" lon="-111.840057"><ele>382.2</ele></trkpt>
    <trkpt lat="33.435387" lon="-111.840044"><ele>382.0</ele></trkpt>
    <trkpt lat="33.43578" lon="-111.840043"><ele>381.0</ele></trkpt>
    <trkpt lat="33.436111" lon="-111.840041"><ele>380.8</ele></trkpt>
    <trkpt lat="33.436597" lon="-111.840025"><ele>380.0</ele></trkpt>
    <trkpt lat="33.43676" lon="-111.840022"><ele>380.5</ele></trkpt>
    <trkpt lat="33.436887" lon="-111.84002"><ele>381.2</ele></trkpt>
    <trkpt lat="33.436917" lon="-111.84002"><ele>381.5</ele></trkpt>
    <trkpt lat="33.436918" lon="-111.839957"><ele>381.2</ele></trkpt>
    <trkpt lat="33.436919" lon="-111.839821"><ele>381.2</ele></trkpt>
    <trkpt lat="33.43692" lon="-111.839742"><ele>381.2</ele></trkpt>
    <trkpt lat="33.436925" lon="-111.831367"><ele>380.2</ele></trkpt>
    <trkpt lat="33.436925" lon="-111.831255"><ele>380.2</ele></trkpt>
    <trkpt lat="33.436925" lon="-111.831143"><ele>380.5</ele></trkpt>
    <trkpt lat="33.436925" lon="-111.830999"><ele>380.8</ele></trkpt>
    <trkpt lat="33.436942" lon="-111.830861"><ele>381.2</ele></trkpt>
    <trkpt lat="33.436929" lon="-111.830553"><ele>382.8</ele></trkpt>
    <trkpt lat="33.43693" lon="-111.826606"><ele>382.5</ele></trkpt>
    <trkpt lat="33.436951" lon="-111.822778"><ele>383.2</ele></trkpt>
    <trkpt lat="33.436951" lon="-111.822719"><ele>383.2</ele></trkpt>
    <trkpt lat="33.436952" lon="-111.822617"><ele>383.5</ele></trkpt>
    <trkpt lat="33.436952" lon="-111.822558"><ele>383.5</ele></trkpt>
    <trkpt lat="33.436948" lon="-111.816664"><ele>383.0</ele></trkpt>
    <trkpt lat="33.436962" lon="-111.816581"><ele>383.0</ele></trkpt>
    <trkpt lat="33.436984" lon="-111.816514"><ele>383.0</ele></trkpt>
    <trkpt lat="33.437024" lon="-111.816455"><ele>383.0</ele></trkpt>
    <trkpt lat="33.437078" lon="-111.816396"><ele>383.2</ele></trkpt>
    <trkpt lat="33.437107" lon="-111.816378"><ele>383.2</ele></trkpt>
    <trkpt lat="33.437127" lon="-111.816337"><ele>383.2</ele></trkpt>
    <trkpt lat="33.437133" lon="-111.816289"><ele>383.2</ele></trkpt>
    <trkpt lat="33.437163" lon="-111.816037"><ele>383.0</ele></trkpt>
    <trkpt lat="33.437166" lon="-111.815998"><ele>383.0</ele></trkpt>
    <trkpt lat="33.440659" lon="-111.816793"><ele>382.0</ele></trkpt>
    <trkpt lat="33.44095" lon="-111.816825"><ele>382.2</ele></trkpt>
    <trkpt lat="33.441218" lon="-111.816825"><ele>382.8</ele></trkpt>
    <trkpt lat="33.441402" lon="-111.816798"><ele>383.2</ele></trkpt>
    <trkpt lat="33.441742" lon="-111.816691"><ele>383.8</ele></trkpt>
    <trkpt lat="33.441894" lon="-111.816589"><ele>383.8</ele></trkpt>
    <trkpt lat="33.442239" lon="-111.81638"><ele>383.5</ele></trkpt>
    <trkpt lat="33.442566" lon="-111.816103"><ele>383.0</ele></trkpt>
    <trkpt lat="33.444973" lon="-111.813802"><ele>386.8</ele></trkpt>
    <trkpt lat="33.447306" lon="-111.811552"><ele>384.2</ele></trkpt>
    <trkpt lat="33.448792" lon="-111.810039"><ele>383.0</ele></trkpt>
    <trkpt lat="33.44992" lon="-111.809108"><ele>384.0</ele></trkpt>
    <trkpt lat="33.450842" lon="-111.808457"><ele>382.5</ele></trkpt>
    <trkpt lat="33.451367" lon="-111.808066"><ele>381.2</ele></trkpt>
    <trkpt lat="33.451367" lon="-111.808103"><ele>381.2</ele></trkpt>
    <trkpt lat="33.451367" lon="-111.808315"><ele>380.5</ele></trkpt>
    <trkpt lat="33.451367" lon="-111.808365"><ele>380.2</ele></trkpt>
    <trkpt lat="33.451498" lon="-111.808266"><ele>380.0</ele></trkpt>
    <trkpt lat="33.452052" lon="-111.807843"><ele>379.5</ele></trkpt>
    <trkpt lat="33.452158" lon="-111.807743"><ele>379.2</ele></trkpt>
    <trkpt lat="33.45274" lon="-111.807249"><ele>378.5</ele></trkpt>
    <trkpt lat="33.453224" lon="-111.806871"><ele>379.8</ele></trkpt>
    <trkpt lat="33.453274" lon="-111.80681"><ele>380.0</ele></trkpt>
    <trkpt lat="33.453382" lon="-111.806633"><ele>380.8</ele></trkpt>
    <trkpt lat="33.45347" lon="-111.806474"><ele>381.2</ele></trkpt>
    <trkpt lat="33.453603" lon="-111.80619"><ele>382.0</ele></trkpt>
    <trkpt lat="33.453689" lon="-111.806082"><ele>382.0</ele></trkpt>
    <trkpt lat="33.45377" lon="-111.806028"><ele>382.0</ele></trkpt>
    <trkpt lat="33.453879" lon="-111.806"><ele>381.5</ele></trkpt>
    <trkpt lat="33.454008" lon="-111.805981"><ele>381.0</ele></trkpt>
    <trkpt lat="33.454096" lon="-111.805954"><ele>380.8</ele></trkpt>
    <trkpt lat="33.454201" lon="-111.805901"><ele>380.5</ele></trkpt>
    <trkpt lat="33.454302" lon="-111.805836"><ele>380.5</ele></trkpt>
    <trkpt lat="33.45443" lon="-111.805725"><ele>381.0</ele></trkpt>
    <trkpt lat="33.45461" lon="-111.805533"><ele>381.5</ele></trkpt>
    <trkpt lat="33.454825" lon="-111.805259"><ele>381.8</ele></trkpt>
    <trkpt lat="33.454947" lon="-111.805135"><ele>381.8</ele></trkpt>
    <trkpt lat="33.455192" lon="-111.804951"><ele>381.0</ele></trkpt>
    <trkpt lat="33.455284" lon="-111.804889"><ele>381.0</ele></trkpt>
    <trkpt lat="33.455365" lon="-111.804812"><ele>381.0</ele></trkpt>
    <trkpt lat="33.455653" lon="-111.804508"><ele>382.2</ele></trkpt>
    <trkpt lat="33.455829" lon="-111.804282"><ele>383.8</ele></trkpt>
    <trkpt lat="33.456539" lon="-111.803462"><ele>382.2</ele></trkpt>
    <trkpt lat="33.456633" lon="-111.803382"><ele>382.0</ele></trkpt>
    <trkpt lat="33.456715" lon="-111.803277"><ele>382.0</ele></trkpt>
    <trkpt lat="33.456784" lon="-111.803132"><ele>382.2</ele></trkpt>
    <trkpt lat="33.456887" lon="-111.802866"><ele>383.0</ele></trkpt>
    <trkpt lat="33.45694" lon="-111.802762"><ele>383.2</ele></trkpt>
    <trkpt lat="33.457026" lon="-111.802678"><ele>383.0</ele></trkpt>
    <trkpt lat="33.457118" lon="-111.802627"><ele>382.8</ele></trkpt>
    <trkpt lat="33.457277" lon="-111.802579"><ele>382.0</ele></trkpt>
    <trkpt lat="33.457403" lon="-111.802497"><ele>381.5</ele></trkpt>
    <trkpt lat="33.45754" lon="-111.802379"><ele>381.2</ele></trkpt>
    <trkpt lat="33.458245" lon="-111.801614"><ele>380.8</ele></trkpt>
    <trkpt lat="33.458404" lon="-111.801453"><ele>381.0</ele></trkpt>
    <trkpt lat="33.458784" lon="-111.801046"><ele>382.8</ele></trkpt>
    <trkpt lat="33.458932" lon="-111.800877"><ele>383.2</ele></trkpt>
    <trkpt lat="33.459228" lon="-111.80046"><ele>383.0</ele></trkpt>
    <trkpt lat="33.459533" lon="-111.799927"><ele>382.5</ele></trkpt>
    <trkpt lat="33.459614" lon="-111.799801"><ele>382.8</ele></trkpt>
    <trkpt lat="33.460252" lon="-111.798943"><ele>383.8</ele></trkpt>
    <trkpt lat="33.460396" lon="-111.798725"><ele>384.0</ele></trkpt>
    <trkpt lat="33.460639" lon="-111.798262"><ele>385.0</ele></trkpt>
    <trkpt lat="33.46113" lon="-111.79725"><ele>382.0</ele></trkpt>
    <trkpt lat="33.461478" lon="-111.79666"><ele>383.5</ele></trkpt>
    <trkpt lat="33.461588" lon="-111.796494"><ele>383.8</ele></trkpt>
    <trkpt lat="33.461861" lon="-111.796129"><ele>383.8</ele></trkpt>
    <trkpt lat="33.462046" lon="-111.795931"><ele>383.5</ele></trkpt>
    <trkpt lat="33.462111" lon="-111.795874"><ele>383.2</ele></trkpt>
    <trkpt lat="33.462281" lon="-111.795657"><ele>383.0</ele></trkpt>
    <trkpt lat="33.462342" lon="-111.795563"><ele>382.8</ele></trkpt>
    <trkpt lat="33.462431" lon="-111.795443"><ele>382.8</ele></trkpt>
    <trkpt lat="33.462481" lon="-111.795353"><ele>382.5</ele></trkpt>
    <trkpt lat="33.462545" lon="-111.795209"><ele>382.5</ele></trkpt>
    <trkpt lat="33.462602" lon="-111.795029"><ele>382.5</ele></trkpt>
    <trkpt lat="33.462656" lon="-111.794892"><ele>382.8</ele></trkpt>
    <trkpt lat="33.46274" lon="-111.79474"><ele>383.0</ele></trkpt>
    <trkpt lat="33.463402" lon="-111.793648"><ele>382.5</ele></trkpt>
    <trkpt lat="33.463532" lon="-111.79342"><ele>382.8</ele></trkpt>
    <trkpt lat="33.463966" lon="-111.792326"><ele>382.8</ele></trkpt>
    <trkpt lat="33.464015" lon="-111.792181"><ele>382.5</ele></trkpt>
    <trkpt lat="33.464132" lon="-111.791548"><ele>382.2</ele></trkpt>
    <trkpt lat="33.464159" lon="-111.791304"><ele>382.2</ele></trkpt>
    <trkpt lat="33.464174" lon="-111.791095"><ele>382.5</ele></trkpt>
    <trkpt lat="33.464181" lon="-111.790848"><ele>382.8</ele></trkpt>
    <trkpt lat="33.464172" lon="-111.790561"><ele>382.8</ele></trkpt>
    <trkpt lat="33.464209" lon="-111.789847"><ele>382.8</ele></trkpt>
    <trkpt lat="33.464257" lon="-111.789504"><ele>383.0</ele></trkpt>
    <trkpt lat="33.464345" lon="-111.789005"><ele>383.0</ele></trkpt>
    <trkpt lat="33.464426" lon="-111.788731"><ele>383.0</ele></trkpt>
    <trkpt lat="33.464643" lon="-111.78772"><ele>381.5</ele></trkpt>
    <trkpt lat="33.464824" lon="-111.787056"><ele>381.5</ele></trkpt>
    <trkpt lat="33.464859" lon="-111.786913"><ele>381.8</ele></trkpt>
    <trkpt lat="33.464979" lon="-111.786057"><ele>382.0</ele></trkpt>
    <trkpt lat="33.465009" lon="-111.785792"><ele>382.0</ele></trkpt>
    <trkpt lat="33.465318" lon="-111.784494"><ele>385.0</ele></trkpt>
    <trkpt lat="33.465456" lon="-111.78396"><ele>385.8</ele></trkpt>
    <trkpt lat="33.465547" lon="-111.783699"><ele>385.5</ele></trkpt>
    <trkpt lat="33.465647" lon="-111.783445"><ele>385.0</ele></trkpt>
    <trkpt lat="33.465817" lon="-111.78308"><ele>384.8</ele></trkpt>
    <trkpt lat="33.466738" lon="-111.781213"><ele>385.8</ele></trkpt>
    <trkpt lat="33.466837" lon="-111.781034"><ele>385.8</ele></trkpt>
    <trkpt lat="33.46688" lon="-111.780923"><ele>386.0</ele></trkpt>
    <trkpt lat="33.466904" lon="-111.78083"><ele>386.0</ele></trkpt>
    <trkpt lat="33.46694" lon="-111.78065"><ele>386.8</ele></trkpt>
    <trkpt lat="33.466931" lon="-111.780417"><ele>387.5</ele></trkpt>
    <trkpt lat="33.46692" lon="-111.780331"><ele>388.0</ele></trkpt>
    <trkpt lat="33.466876" lon="-111.780107"><ele>389.2</ele></trkpt>
    <trkpt lat="33.466868" lon="-111.780036"><ele>389.5</ele></trkpt>
    <trkpt lat="33.466866" lon="-111.779902"><ele>390.0</ele></trkpt>
    <trkpt lat="33.466886" lon="-111.779717"><ele>390.2</ele></trkpt>
    <trkpt lat="33.466947" lon="-111.779524"><ele>390.5</ele></trkpt>
    <trkpt lat="33.466986" lon="-111.779432"><ele>390.5</ele></trkpt>
    <trkpt lat="33.467012" lon="-111.779387"><ele>390.5</ele></trkpt>
    <trkpt lat="33.467063" lon="-111.779325"><ele>390.5</ele></trkpt>
    <trkpt lat="33.467189" lon="-111.779234"><ele>390.2</ele></trkpt>
    <trkpt lat="33.467306" lon="-111.77915"><ele>389.8</ele></trkpt>
    <trkpt lat="33.46713" lon="-111.77876"><ele>392.0</ele></trkpt>
    <trkpt lat="33.467058" lon="-111.778596"><ele>393.0</ele></trkpt>
    <trkpt lat="33.46693" lon="-111.778311"><ele>394.8</ele></trkpt>
    <trkpt lat="33.466851" lon="-111.778135"><ele>396.0</ele></trkpt>
    <trkpt lat="33.466795" lon="-111.778006"><ele>397.0</ele></trkpt>
    <trkpt lat="33.466707" lon="-111.7778"><ele>398.2</ele></trkpt>
    <trkpt lat="33.466635" lon="-111.777614"><ele>399.2</ele></trkpt>
    <trkpt lat="33.466602" lon="-111.777512"><ele>399.8</ele></trkpt>
    <trkpt lat="33.466569" lon="-111.777411"><ele>400.0</ele></trkpt>
    <trkpt lat="33.466521" lon="-111.777225"><ele>400.0</ele></trkpt>
    <trkpt lat="33.466476" lon="-111.777022"><ele>400.2</ele></trkpt>
    <trkpt lat="33.466424" lon="-111.776699"><ele>400.8</ele></trkpt>
    <trkpt lat="33.466403" lon="-111.776485"><ele>400.8</ele></trkpt>
    <trkpt lat="33.466394" lon="-111.776257"><ele>400.5</ele></trkpt>
    <trkpt lat="33.466396" lon="-111.775406"><ele>399.2</ele></trkpt>
    <trkpt lat="33.466391" lon="-111.774906"><ele>398.8</ele></trkpt>
    <trkpt lat="33.466379" lon="-111.77074"><ele>401.0</ele></trkpt>
    <trkpt lat="33.466379" lon="-111.77058"><ele>401.2</ele></trkpt>
    <trkpt lat="33.466379" lon="-111.770445"><ele>401.5</ele></trkpt>
    <trkpt lat="33.466382" lon="-111.77003"><ele>402.2</ele></trkpt>
    <trkpt lat="33.466383" lon="-111.769781"><ele>402.2</ele></trkpt>
    <trkpt lat="33.466386" lon="-111.766281"><ele>401.2</ele></trkpt>
    <trkpt lat="33.466392" lon="-111.763768"><ele>404.2</ele></trkpt>
    <trkpt lat="33.466391" lon="-111.763697"><ele>404.5</ele></trkpt>
    <trkpt lat="33.466393" lon="-111.763148"><ele>404.8</ele></trkpt>
    <trkpt lat="33.466398" lon="-111.761905"><ele>405.2</ele></trkpt>
    <trkpt lat="33.466379" lon="-111.759208"><ele>405.0</ele></trkpt>
    <trkpt lat="33.466377" lon="-111.758512"><ele>406.0</ele></trkpt>
    <trkpt lat="33.466375" lon="-111.757726"><ele>406.8</ele></trkpt>
    <trkpt lat="33.466375" lon="-111.757668"><ele>406.8</ele></trkpt>
    <trkpt lat="33.466389" lon="-111.75749"><ele>407.0</ele></trkpt>
    <trkpt lat="33.466384" lon="-111.757059"><ele>407.0</ele></trkpt>
    <trkpt lat="33.466381" lon="-111.756359"><ele>407.2</ele></trkpt>
    <trkpt lat="33.466375" lon="-111.755536"><ele>407.8</ele></trkpt>
    <trkpt lat="33.466384" lon="-111.755293"><ele>408.0</ele></trkpt>
    <trkpt lat="33.466388" lon="-111.754456"><ele>407.8</ele></trkpt>
    <trkpt lat="33.466388" lon="-111.754375"><ele>407.8</ele></trkpt>
    <trkpt lat="33.466391" lon="-111.75343"><ele>407.0</ele></trkpt>
    <trkpt lat="33.466391" lon="-111.75333"><ele>407.0</ele></trkpt>
    <trkpt lat="33.466391" lon="-111.753177"><ele>407.2</ele></trkpt>
    <trkpt lat="33.466391" lon="-111.75308"><ele>407.2</ele></trkpt>
    <trkpt lat="33.466389" lon="-111.752298"><ele>408.2</ele></trkpt>
    <trkpt lat="33.466389" lon="-111.752264"><ele>408.0</ele></trkpt>
    <trkpt lat="33.466385" lon="-111.750995"><ele>408.0</ele></trkpt>
    <trkpt lat="33.466387" lon="-111.750625"><ele>408.2</ele></trkpt>
    <trkpt lat="33.466383" lon="-111.750322"><ele>408.8</ele></trkpt>
    <trkpt lat="33.466386" lon="-111.748889"><ele>410.0</ele></trkpt>
    <trkpt lat="33.466384" lon="-111.74761"><ele>410.8</ele></trkpt>
    <trkpt lat="33.466384" lon="-111.745734"><ele>411.0</ele></trkpt>
    <trkpt lat="33.466384" lon="-111.745651"><ele>411.0</ele></trkpt>
    <trkpt lat="33.466378" lon="-111.744696"><ele>411.5</ele></trkpt>
    <trkpt lat="33.466379" lon="-111.744659"><ele>411.5</ele></trkpt>
    <trkpt lat="33.466381" lon="-111.744446"><ele>411.2</ele></trkpt>
    <trkpt lat="33.46638" lon="-111.742926"><ele>412.0</ele></trkpt>
    <trkpt lat="33.46638" lon="-111.742484"><ele>412.5</ele></trkpt>
    <trkpt lat="33.46638" lon="-111.742351"><ele>412.5</ele></trkpt>
    <trkpt lat="33.466379" lon="-111.741405"><ele>413.0</ele></trkpt>
    <trkpt lat="33.466378" lon="-111.740415"><ele>414.5</ele></trkpt>
    <trkpt lat="33.466378" lon="-111.740277"><ele>415.0</ele></trkpt>
    <trkpt lat="33.466377" lon="-111.74008"><ele>415.2</ele></trkpt>
    <trkpt lat="33.466377" lon="-111.739964"><ele>415.2</ele></trkpt>
    <trkpt lat="33.466377" lon="-111.739465"><ele>413.2</ele></trkpt>
    <trkpt lat="33.466374" lon="-111.738397"><ele>409.5</ele></trkpt>
    <trkpt lat="33.466375" lon="-111.737554"><ele>410.0</ele></trkpt>
    <trkpt lat="33.466395" lon="-111.737167"><ele>411.5</ele></trkpt>
    <trkpt lat="33.466394" lon="-111.737118"><ele>411.8</ele></trkpt>
    <trkpt lat="33.466338" lon="-111.736978"><ele>412.8</ele></trkpt>
    <trkpt lat="33.466324" lon="-111.736745"><ele>414.0</ele></trkpt>
    <trkpt lat="33.466322" lon="-111.736071"><ele>415.0</ele></trkpt>
    <trkpt lat="33.466322" lon="-111.735918"><ele>415.2</ele></trkpt>
    <trkpt lat="33.466322" lon="-111.735762"><ele>415.2</ele></trkpt>
    <trkpt lat="33.466321" lon="-111.733827"><ele>412.8</ele></trkpt>
    <trkpt lat="33.466321" lon="-111.733488"><ele>413.0</ele></trkpt>
    <trkpt lat="33.466321" lon="-111.732623"><ele>414.8</ele></trkpt>
    <trkpt lat="33.466317" lon="-111.724933"><ele>426.2</ele></trkpt>
    <trkpt lat="33.466315" lon="-111.723907"><ele>426.5</ele></trkpt>
    <trkpt lat="33.466315" lon="-111.723864"><ele>426.5</ele></trkpt>
    <trkpt lat="33.466315" lon="-111.723801"><ele>426.8</ele></trkpt>
    <trkpt lat="33.466313" lon="-111.722711"><ele>428.0</ele></trkpt>
    <trkpt lat="33.466311" lon="-111.721795"><ele>427.8</ele></trkpt>
    <trkpt lat="33.466307" lon="-111.719717"><ele>422.0</ele></trkpt>
    <trkpt lat="33.466305" lon="-111.718778"><ele>423.5</ele></trkpt>
    <trkpt lat="33.466305" lon="-111.718668"><ele>423.8</ele></trkpt>
    <trkpt lat="33.466305" lon="-111.718512"><ele>424.0</ele></trkpt>
    <trkpt lat="33.466306" lon="-111.718376"><ele>424.2</ele></trkpt>
    <trkpt lat="33.466313" lon="-111.717668"><ele>426.0</ele></trkpt>
    <trkpt lat="33.466372" lon="-111.717479"><ele>426.5</ele></trkpt>
    <trkpt lat="33.466399" lon="-111.714631"><ele>424.0</ele></trkpt>
    <trkpt lat="33.466392" lon="-111.713244"><ele>426.5</ele></trkpt>
    <trkpt lat="33.466389" lon="-111.71268"><ele>427.8</ele></trkpt>
    <trkpt lat="33.466384" lon="-111.712302"><ele>429.0</ele></trkpt>
    <trkpt lat="33.466367" lon="-111.71116"><ele>431.2</ele></trkpt>
    <trkpt lat="33.46636" lon="-111.710621"><ele>431.8</ele></trkpt>
    <trkpt lat="33.46635" lon="-111.709936"><ele>433.0</ele></trkpt>
    <trkpt lat="33.466343" lon="-111.709083"><ele>433.2</ele></trkpt>
    <trkpt lat="33.466342" lon="-111.709006"><ele>433.2</ele></trkpt>
    <trkpt lat="33.466343" lon="-111.708839"><ele>433.0</ele></trkpt>
    <trkpt lat="33.466348" lon="-111.707778"><ele>434.0</ele></trkpt>
    <trkpt lat="33.466345" lon="-111.705878"><ele>436.5</ele></trkpt>
    <trkpt lat="33.466344" lon="-111.705483"><ele>437.2</ele></trkpt>
    <trkpt lat="33.466344" lon="-111.704629"><ele>438.5</ele></trkpt>
    <trkpt lat="33.466341" lon="-111.704158"><ele>439.0</ele></trkpt>
    <trkpt lat="33.466343" lon="-111.703392"><ele>440.8</ele></trkpt>
    <trkpt lat="33.466335" lon="-111.702884"><ele>441.8</ele></trkpt>
    <trkpt lat="33.466334" lon="-111.702647"><ele>442.2</ele></trkpt>
    <trkpt lat="33.466333" lon="-111.702385"><ele>442.8</ele></trkpt>
    <trkpt lat="33.466334" lon="-111.702362"><ele>442.8</ele></trkpt>
    <trkpt lat="33.466332" lon="-111.701964"><ele>443.8</ele></trkpt>
    <trkpt lat="33.466344" lon="-111.701469"><ele>444.5</ele></trkpt>
    <trkpt lat="33.466347" lon="-111.701289"><ele>444.8</ele></trkpt>
    <trkpt lat="33.466546" lon="-111.701227"><ele>444.2</ele></trkpt>
    <trkpt lat="33.466554" lon="-111.701154"><ele>444.2</ele></trkpt>
    <trkpt lat="33.466518" lon="-111.701094"><ele>444.5</ele></trkpt>
    <trkpt lat="33.466516" lon="-111.700969"><ele>444.5</ele></trkpt>
    <trkpt lat="33.466526" lon="-111.700902"><ele>444.5</ele></trkpt>
    <trkpt lat="33.466556" lon="-111.70089"><ele>444.5</ele></trkpt>
    <trkpt lat="33.466655" lon="-111.700878"><ele>444.0</ele></trkpt>
    <trkpt lat="33.466773" lon="-111.700879"><ele>444.0</ele></trkpt>
    <trkpt lat="33.466848" lon="-111.700857"><ele>444.0</ele></trkpt>
    <trkpt lat="33.466892" lon="-111.700802"><ele>444.2</ele></trkpt>
    <trkpt lat="33.466968" lon="-111.700802"><ele>444.2</ele></trkpt>
    <trkpt lat="33.466972" lon="-111.700803"><ele>444.5</ele></trkpt>
  </trkseg></trk>
</gpx>
