<?xml version="1.0" encoding="UTF-8"?>
<gpx xmlns="http://www.topografix.com/GPX/1/1" version="1.1" creator="az-planning">
  <metadata><name>Link 1a: Pima Rd -&gt; Chaparral Rd -&gt; Alma School Rd</name></metadata>
  <trk><name>Link 1a: Pima Rd -&gt; Chaparral Rd -&gt; Alma School Rd</name><trkseg>
    <trkpt lat="33.586056" lon="-111.882181"><ele>422.8</ele></trkpt>
    <trkpt lat="33.585983" lon="-111.882288"><ele>422.2</ele></trkpt>
    <trkpt lat="33.58587" lon="-111.88233"><ele>421.8</ele></trkpt>
    <trkpt lat="33.58534" lon="-111.88234"><ele>420.0</ele></trkpt>
    <trkpt lat="33.585293" lon="-111.882338"><ele>420.0</ele></trkpt>
    <trkpt lat="33.585293" lon="-111.882363"><ele>419.8</ele></trkpt>
    <trkpt lat="33.585295" lon="-111.882536"><ele>419.0</ele></trkpt>
    <trkpt lat="33.585285" lon="-111.882563"><ele>419.0</ele></trkpt>
    <trkpt lat="33.58526" lon="-111.882632"><ele>419.0</ele></trkpt>
    <trkpt lat="33.585262" lon="-111.882756"><ele>419.2</ele></trkpt>
    <trkpt lat="33.585262" lon="-111.882832"><ele>419.2</ele></trkpt>
    <trkpt lat="33.585263" lon="-111.882895"><ele>419.5</ele></trkpt>
    <trkpt lat="33.585263" lon="-111.883049"><ele>419.8</ele></trkpt>
    <trkpt lat="33.585263" lon="-111.883118"><ele>419.8</ele></trkpt>
    <trkpt lat="33.585263" lon="-111.884008"><ele>421.0</ele></trkpt>
    <trkpt lat="33.585263" lon="-111.884129"><ele>421.2</ele></trkpt>
    <trkpt lat="33.585263" lon="-111.884375"><ele>420.8</ele></trkpt>
    <trkpt lat="33.585263" lon="-111.885189"><ele>419.5</ele></trkpt>
    <trkpt lat="33.585263" lon="-111.885327"><ele>419.5</ele></trkpt>
    <trkpt lat="33.585263" lon="-111.885746"><ele>419.5</ele></trkpt>
    <trkpt lat="33.585263" lon="-111.886038"><ele>419.8</ele></trkpt>
    <trkpt lat="33.584982" lon="-111.886036"><ele>419.0</ele></trkpt>
    <trkpt lat="33.584715" lon="-111.886034"><ele>419.0</ele></trkpt>
    <trkpt lat="33.584498" lon="-111.886038"><ele>419.0</ele></trkpt>
    <trkpt lat="33.584289" lon="-111.886037"><ele>419.0</ele></trkpt>
    <trkpt lat="33.584109" lon="-111.886041"><ele>418.8</ele></trkpt>
    <trkpt lat="33.58354" lon="-111.886113"><ele>416.2</ele></trkpt>
    <trkpt lat="33.583329" lon="-111.886135"><ele>415.5</ele></trkpt>
    <trkpt lat="33.583095" lon="-111.886138"><ele>416.0</ele></trkpt>
    <trkpt lat="33.582753" lon="-111.886128"><ele>416.5</ele></trkpt>
    <trkpt lat="33.582616" lon="-111.886126"><ele>416.8</ele></trkpt>
    <trkpt lat="33.582456" lon="-111.886124"><ele>417.0</ele></trkpt>
    <trkpt lat="33.582354" lon="-111.886202"><ele>417.5</ele></trkpt>
    <trkpt lat="33.582041" lon="-111.886211"><ele>417.8</ele></trkpt>
    <trkpt lat="33.581865" lon="-111.886225"><ele>418.0</ele></trkpt>
    <trkpt lat="33.581481" lon="-111.886307"><ele>418.5</ele></trkpt>
    <trkpt lat="33.581004" lon="-111.886424"><ele>418.8</ele></trkpt>
    <trkpt lat="33.580539" lon="-111.886537"><ele>419.0</ele></trkpt>
    <trkpt lat="33.580303" lon="-111.886585"><ele>419.0</ele></trkpt>
    <trkpt lat="33.579959" lon="-111.886632"><ele>418.8</ele></trkpt>
    <trkpt lat="33.579757" lon="-111.886639"><ele>418.2</ele></trkpt>
    <trkpt lat="33.579599" lon="-111.886632"><ele>418.0</ele></trkpt>
    <trkpt lat="33.57931" lon="-111.886604"><ele>417.2</ele></trkpt>
    <trkpt lat="33.579237" lon="-111.88659"><ele>417.2</ele></trkpt>
    <trkpt lat="33.579135" lon="-111.886571"><ele>417.0</ele></trkpt>
    <trkpt lat="33.579056" lon="-111.886554"><ele>417.0</ele></trkpt>
    <trkpt lat="33.578859" lon="-111.886491"><ele>416.8</ele></trkpt>
    <trkpt lat="33.578664" lon="-111.886399"><ele>416.2</ele></trkpt>
    <trkpt lat="33.578537" lon="-111.886317"><ele>416.0</ele></trkpt>
    <trkpt lat="33.578492" lon="-111.886298"><ele>416.0</ele></trkpt>
    <trkpt lat="33.57839" lon="-111.886284"><ele>415.5</ele></trkpt>
    <trkpt lat="33.578344" lon="-111.886289"><ele>415.5</ele></trkpt>
    <trkpt lat="33.578288" lon="-111.886306"><ele>415.5</ele></trkpt>
    <trkpt lat="33.578213" lon="-111.886332"><ele>415.2</ele></trkpt>
    <trkpt lat="33.578163" lon="-111.886368"><ele>415.2</ele></trkpt>
    <trkpt lat="33.578146" lon="-111.88637"><ele>415.2</ele></trkpt>
    <trkpt lat="33.578102" lon="-111.886377"><ele>415.2</ele></trkpt>
    <trkpt lat="33.578062" lon="-111.886372"><ele>415.2</ele></trkpt>
    <trkpt lat="33.578024" lon="-111.886356"><ele>415.2</ele></trkpt>
    <trkpt lat="33.57799" lon="-111.88633"><ele>415.0</ele></trkpt>
    <trkpt lat="33.577969" lon="-111.886305"><ele>415.0</ele></trkpt>
    <trkpt lat="33.577953" lon="-111.886278"><ele>415.0</ele></trkpt>
    <trkpt lat="33.577868" lon="-111.886204"><ele>414.8</ele></trkpt>
    <trkpt lat="33.577823" lon="-111.886173"><ele>414.8</ele></trkpt>
    <trkpt lat="33.577767" lon="-111.886136"><ele>414.5</ele></trkpt>
    <trkpt lat="33.577497" lon="-111.88599"><ele>414.0</ele></trkpt>
    <trkpt lat="33.577319" lon="-111.885909"><ele>413.5</ele></trkpt>
    <trkpt lat="33.576997" lon="-111.885819"><ele>412.8</ele></trkpt>
    <trkpt lat="33.576778" lon="-111.885793"><ele>412.2</ele></trkpt>
    <trkpt lat="33.576593" lon="-111.885789"><ele>412.2</ele></trkpt>
    <trkpt lat="33.576419" lon="-111.8858"><ele>412.8</ele></trkpt>
    <trkpt lat="33.576246" lon="-111.885821"><ele>413.5</ele></trkpt>
    <trkpt lat="33.575718" lon="-111.885949"><ele>414.5</ele></trkpt>
    <trkpt lat="33.575625" lon="-111.885972"><ele>414.5</ele></trkpt>
    <trkpt lat="33.575244" lon="-111.886065"><ele>414.5</ele></trkpt>
    <trkpt lat="33.575181" lon="-111.886078"><ele>414.5</ele></trkpt>
    <trkpt lat="33.57507" lon="-111.886105"><ele>414.5</ele></trkpt>
    <trkpt lat="33.574991" lon="-111.886125"><ele>414.5</ele></trkpt>
    <trkpt lat="33.574551" lon="-111.886229"><ele>414.2</ele></trkpt>
    <trkpt lat="33.574426" lon="-111.886206"><ele>414.0</ele></trkpt>
    <trkpt lat="33.573734" lon="-111.886378"><ele>414.8</ele></trkpt>
    <trkpt lat="33.573683" lon="-111.88639"><ele>415.0</ele></trkpt>
    <trkpt lat="33.573002" lon="-111.886562"><ele>415.8</ele></trkpt>
    <trkpt lat="33.572718" lon="-111.886632"><ele>415.8</ele></trkpt>
    <trkpt lat="33.572635" lon="-111.886651"><ele>415.8</ele></trkpt>
    <trkpt lat="33.572313" lon="-111.886736"><ele>415.8</ele></trkpt>
    <trkpt lat="33.57204" lon="-111.886802"><ele>415.5</ele></trkpt>
    <trkpt lat="33.571801" lon="-111.886861"><ele>415.2</ele></trkpt>
    <trkpt lat="33.571714" lon="-111.886882"><ele>415.0</ele></trkpt>
    <trkpt lat="33.571612" lon="-111.886908"><ele>415.0</ele></trkpt>
    <trkpt lat="33.571189" lon="-111.887016"><ele>413.8</ele></trkpt>
    <trkpt lat="33.571053" lon="-111.887052"><ele>413.2</ele></trkpt>
    <trkpt lat="33.570559" lon="-111.88717"><ele>412.8</ele></trkpt>
    <trkpt lat="33.569982" lon="-111.887308"><ele>412.2</ele></trkpt>
    <trkpt lat="33.569895" lon="-111.887379"><ele>412.2</ele></trkpt>
    <trkpt lat="33.569688" lon="-111.887407"><ele>412.0</ele></trkpt>
    <trkpt lat="33.569571" lon="-111.887408"><ele>412.0</ele></trkpt>
    <trkpt lat="33.569489" lon="-111.887403"><ele>412.0</ele></trkpt>
    <trkpt lat="33.569395" lon="-111.887387"><ele>412.2</ele></trkpt>
    <trkpt lat="33.569187" lon="-111.887334"><ele>412.2</ele></trkpt>
    <trkpt lat="33.569044" lon="-111.887221"><ele>412.5</ele></trkpt>
    <trkpt lat="33.568899" lon="-111.88717"><ele>412.8</ele></trkpt>
    <trkpt lat="33.568692" lon="-111.887097"><ele>412.8</ele></trkpt>
    <trkpt lat="33.568598" lon="-111.887075"><ele>413.0</ele></trkpt>
    <trkpt lat="33.568451" lon="-111.887044"><ele>413.0</ele></trkpt>
    <trkpt lat="33.568315" lon="-111.887023"><ele>413.0</ele></trkpt>
    <trkpt lat="33.568228" lon="-111.887014"><ele>412.8</ele></trkpt>
    <trkpt lat="33.56813" lon="-111.887011"><ele>412.5</ele></trkpt>
    <trkpt lat="33.567969" lon="-111.887075"><ele>412.0</ele></trkpt>
    <trkpt lat="33.567714" lon="-111.887062"><ele>411.2</ele></trkpt>
    <trkpt lat="33.567465" lon="-111.887051"><ele>410.5</ele></trkpt>
    <trkpt lat="33.567293" lon="-111.887054"><ele>409.2</ele></trkpt>
    <trkpt lat="33.567057" lon="-111.88709"><ele>408.0</ele></trkpt>
    <trkpt lat="33.566942" lon="-111.887129"><ele>407.8</ele></trkpt>
    <trkpt lat="33.566849" lon="-111.887158"><ele>407.2</ele></trkpt>
    <trkpt lat="33.566749" lon="-111.887194"><ele>407.0</ele></trkpt>
    <trkpt lat="33.566651" lon="-111.887236"><ele>407.0</ele></trkpt>
    <trkpt lat="33.566535" lon="-111.887285"><ele>408.0</ele></trkpt>
    <trkpt lat="33.566142" lon="-111.887514"><ele>410.5</ele></trkpt>
    <trkpt lat="33.566012" lon="-111.88762"><ele>410.2</ele></trkpt>
    <trkpt lat="33.565839" lon="-111.88778"><ele>409.5</ele></trkpt>
    <trkpt lat="33.565777" lon="-111.887851"><ele>409.0</ele></trkpt>
    <trkpt lat="33.565368" lon="-111.888344"><ele>406.2</ele></trkpt>
    <trkpt lat="33.564898" lon="-111.888889"><ele>405.0</ele></trkpt>
    <trkpt lat="33.564707" lon="-111.889124"><ele>404.2</ele></trkpt>
    <trkpt lat="33.564637" lon="-111.889211"><ele>404.2</ele></trkpt>
    <trkpt lat="33.564566" lon="-111.889295"><ele>404.2</ele></trkpt>
    <trkpt lat="33.564423" lon="-111.889465"><ele>404.5</ele></trkpt>
    <trkpt lat="33.564214" lon="-111.889707"><ele>404.5</ele></trkpt>
    <trkpt lat="33.563895" lon="-111.890074"><ele>405.8</ele></trkpt>
    <trkpt lat="33.563639" lon="-111.890373"><ele>405.5</ele></trkpt>
    <trkpt lat="33.56351" lon="-111.890514"><ele>405.0</ele></trkpt>
    <trkpt lat="33.56339" lon="-111.890634"><ele>404.2</ele></trkpt>
    <trkpt lat="33.563144" lon="-111.890847"><ele>403.5</ele></trkpt>
    <trkpt lat="33.563015" lon="-111.890944"><ele>404.5</ele></trkpt>
    <trkpt lat="33.562882" lon="-111.891032"><ele>405.0</ele></trkpt>
    <trkpt lat="33.562641" lon="-111.891164"><ele>405.8</ele></trkpt>
    <trkpt lat="33.562404" lon="-111.89127"><ele>406.0</ele></trkpt>
    <trkpt lat="33.562268" lon="-111.891322"><ele>406.2</ele></trkpt>
    <trkpt lat="33.561975" lon="-111.891404"><ele>406.5</ele></trkpt>
    <trkpt lat="33.561735" lon="-111.891448"><ele>406.5</ele></trkpt>
    <trkpt lat="33.561542" lon="-111.891466"><ele>406.5</ele></trkpt>
    <trkpt lat="33.561201" lon="-111.891468"><ele>405.8</ele></trkpt>
    <trkpt lat="33.560292" lon="-111.891462"><ele>405.5</ele></trkpt>
    <trkpt lat="33.560187" lon="-111.891462"><ele>405.8</ele></trkpt>
    <trkpt lat="33.558472" lon="-111.891469"><ele>405.2</ele></trkpt>
    <trkpt lat="33.557745" lon="-111.891472"><ele>404.8</ele></trkpt>
    <trkpt lat="33.555365" lon="-111.891488"><ele>404.5</ele></trkpt>
    <trkpt lat="33.553888" lon="-111.891495"><ele>401.0</ele></trkpt>
    <trkpt lat="33.553623" lon="-111.891496"><ele>401.2</ele></trkpt>
    <trkpt lat="33.553136" lon="-111.891497"><ele>401.8</ele></trkpt>
    <trkpt lat="33.552958" lon="-111.891497"><ele>402.0</ele></trkpt>
    <trkpt lat="33.552798" lon="-111.891498"><ele>402.2</ele></trkpt>
    <trkpt lat="33.547031" lon="-111.89153"><ele>398.2</ele></trkpt>
    <trkpt lat="33.546725" lon="-111.891524"><ele>397.8</ele></trkpt>
    <trkpt lat="33.545996" lon="-111.891504"><ele>397.8</ele></trkpt>
    <trkpt lat="33.545912" lon="-111.891501"><ele>397.8</ele></trkpt>
    <trkpt lat="33.545824" lon="-111.891501"><ele>397.8</ele></trkpt>
    <trkpt lat="33.545778" lon="-111.891502"><ele>397.8</ele></trkpt>
    <trkpt lat="33.543978" lon="-111.8915"><ele>397.8</ele></trkpt>
    <trkpt lat="33.542893" lon="-111.891487"><ele>395.8</ele></trkpt>
    <trkpt lat="33.542185" lon="-111.891484"><ele>396.0</ele></trkpt>
    <trkpt lat="33.542074" lon="-111.891483"><ele>396.0</ele></trkpt>
    <trkpt lat="33.540275" lon="-111.891503"><ele>395.8</ele></trkpt>
    <trkpt lat="33.539707" lon="-111.89151"><ele>394.0</ele></trkpt>
    <trkpt lat="33.539316" lon="-111.891514"><ele>392.2</ele></trkpt>
    <trkpt lat="33.539165" lon="-111.891516"><ele>391.5</ele></trkpt>
    <trkpt lat="33.538579" lon="-111.891522"><ele>392.0</ele></trkpt>
    <trkpt lat="33.538427" lon="-111.891523"><ele>392.2</ele></trkpt>
    <trkpt lat="33.538277" lon="-111.891524"><ele>392.5</ele></trkpt>
    <trkpt lat="33.536784" lon="-111.891517"><ele>392.8</ele></trkpt>
    <trkpt lat="33.536189" lon="-111.891518"><ele>393.8</ele></trkpt>
    <trkpt lat="33.535988" lon="-111.891514"><ele>394.0</ele></trkpt>
    <trkpt lat="33.535335" lon="-111.891521"><ele>392.2</ele></trkpt>
    <trkpt lat="33.534789" lon="-111.891506"><ele>390.8</ele></trkpt>
    <trkpt lat="33.534552" lon="-111.891516"><ele>390.5</ele></trkpt>
    <trkpt lat="33.53237" lon="-111.891531"><ele>390.0</ele></trkpt>
    <trkpt lat="33.532041" lon="-111.891534"><ele>390.0</ele></trkpt>
    <trkpt lat="33.53197" lon="-111.891535"><ele>389.8</ele></trkpt>
    <trkpt lat="33.531573" lon="-111.891537"><ele>390.0</ele></trkpt>
    <trkpt lat="33.531525" lon="-111.891532"><ele>390.0</ele></trkpt>
    <trkpt lat="33.531325" lon="-111.891533"><ele>390.0</ele></trkpt>
    <trkpt lat="33.529098" lon="-111.891543"><ele>388.8</ele></trkpt>
    <trkpt lat="33.526968" lon="-111.89154"><ele>387.2</ele></trkpt>
    <trkpt lat="33.525713" lon="-111.891553"><ele>386.5</ele></trkpt>
    <trkpt lat="33.524987" lon="-111.89156"><ele>385.8</ele></trkpt>
    <trkpt lat="33.524006" lon="-111.891595"><ele>386.5</ele></trkpt>
    <trkpt lat="33.523917" lon="-111.891594"><ele>386.2</ele></trkpt>
    <trkpt lat="33.523817" lon="-111.891594"><ele>386.0</ele></trkpt>
    <trkpt lat="33.523723" lon="-111.891593"><ele>385.8</ele></trkpt>
    <trkpt lat="33.523166" lon="-111.891593"><ele>385.2</ele></trkpt>
    <trkpt lat="33.522245" lon="-111.891566"><ele>385.2</ele></trkpt>
    <trkpt lat="33.520991" lon="-111.891572"><ele>385.2</ele></trkpt>
    <trkpt lat="33.520663" lon="-111.891573"><ele>385.5</ele></trkpt>
    <trkpt lat="33.518596" lon="-111.89157"><ele>384.5</ele></trkpt>
    <trkpt lat="33.518457" lon="-111.891573"><ele>384.5</ele></trkpt>
    <trkpt lat="33.518057" lon="-111.891578"><ele>384.8</ele></trkpt>
    <trkpt lat="33.516686" lon="-111.891583"><ele>384.8</ele></trkpt>
    <trkpt lat="33.516558" lon="-111.891593"><ele>385.0</ele></trkpt>
    <trkpt lat="33.516462" lon="-111.891593"><ele>385.2</ele></trkpt>
    <trkpt lat="33.516074" lon="-111.891592"><ele>385.8</ele></trkpt>
    <trkpt lat="33.515125" lon="-111.891598"><ele>387.0</ele></trkpt>
    <trkpt lat="33.514173" lon="-111.89161"><ele>386.0</ele></trkpt>
    <trkpt lat="33.513273" lon="-111.891616"><ele>384.8</ele></trkpt>
    <trkpt lat="33.513113" lon="-111.891618"><ele>384.8</ele></trkpt>
    <trkpt lat="33.512929" lon="-111.891617"><ele>384.8</ele></trkpt>
    <trkpt lat="33.512526" lon="-111.891615"><ele>384.8</ele></trkpt>
    <trkpt lat="33.512138" lon="-111.891615"><ele>384.0</ele></trkpt>
    <trkpt lat="33.511459" lon="-111.891625"><ele>382.8</ele></trkpt>
    <trkpt lat="33.511207" lon="-111.891631"><ele>382.5</ele></trkpt>
    <trkpt lat="33.510593" lon="-111.891655"><ele>382.8</ele></trkpt>
    <trkpt lat="33.510097" lon="-111.891668"><ele>384.5</ele></trkpt>
    <trkpt lat="33.509929" lon="-111.89167"><ele>384.8</ele></trkpt>
    <trkpt lat="33.509501" lon="-111.891684"><ele>384.8</ele></trkpt>
    <trkpt lat="33.509394" lon="-111.891689"><ele>384.8</ele></trkpt>
    <trkpt lat="33.509386" lon="-111.891553"><ele>385.2</ele></trkpt>
    <trkpt lat="33.509383" lon="-111.8915"><ele>385.5</ele></trkpt>
    <trkpt lat="33.509382" lon="-111.890973"><ele>387.0</ele></trkpt>
    <trkpt lat="33.509382" lon="-111.890924"><ele>387.0</ele></trkpt>
    <trkpt lat="33.509383" lon="-111.890673"><ele>387.0</ele></trkpt>
    <trkpt lat="33.509385" lon="-111.890273"><ele>385.8</ele></trkpt>
    <trkpt lat="33.509386" lon="-111.889925"><ele>384.8</ele></trkpt>
    <trkpt lat="33.509388" lon="-111.889724"><ele>384.8</ele></trkpt>
    <trkpt lat="33.509304" lon="-111.889385"><ele>384.5</ele></trkpt>
    <trkpt lat="33.5093" lon="-111.889196"><ele>384.2</ele></trkpt>
    <trkpt lat="33.509292" lon="-111.888805"><ele>384.2</ele></trkpt>
    <trkpt lat="33.509288" lon="-111.888625"><ele>384.0</ele></trkpt>
    <trkpt lat="33.509289" lon="-111.888446"><ele>384.0</ele></trkpt>
    <trkpt lat="33.509295" lon="-111.887313"><ele>383.8</ele></trkpt>
    <trkpt lat="33.509311" lon="-111.887134"><ele>383.2</ele></trkpt>
    <trkpt lat="33.509328" lon="-111.886688"><ele>382.0</ele></trkpt>
    <trkpt lat="33.509369" lon="-111.885417"><ele>383.2</ele></trkpt>
    <trkpt lat="33.50937" lon="-111.885268"><ele>383.0</ele></trkpt>
    <trkpt lat="33.509373" lon="-111.884963"><ele>382.5</ele></trkpt>
    <trkpt lat="33.50938" lon="-111.883902"><ele>381.8</ele></trkpt>
    <trkpt lat="33.509388" lon="-111.882789"><ele>380.5</ele></trkpt>
    <trkpt lat="33.509387" lon="-111.882644"><ele>380.5</ele></trkpt>
    <trkpt lat="33.509386" lon="-111.882563"><ele>380.5</ele></trkpt>
    <trkpt lat="33.509382" lon="-111.882216"><ele>380.5</ele></trkpt>
    <trkpt lat="33.509401" lon="-111.881112"><ele>381.0</ele></trkpt>
    <trkpt lat="33.509432" lon="-111.880845"><ele>381.0</ele></trkpt>
    <trkpt lat="33.509463" lon="-111.878919"><ele>381.0</ele></trkpt>
    <trkpt lat="33.509462" lon="-111.878486"><ele>381.8</ele></trkpt>
    <trkpt lat="33.509462" lon="-111.878321"><ele>382.0</ele></trkpt>
    <trkpt lat="33.509481" lon="-111.874041"><ele>383.2</ele></trkpt>
    <trkpt lat="33.509503" lon="-111.869699"><ele>384.0</ele></trkpt>
    <trkpt lat="33.509525" lon="-111.865393"><ele>383.2</ele></trkpt>
    <trkpt lat="33.509546" lon="-111.856739"><ele>384.8</ele></trkpt>
    <trkpt lat="33.505924" lon="-111.856726"><ele>385.0</ele></trkpt>
    <trkpt lat="33.504759" lon="-111.85673"><ele>382.5</ele></trkpt>
    <trkpt lat="33.502327" lon="-111.856739"><ele>384.8</ele></trkpt>
    <trkpt lat="33.49869" lon="-111.85675"><ele>382.0</ele></trkpt>
    <trkpt lat="33.497147" lon="-111.856743"><ele>380.2</ele></trkpt>
    <trkpt lat="33.496788" lon="-111.856741"><ele>380.8</ele></trkpt>
    <trkpt lat="33.496023" lon="-111.856737"><ele>380.8</ele></trkpt>
    <trkpt lat="33.495055" lon="-111.856733"><ele>381.8</ele></trkpt>
    <trkpt lat="33.493419" lon="-111.856735"><ele>381.8</ele></trkpt>
    <trkpt lat="33.49324" lon="-111.856735"><ele>381.8</ele></trkpt>
    <trkpt lat="33.492262" lon="-111.856737"><ele>381.8</ele></trkpt>
    <trkpt lat="33.492036" lon="-111.856736"><ele>381.8</ele></trkpt>
    <trkpt lat="33.491455" lon="-111.856739"><ele>381.0</ele></trkpt>
    <trkpt lat="33.48961" lon="-111.856736"><ele>378.0</ele></trkpt>
    <trkpt lat="33.488386" lon="-111.856735"><ele>377.8</ele></trkpt>
    <trkpt lat="33.488193" lon="-111.856735"><ele>378.2</ele></trkpt>
    <trkpt lat="33.4878" lon="-111.856734"><ele>379.2</ele></trkpt>
    <trkpt lat="33.48727" lon="-111.856734"><ele>379.2</ele></trkpt>
    <trkpt lat="33.486772" lon="-111.856734"><ele>378.2</ele></trkpt>
    <trkpt lat="33.485851" lon="-111.856734"><ele>377.0</ele></trkpt>
    <trkpt lat="33.484177" lon="-111.856733"><ele>377.8</ele></trkpt>
    <trkpt lat="33.483891" lon="-111.856733"><ele>377.2</ele></trkpt>
    <trkpt lat="33.483425" lon="-111.856732"><ele>376.2</ele></trkpt>
    <trkpt lat="33.483062" lon="-111.856731"><ele>376.0</ele></trkpt>
    <trkpt lat="33.480541" lon="-111.856728"><ele>376.8</ele></trkpt>
    <trkpt lat="33.477387" lon="-111.856686"><ele>375.0</ele></trkpt>
    <trkpt lat="33.477378" lon="-111.856686"><ele>375.0</ele></trkpt>
    <trkpt lat="33.476962" lon="-111.85668"><ele>375.5</ele></trkpt>
    <trkpt lat="33.476872" lon="-111.856679"><ele>375.8</ele></trkpt>
    <trkpt lat="33.473299" lon="-111.856715"><ele>374.0</ele></trkpt>
    <trkpt lat="33.470824" lon="-111.856699"><ele>374.0</ele></trkpt>
    <trkpt lat="33.470379" lon="-111.856696"><ele>373.8</ele></trkpt>
    <trkpt lat="33.470102" lon="-111.856695"><ele>373.8</ele></trkpt>
    <trkpt lat="33.469672" lon="-111.856692"><ele>372.8</ele></trkpt>
    <trkpt lat="33.467844" lon="-111.85672"><ele>369.2</ele></trkpt>
    <trkpt lat="33.466371" lon="-111.856729"><ele>370.2</ele></trkpt>
    <trkpt lat="33.465963" lon="-111.856735"><ele>368.5</ele></trkpt>
    <trkpt lat="33.465783" lon="-111.856736"><ele>368.0</ele></trkpt>
    <trkpt lat="33.465587" lon="-111.85673"><ele>367.5</ele></trkpt>
    <trkpt lat="33.4649" lon="-111.856704"><ele>366.0</ele></trkpt>
    <trkpt lat="33.464777" lon="-111.856718"><ele>366.0</ele></trkpt>
    <trkpt lat="33.464472" lon="-111.856752"><ele>366.0</ele></trkpt>
    <trkpt lat="33.464269" lon="-111.856776"><ele>366.0</ele></trkpt>
    <trkpt lat="33.462984" lon="-111.857058"><ele>372.5</ele></trkpt>
    <trkpt lat="33.462705" lon="-111.857112"><ele>372.2</ele></trkpt>
    <trkpt lat="33.462212" lon="-111.857141"><ele>372.0</ele></trkpt>
    <trkpt lat="33.461338" lon="-111.857152"><ele>372.2</ele></trkpt>
    <trkpt lat="33.461261" lon="-111.857152"><ele>372.2</ele></trkpt>
    <trkpt lat="33.460448" lon="-111.857159"><ele>369.5</ele></trkpt>
    <trkpt lat="33.460165" lon="-111.857168"><ele>367.8</ele></trkpt>
    <trkpt lat="33.458913" lon="-111.857284"><ele>367.2</ele></trkpt>
    <trkpt lat="33.45858" lon="-111.857297"><ele>366.0</ele></trkpt>
    <trkpt lat="33.457098" lon="-111.857309"><ele>365.5</ele></trkpt>
    <trkpt lat="33.456636" lon="-111.857313"><ele>365.8</ele></trkpt>
    <trkpt lat="33.456066" lon="-111.857317"><ele>366.2</ele></trkpt>
    <trkpt lat="33.455908" lon="-111.857318"><ele>366.2</ele></trkpt>
    <trkpt lat="33.455912" lon="-111.857145"><ele>366.5</ele></trkpt>
    <trkpt lat="33.455911" lon="-111.856903"><ele>367.0</ele></trkpt>
    <trkpt lat="33.455893" lon="-111.856471"><ele>367.5</ele></trkpt>
    <trkpt lat="33.455816" lon="-111.855771"><ele>366.5</ele></trkpt>
    <trkpt lat="33.45568" lon="-111.855076"><ele>364.0</ele></trkpt>
    <trkpt lat="33.455537" lon="-111.854544"><ele>363.0</ele></trkpt>
    <trkpt lat="33.455293" lon="-111.853848"><ele>362.2</ele></trkpt>
    <trkpt lat="33.454914" lon="-111.85305"><ele>360.0</ele></trkpt>
    <trkpt lat="33.453602" lon="-111.8509"><ele>360.2</ele></trkpt>
    <trkpt lat="33.452987" lon="-111.8499"><ele>361.5</ele></trkpt>
    <trkpt lat="33.452657" lon="-111.849333"><ele>363.8</ele></trkpt>
    <trkpt lat="33.452482" lon="-111.849007"><ele>365.2</ele></trkpt>
    <trkpt lat="33.452389" lon="-111.848813"><ele>366.0</ele></trkpt>
    <trkpt lat="33.452237" lon="-111.848598"><ele>367.0</ele></trkpt>
    <trkpt lat="33.452064" lon="-111.848207"><ele>368.8</ele></trkpt>
    <trkpt lat="33.451991" lon="-111.848017"><ele>369.2</ele></trkpt>
    <trkpt lat="33.451734" lon="-111.847234"><ele>370.5</ele></trkpt>
    <trkpt lat="33.451671" lon="-111.847038"><ele>370.2</ele></trkpt>
    <trkpt lat="33.451622" lon="-111.846844"><ele>370.0</ele></trkpt>
    <trkpt lat="33.451545" lon="-111.846456"><ele>369.5</ele></trkpt>
    <trkpt lat="33.451496" lon="-111.846157"><ele>368.8</ele></trkpt>
    <trkpt lat="33.451532" lon="-111.84591"><ele>368.2</ele></trkpt>
    <trkpt lat="33.451479" lon="-111.845475"><ele>367.8</ele></trkpt>
    <trkpt lat="33.451436" lon="-111.845034"><ele>367.5</ele></trkpt>
    <trkpt lat="33.451418" lon="-111.844654"><ele>367.2</ele></trkpt>
    <trkpt lat="33.451405" lon="-111.843834"><ele>367.5</ele></trkpt>
    <trkpt lat="33.451409" lon="-111.843454"><ele>367.8</ele></trkpt>
    <trkpt lat="33.451413" lon="-111.843087"><ele>368.5</ele></trkpt>
    <trkpt lat="33.451417" lon="-111.842831"><ele>369.0</ele></trkpt>
    <trkpt lat="33.45142" lon="-111.842624"><ele>369.5</ele></trkpt>
    <trkpt lat="33.451427" lon="-111.842075"><ele>369.8</ele></trkpt>
    <trkpt lat="33.45143" lon="-111.841835"><ele>369.8</ele></trkpt>
    <trkpt lat="33.451434" lon="-111.841558"><ele>369.8</ele></trkpt>
    <trkpt lat="33.451439" lon="-111.841184"><ele>370.2</ele></trkpt>
    <trkpt lat="33.451439" lon="-111.841127"><ele>370.2</ele></trkpt>
    <trkpt lat="33.45136" lon="-111.840862"><ele>370.5</ele></trkpt>
    <trkpt lat="33.451361" lon="-111.84078"><ele>370.5</ele></trkpt>
    <trkpt lat="33.451365" lon="-111.840346"><ele>371.5</ele></trkpt>
    <trkpt lat="33.45137" lon="-111.839967"><ele>372.2</ele></trkpt>
    <trkpt lat="33.451371" lon="-111.839867"><ele>372.2</ele></trkpt>
    <trkpt lat="33.451373" lon="-111.83967"><ele>372.0</ele></trkpt>
    <trkpt lat="33.451373" lon="-111.839549"><ele>372.0</ele></trkpt>
    <trkpt lat="33.451375" lon="-111.839033"><ele>372.0</ele></trkpt>
    <trkpt lat="33.451375" lon="-111.838846"><ele>372.0</ele></trkpt>
    <trkpt lat="33.451376" lon="-111.838763"><ele>372.0</ele></trkpt>
    <trkpt lat="33.451452" lon="-111.838466"><ele>372.0</ele></trkpt>
    <trkpt lat="33.451455" lon="-111.838033"><ele>371.5</ele></trkpt>
    <trkpt lat="33.451455" lon="-111.837952"><ele>371.2</ele></trkpt>
    <trkpt lat="33.451456" lon="-111.837886"><ele>371.2</ele></trkpt>
    <trkpt lat="33.451456" lon="-111.83744"><ele>370.2</ele></trkpt>
    <trkpt lat="33.451457" lon="-111.837006"><ele>369.8</ele></trkpt>
    <trkpt lat="33.451458" lon="-111.836573"><ele>369.5</ele></trkpt>
    <trkpt lat="33.451459" lon="-111.836142"><ele>370.2</ele></trkpt>
    <trkpt lat="33.45146" lon="-111.836039"><ele>370.2</ele></trkpt>
    <trkpt lat="33.451458" lon="-111.83521"><ele>370.2</ele></trkpt>
    <trkpt lat="33.451461" lon="-111.835032"><ele>370.2</ele></trkpt>
    <trkpt lat="33.451462" lon="-111.834562"><ele>370.5</ele></trkpt>
    <trkpt lat="33.451463" lon="-111.83411"><ele>370.5</ele></trkpt>
    <trkpt lat="33.451464" lon="-111.833664"><ele>369.5</ele></trkpt>
    <trkpt lat="33.451465" lon="-111.833107"><ele>368.5</ele></trkpt>
    <trkpt lat="33.451467" lon="-111.831931"><ele>370.0</ele></trkpt>
    <trkpt lat="33.451467" lon="-111.831753"><ele>370.8</ele></trkpt>
    <trkpt lat="33.451467" lon="-111.831683"><ele>371.0</ele></trkpt>
    <trkpt lat="33.451469" lon="-111.831378"><ele>371.2</ele></trkpt>
    <trkpt lat="33.451468" lon="-111.831242"><ele>371.2</ele></trkpt>
    <trkpt lat="33.451468" lon="-111.831103"><ele>371.2</ele></trkpt>
    <trkpt lat="33.451613" lon="-111.831102"><ele>371.5</ele></trkpt>
    <trkpt lat="33.45191" lon="-111.831099"><ele>371.2</ele></trkpt>
    <trkpt lat="33.452032" lon="-111.831098"><ele>371.0</ele></trkpt>
    <trkpt lat="33.452142" lon="-111.831096"><ele>371.0</ele></trkpt>
    <trkpt lat="33.452373" lon="-111.831094"><ele>370.8</ele></trkpt>
    <trkpt lat="33.452473" lon="-111.831093"><ele>370.5</ele></trkpt>
    <trkpt lat="33.452736" lon="-111.83109"><ele>370.8</ele></trkpt>
    <trkpt lat="33.452918" lon="-111.831088"><ele>370.8</ele></trkpt>
    <trkpt lat="33.453045" lon="-111.831087"><ele>370.8</ele></trkpt>
    <trkpt lat="33.453732" lon="-111.831084"><ele>371.5</ele></trkpt>
    <trkpt lat="33.454237" lon="-111.831084"><ele>371.8</ele></trkpt>
    <trkpt lat="33.45501" lon="-111.831066"><ele>368.8</ele></trkpt>
    <trkpt lat="33.45509" lon="-111.831064"><ele>368.2</ele></trkpt>
    <trkpt lat="33.455326" lon="-111.831062"><ele>366.5</ele></trkpt>
    <trkpt lat="33.456428" lon="-111.831053"><ele>364.0</ele></trkpt>
    <trkpt lat="33.457199" lon="-111.831046"><ele>365.5</ele></trkpt>
    <trkpt lat="33.457548" lon="-111.831044"><ele>366.5</ele></trkpt>
    <trkpt lat="33.457835" lon="-111.831041"><ele>369.0</ele></trkpt>
    <trkpt lat="33.457847" lon="-111.830901"><ele>368.8</ele></trkpt>
    <trkpt lat="33.457884" lon="-111.830485"><ele>368.0</ele></trkpt>
    <trkpt lat="33.457917" lon="-111.830249"><ele>367.8</ele></trkpt>
    <trkpt lat="33.45796" lon="-111.830016"><ele>367.5</ele></trkpt>
    <trkpt lat="33.458013" lon="-111.829812"><ele>367.8</ele></trkpt>
    <trkpt lat="33.458065" lon="-111.829644"><ele>368.0</ele></trkpt>
    <trkpt lat="33.458215" lon="-111.829249"><ele>367.8</ele></trkpt>
    <trkpt lat="33.45859" lon="-111.82832"><ele>370.5</ele></trkpt>
    <trkpt lat="33.458682" lon="-111.828016"><ele>371.8</ele></trkpt>
    <trkpt lat="33.458729" lon="-111.827757"><ele>372.8</ele></trkpt>
    <trkpt lat="33.458751" lon="-111.82759"><ele>373.5</ele></trkpt>
    <trkpt lat="33.458759" lon="-111.827446"><ele>374.0</ele></trkpt>
    <trkpt lat="33.458769" lon="-111.826614"><ele>374.2</ele></trkpt>
    <trkpt lat="33.458772" lon="-111.826298"><ele>373.5</ele></trkpt>
    <trkpt lat="33.458781" lon="-111.825537"><ele>372.5</ele></trkpt>
    <trkpt lat="33.458782" lon="-111.825419"><ele>372.5</ele></trkpt>
    <trkpt lat="33.458785" lon="-111.825147"><ele>372.5</ele></trkpt>
    <trkpt lat="33.458786" lon="-111.825099"><ele>372.5</ele></trkpt>
    <trkpt lat="33.458789" lon="-111.82492"><ele>372.5</ele></trkpt>
    <trkpt lat="33.458796" lon="-111.824411"><ele>372.8</ele></trkpt>
    <trkpt lat="33.458798" lon="-111.824323"><ele>372.8</ele></trkpt>
    <trkpt lat="33.458805" lon="-111.823811"><ele>373.0</ele></trkpt>
    <trkpt lat="33.458813" lon="-111.823255"><ele>373.2</ele></trkpt>
    <trkpt lat="33.458817" lon="-111.823021"><ele>373.0</ele></trkpt>
    <trkpt lat="33.458826" lon="-111.822389"><ele>372.2</ele></trkpt>
    <trkpt lat="33.459517" lon="-111.822388"><ele>372.8</ele></trkpt>
    <trkpt lat="33.459743" lon="-111.822388"><ele>373.2</ele></trkpt>
    <trkpt lat="33.460193" lon="-111.822387"><ele>374.5</ele></trkpt>
    <trkpt lat="33.460682" lon="-111.822384"><ele>376.2</ele></trkpt>
    <trkpt lat="33.461102" lon="-111.822381"><ele>376.8</ele></trkpt>
    <trkpt lat="33.461187" lon="-111.82238"><ele>377.0</ele></trkpt>
    <trkpt lat="33.461233" lon="-111.82238"><ele>377.0</ele></trkpt>
    <trkpt lat="33.461488" lon="-111.822378"><ele>377.2</ele></trkpt>
    <trkpt lat="33.461838" lon="-111.822375"><ele>377.5</ele></trkpt>
    <trkpt lat="33.462135" lon="-111.822371"><ele>377.5</ele></trkpt>
    <trkpt lat="33.462551" lon="-111.822371"><ele>377.2</ele></trkpt>
    <trkpt lat="33.46282" lon="-111.822369"><ele>376.5</ele></trkpt>
    <trkpt lat="33.462941" lon="-111.822368"><ele>376.2</ele></trkpt>
    <trkpt lat="33.463016" lon="-111.822367"><ele>376.0</ele></trkpt>
    <trkpt lat="33.463511" lon="-111.822363"><ele>375.0</ele></trkpt>
    <trkpt lat="33.464394" lon="-111.822357"><ele>375.5</ele></trkpt>
    <trkpt lat="33.46457" lon="-111.822351"><ele>375.8</ele></trkpt>
    <trkpt lat="33.465221" lon="-111.822412"><ele>375.5</ele></trkpt>
    <trkpt lat="33.465917" lon="-111.822417"><ele>374.2</ele></trkpt>
    <trkpt lat="33.466387" lon="-111.822413"><ele>375.2</ele></trkpt>
    <trkpt lat="33.466519" lon="-111.822408"><ele>375.5</ele></trkpt>
    <trkpt lat="33.466559" lon="-111.82238"><ele>375.8</ele></trkpt>
    <trkpt lat="33.466573" lon="-111.822307"><ele>375.8</ele></trkpt>
    <trkpt lat="33.466559" lon="-111.819168"><ele>375.8</ele></trkpt>
    <trkpt lat="33.466553" lon="-111.817832"><ele>376.5</ele></trkpt>
    <trkpt lat="33.466545" lon="-111.815875"><ele>375.0</ele></trkpt>
    <trkpt lat="33.466561" lon="-111.81348"><ele>375.8</ele></trkpt>
    <trkpt lat="33.466551" lon="-111.811387"><ele>375.5</ele></trkpt>
    <trkpt lat="33.466545" lon="-111.810191"><ele>375.5</ele></trkpt>
    <trkpt lat="33.466544" lon="-111.809861"><ele>375.5</ele></trkpt>
    <trkpt lat="33.466535" lon="-111.808028"><ele>375.5</ele></trkpt>
    <trkpt lat="33.46652" lon="-111.804863"><ele>375.0</ele></trkpt>
    <trkpt lat="33.466496" lon="-111.802606"><ele>377.0</ele></trkpt>
    <trkpt lat="33.46648" lon="-111.800532"><ele>375.0</ele></trkpt>
    <trkpt lat="33.466457" lon="-111.797528"><ele>377.8</ele></trkpt>
    <trkpt lat="33.466449" lon="-111.796982"><ele>377.0</ele></trkpt>
    <trkpt lat="33.466446" lon="-111.79614"><ele>376.0</ele></trkpt>
    <trkpt lat="33.466422" lon="-111.794069"><ele>373.5</ele></trkpt>
    <trkpt lat="33.466404" lon="-111.792609"><ele>375.2</ele></trkpt>
    <trkpt lat="33.466401" lon="-111.792314"><ele>374.5</ele></trkpt>
    <trkpt lat="33.466384" lon="-111.790916"><ele>373.2</ele></trkpt>
    <trkpt lat="33.466366" lon="-111.789461"><ele>371.5</ele></trkpt>
    <trkpt lat="33.466344" lon="-111.788071"><ele>380.2</ele></trkpt>
    <trkpt lat="33.466359" lon="-111.787513"><ele>379.0</ele></trkpt>
    <trkpt lat="33.466308" lon="-111.787386"><ele>379.0</ele></trkpt>
    <trkpt lat="33.466297" lon="-111.787196"><ele>379.5</ele></trkpt>
    <trkpt lat="33.466305" lon="-111.787056"><ele>379.8</ele></trkpt>
    <trkpt lat="33.466343" lon="-111.786589"><ele>380.8</ele></trkpt>
    <trkpt lat="33.466379" lon="-111.786359"><ele>381.2</ele></trkpt>
    <trkpt lat="33.466434" lon="-111.786136"><ele>381.5</ele></trkpt>
    <trkpt lat="33.466518" lon="-111.785886"><ele>381.8</ele></trkpt>
    <trkpt lat="33.46662" lon="-111.785665"><ele>381.2</ele></trkpt>
    <trkpt lat="33.466717" lon="-111.785481"><ele>380.5</ele></trkpt>
    <trkpt lat="33.466832" lon="-111.785303"><ele>379.8</ele></trkpt>
    <trkpt lat="33.466944" lon="-111.785133"><ele>379.2</ele></trkpt>
    <trkpt lat="33.467432" lon="-111.784393"><ele>379.0</ele></trkpt>
    <trkpt lat="33.467566" lon="-111.784142"><ele>379.5</ele></trkpt>
    <trkpt lat="33.467633" lon="-111.784002"><ele>379.8</ele></trkpt>
    <trkpt lat="33.467695" lon="-111.783809"><ele>380.0</ele></trkpt>
    <trkpt lat="33.467734" lon="-111.783672"><ele>380.2</ele></trkpt>
    <trkpt lat="33.467774" lon="-111.783491"><ele>380.5</ele></trkpt>
    <trkpt lat="33.467796" lon="-111.783309"><ele>381.0</ele></trkpt>
    <trkpt lat="33.467808" lon="-111.783125"><ele>381.2</ele></trkpt>
    <trkpt lat="33.467795" lon="-111.78263"><ele>382.2</ele></trkpt>
    <trkpt lat="33.467784" lon="-111.781735"><ele>382.2</ele></trkpt>
    <trkpt lat="33.46778" lon="-111.781555"><ele>382.5</ele></trkpt>
    <trkpt lat="33.467773" lon="-111.781177"><ele>383.2</ele></trkpt>
    <trkpt lat="33.467742" lon="-111.780765"><ele>384.0</ele></trkpt>
    <trkpt lat="33.467711" lon="-111.780536"><ele>384.5</ele></trkpt>
    <trkpt lat="33.467669" lon="-111.780331"><ele>385.0</ele></trkpt>
    <trkpt lat="33.467654" lon="-111.780255"><ele>385.2</ele></trkpt>
    <trkpt lat="33.467577" lon="-111.779981"><ele>385.8</ele></trkpt>
    <trkpt lat="33.467472" lon="-111.779701"><ele>387.0</ele></trkpt>
    <trkpt lat="33.467469" lon="-111.779517"><ele>387.8</ele></trkpt>
    <trkpt lat="33.467426" lon="-111.77942"><ele>388.2</ele></trkpt>
    <trkpt lat="33.467306" lon="-111.77915"><ele>389.8</ele></trkpt>
    <trkpt lat="33.46713" lon="-111.77876"><ele>392.0</ele></trkpt>
    <trkpt lat="33.467058" lon="-111.778596"><ele>393.0</ele></trkpt>
    <trkpt lat="33.46693" lon="-111.778311"><ele>394.8</ele></trkpt>
    <trkpt lat="33.466851" lon="-111.778135"><ele>396.0</ele></trkpt>
    <trkpt lat="33.466795" lon="-111.778006"><ele>397.0</ele></trkpt>
    <trkpt lat="33.466707" lon="-111.7778"><ele>398.2</ele></trkpt>
    <trkpt lat="33.466635" lon="-111.777614"><ele>399.2</ele></trkpt>
    <trkpt lat="33.466602" lon="-111.777512"><ele>399.8</ele></trkpt>
    <trkpt lat="33.466569" lon="-111.777411"><ele>400.0</ele></trkpt>
    <trkpt lat="33.466521" lon="-111.777225"><ele>400.0</ele></trkpt>
    <trkpt lat="33.466476" lon="-111.777022"><ele>400.2</ele></trkpt>
    <trkpt lat="33.466424" lon="-111.776699"><ele>400.8</ele></trkpt>
    <trkpt lat="33.466403" lon="-111.776485"><ele>400.8</ele></trkpt>
    <trkpt lat="33.466394" lon="-111.776257"><ele>400.5</ele></trkpt>
    <trkpt lat="33.466396" lon="-111.775406"><ele>399.2</ele></trkpt>
    <trkpt lat="33.466391" lon="-111.774906"><ele>398.8</ele></trkpt>
    <trkpt lat="33.466379" lon="-111.77074"><ele>401.0</ele></trkpt>
    <trkpt lat="33.466379" lon="-111.77058"><ele>401.2</ele></trkpt>
    <trkpt lat="33.466379" lon="-111.770445"><ele>401.5</ele></trkpt>
    <trkpt lat="33.466382" lon="-111.77003"><ele>402.2</ele></trkpt>
    <trkpt lat="33.466383" lon="-111.769781"><ele>402.2</ele></trkpt>
    <trkpt lat="33.466386" lon="-111.766281"><ele>401.2</ele></trkpt>
    <trkpt lat="33.466392" lon="-111.763768"><ele>404.2</ele></trkpt>
    <trkpt lat="33.466391" lon="-111.763697"><ele>404.5</ele></trkpt>
    <trkpt lat="33.466393" lon="-111.763148"><ele>404.8</ele></trkpt>
    <trkpt lat="33.466398" lon="-111.761905"><ele>405.2</ele></trkpt>
    <trkpt lat="33.466379" lon="-111.759208"><ele>405.0</ele></trkpt>
    <trkpt lat="33.466377" lon="-111.758512"><ele>406.0</ele></trkpt>
    <trkpt lat="33.466375" lon="-111.757726"><ele>406.8</ele></trkpt>
    <trkpt lat="33.466375" lon="-111.757668"><ele>406.8</ele></trkpt>
    <trkpt lat="33.466389" lon="-111.75749"><ele>407.0</ele></trkpt>
    <trkpt lat="33.466384" lon="-111.757059"><ele>407.0</ele></trkpt>
    <trkpt lat="33.466381" lon="-111.756359"><ele>407.2</ele></trkpt>
    <trkpt lat="33.466375" lon="-111.755536"><ele>407.8</ele></trkpt>
    <trkpt lat="33.466384" lon="-111.755293"><ele>408.0</ele></trkpt>
    <trkpt lat="33.466388" lon="-111.754456"><ele>407.8</ele></trkpt>
    <trkpt lat="33.466388" lon="-111.754375"><ele>407.8</ele></trkpt>
    <trkpt lat="33.466391" lon="-111.75343"><ele>407.0</ele></trkpt>
    <trkpt lat="33.466391" lon="-111.75333"><ele>407.0</ele></trkpt>
    <trkpt lat="33.466391" lon="-111.753177"><ele>407.2</ele></trkpt>
    <trkpt lat="33.466391" lon="-111.75308"><ele>407.2</ele></trkpt>
    <trkpt lat="33.466389" lon="-111.752298"><ele>408.2</ele></trkpt>
    <trkpt lat="33.466389" lon="-111.752264"><ele>408.0</ele></trkpt>
    <trkpt lat="33.466385" lon="-111.750995"><ele>408.0</ele></trkpt>
    <trkpt lat="33.466387" lon="-111.750625"><ele>408.2</ele></trkpt>
    <trkpt lat="33.466383" lon="-111.750322"><ele>408.8</ele></trkpt>
    <trkpt lat="33.466386" lon="-111.748889"><ele>410.0</ele></trkpt>
    <trkpt lat="33.466384" lon="-111.74761"><ele>410.8</ele></trkpt>
    <trkpt lat="33.466384" lon="-111.745734"><ele>411.0</ele></trkpt>
    <trkpt lat="33.466384" lon="-111.745651"><ele>411.0</ele></trkpt>
    <trkpt lat="33.466378" lon="-111.744696"><ele>411.5</ele></trkpt>
    <trkpt lat="33.466379" lon="-111.744659"><ele>411.5</ele></trkpt>
    <trkpt lat="33.466381" lon="-111.744446"><ele>411.2</ele></trkpt>
    <trkpt lat="33.46638" lon="-111.742926"><ele>412.0</ele></trkpt>
    <trkpt lat="33.46638" lon="-111.742484"><ele>412.5</ele></trkpt>
    <trkpt lat="33.46638" lon="-111.742351"><ele>412.5</ele></trkpt>
    <trkpt lat="33.466379" lon="-111.741405"><ele>413.0</ele></trkpt>
    <trkpt lat="33.466378" lon="-111.740415"><ele>414.5</ele></trkpt>
    <trkpt lat="33.466378" lon="-111.740277"><ele>415.0</ele></trkpt>
    <trkpt lat="33.466377" lon="-111.74008"><ele>415.2</ele></trkpt>
    <trkpt lat="33.466377" lon="-111.739964"><ele>415.2</ele></trkpt>
    <trkpt lat="33.466377" lon="-111.739465"><ele>413.2</ele></trkpt>
    <trkpt lat="33.466374" lon="-111.738397"><ele>409.5</ele></trkpt>
    <trkpt lat="33.466375" lon="-111.737554"><ele>410.0</ele></trkpt>
    <trkpt lat="33.466395" lon="-111.737167"><ele>411.5</ele></trkpt>
    <trkpt lat="33.466394" lon="-111.737118"><ele>411.8</ele></trkpt>
    <trkpt lat="33.466338" lon="-111.736978"><ele>412.8</ele></trkpt>
    <trkpt lat="33.466324" lon="-111.736745"><ele>414.0</ele></trkpt>
    <trkpt lat="33.466322" lon="-111.736071"><ele>415.0</ele></trkpt>
    <trkpt lat="33.466322" lon="-111.735918"><ele>415.2</ele></trkpt>
    <trkpt lat="33.466322" lon="-111.735762"><ele>415.2</ele></trkpt>
    <trkpt lat="33.466321" lon="-111.733827"><ele>412.8</ele></trkpt>
    <trkpt lat="33.466321" lon="-111.733488"><ele>413.0</ele></trkpt>
    <trkpt lat="33.466321" lon="-111.732623"><ele>414.8</ele></trkpt>
    <trkpt lat="33.466317" lon="-111.724933"><ele>426.2</ele></trkpt>
    <trkpt lat="33.466315" lon="-111.723907"><ele>426.5</ele></trkpt>
    <trkpt lat="33.466315" lon="-111.723864"><ele>426.5</ele></trkpt>
    <trkpt lat="33.466315" lon="-111.723801"><ele>426.8</ele></trkpt>
    <trkpt lat="33.466313" lon="-111.722711"><ele>428.0</ele></trkpt>
    <trkpt lat="33.466311" lon="-111.721795"><ele>427.8</ele></trkpt>
    <trkpt lat="33.466307" lon="-111.719717"><ele>422.0</ele></trkpt>
    <trkpt lat="33.466305" lon="-111.718778"><ele>423.5</ele></trkpt>
    <trkpt lat="33.466305" lon="-111.718668"><ele>423.8</ele></trkpt>
    <trkpt lat="33.466305" lon="-111.718512"><ele>424.0</ele></trkpt>
    <trkpt lat="33.466306" lon="-111.718376"><ele>424.2</ele></trkpt>
    <trkpt lat="33.466313" lon="-111.717668"><ele>426.0</ele></trkpt>
    <trkpt lat="33.466372" lon="-111.717479"><ele>426.5</ele></trkpt>
    <trkpt lat="33.466399" lon="-111.714631"><ele>424.0</ele></trkpt>
    <trkpt lat="33.466392" lon="-111.713244"><ele>426.5</ele></trkpt>
    <trkpt lat="33.466389" lon="-111.71268"><ele>427.8</ele></trkpt>
    <trkpt lat="33.466384" lon="-111.712302"><ele>429.0</ele></trkpt>
    <trkpt lat="33.466367" lon="-111.71116"><ele>431.2</ele></trkpt>
    <trkpt lat="33.46636" lon="-111.710621"><ele>431.8</ele></trkpt>
    <trkpt lat="33.46635" lon="-111.709936"><ele>433.0</ele></trkpt>
    <trkpt lat="33.466343" lon="-111.709083"><ele>433.2</ele></trkpt>
    <trkpt lat="33.466342" lon="-111.709006"><ele>433.2</ele></trkpt>
    <trkpt lat="33.466343" lon="-111.708839"><ele>433.0</ele></trkpt>
    <trkpt lat="33.466348" lon="-111.707778"><ele>434.0</ele></trkpt>
    <trkpt lat="33.466345" lon="-111.705878"><ele>436.5</ele></trkpt>
    <trkpt lat="33.466344" lon="-111.705483"><ele>437.2</ele></trkpt>
    <trkpt lat="33.466344" lon="-111.704629"><ele>438.5</ele></trkpt>
    <trkpt lat="33.466341" lon="-111.704158"><ele>439.0</ele></trkpt>
    <trkpt lat="33.466343" lon="-111.703392"><ele>440.8</ele></trkpt>
    <trkpt lat="33.466335" lon="-111.702884"><ele>441.8</ele></trkpt>
    <trkpt lat="33.466334" lon="-111.702647"><ele>442.2</ele></trkpt>
    <trkpt lat="33.466333" lon="-111.702385"><ele>442.8</ele></trkpt>
    <trkpt lat="33.466334" lon="-111.702362"><ele>442.8</ele></trkpt>
    <trkpt lat="33.466332" lon="-111.701964"><ele>443.8</ele></trkpt>
    <trkpt lat="33.466344" lon="-111.701469"><ele>444.5</ele></trkpt>
    <trkpt lat="33.466347" lon="-111.701289"><ele>444.8</ele></trkpt>
    <trkpt lat="33.466546" lon="-111.701227"><ele>444.2</ele></trkpt>
    <trkpt lat="33.466554" lon="-111.701154"><ele>444.2</ele></trkpt>
    <trkpt lat="33.466518" lon="-111.701094"><ele>444.5</ele></trkpt>
    <trkpt lat="33.466516" lon="-111.700969"><ele>444.5</ele></trkpt>
    <trkpt lat="33.466526" lon="-111.700902"><ele>444.5</ele></trkpt>
    <trkpt lat="33.466556" lon="-111.70089"><ele>444.5</ele></trkpt>
    <trkpt lat="33.466655" lon="-111.700878"><ele>444.0</ele></trkpt>
    <trkpt lat="33.466773" lon="-111.700879"><ele>444.0</ele></trkpt>
    <trkpt lat="33.466848" lon="-111.700857"><ele>444.0</ele></trkpt>
    <trkpt lat="33.466892" lon="-111.700802"><ele>444.2</ele></trkpt>
    <trkpt lat="33.466968" lon="-111.700802"><ele>444.2</ele></trkpt>
    <trkpt lat="33.466972" lon="-111.700803"><ele>444.5</ele></trkpt>
  </trkseg></trk>
</gpx>
