<?xml version="1.0" encoding="UTF-8"?>
<gpx xmlns="http://www.topografix.com/GPX/1/1" version="1.1" creator="az-planning">
  <metadata><name>Link 2: Arizona Canal bank path to Granite Reef</name></metadata>
  <trk><name>Link 2: Arizona Canal bank path to Granite Reef</name><trkseg>
    <trkpt lat="33.621107" lon="-111.876186"><ele>451.8</ele></trkpt>
    <trkpt lat="33.621069" lon="-111.876201"><ele>451.8</ele></trkpt>
    <trkpt lat="33.621034" lon="-111.87624"><ele>451.5</ele></trkpt>
    <trkpt lat="33.621004" lon="-111.876294"><ele>451.0</ele></trkpt>
    <trkpt lat="33.620977" lon="-111.876329"><ele>450.8</ele></trkpt>
    <trkpt lat="33.620935" lon="-111.876374"><ele>450.5</ele></trkpt>
    <trkpt lat="33.620868" lon="-111.876512"><ele>449.8</ele></trkpt>
    <trkpt lat="33.620854" lon="-111.876581"><ele>449.2</ele></trkpt>
    <trkpt lat="33.620833" lon="-111.876645"><ele>449.0</ele></trkpt>
    <trkpt lat="33.620798" lon="-111.876703"><ele>449.0</ele></trkpt>
    <trkpt lat="33.620764" lon="-111.876737"><ele>449.0</ele></trkpt>
    <trkpt lat="33.620717" lon="-111.876749"><ele>449.2</ele></trkpt>
    <trkpt lat="33.620644" lon="-111.876787"><ele>449.2</ele></trkpt>
    <trkpt lat="33.620599" lon="-111.876836"><ele>449.5</ele></trkpt>
    <trkpt lat="33.620703" lon="-111.877002"><ele>449.2</ele></trkpt>
    <trkpt lat="33.620792" lon="-111.877128"><ele>449.0</ele></trkpt>
    <trkpt lat="33.620456" lon="-111.877411"><ele>449.8</ele></trkpt>
    <trkpt lat="33.620105" lon="-111.877677"><ele>450.8</ele></trkpt>
    <trkpt lat="33.619755" lon="-111.877871"><ele>450.8</ele></trkpt>
    <trkpt lat="33.61939" lon="-111.878058"><ele>449.5</ele></trkpt>
    <trkpt lat="33.619293" lon="-111.878095"><ele>449.2</ele></trkpt>
    <trkpt lat="33.618834" lon="-111.878267"><ele>446.5</ele></trkpt>
    <trkpt lat="33.618756" lon="-111.878291"><ele>446.0</ele></trkpt>
    <trkpt lat="33.618655" lon="-111.878318"><ele>445.5</ele></trkpt>
    <trkpt lat="33.618574" lon="-111.878339"><ele>445.0</ele></trkpt>
    <trkpt lat="33.618341" lon="-111.878388"><ele>444.0</ele></trkpt>
    <trkpt lat="33.618174" lon="-111.878413"><ele>444.5</ele></trkpt>
    <trkpt lat="33.617831" lon="-111.878433"><ele>445.0</ele></trkpt>
    <trkpt lat="33.617721" lon="-111.878439"><ele>445.2</ele></trkpt>
    <trkpt lat="33.617202" lon="-111.878445"><ele>446.0</ele></trkpt>
    <trkpt lat="33.616828" lon="-111.878445"><ele>446.8</ele></trkpt>
    <trkpt lat="33.615626" lon="-111.878441"><ele>447.0</ele></trkpt>
    <trkpt lat="33.615305" lon="-111.878443"><ele>446.8</ele></trkpt>
    <trkpt lat="33.61519" lon="-111.878444"><ele>446.8</ele></trkpt>
    <trkpt lat="33.615191" lon="-111.878281"><ele>447.0</ele></trkpt>
    <trkpt lat="33.61519" lon="-111.878176"><ele>447.2</ele></trkpt>
    <trkpt lat="33.61519" lon="-111.87778"><ele>448.5</ele></trkpt>
    <trkpt lat="33.61519" lon="-111.877608"><ele>449.0</ele></trkpt>
    <trkpt lat="33.615196" lon="-111.876298"><ele>448.2</ele></trkpt>
    <trkpt lat="33.615193" lon="-111.875955"><ele>448.2</ele></trkpt>
    <trkpt lat="33.615195" lon="-111.875479"><ele>448.8</ele></trkpt>
    <trkpt lat="33.615195" lon="-111.874855"><ele>448.8</ele></trkpt>
    <trkpt lat="33.615197" lon="-111.87473"><ele>448.5</ele></trkpt>
    <trkpt lat="33.615215" lon="-111.874495"><ele>448.0</ele></trkpt>
    <trkpt lat="33.615179" lon="-111.874427"><ele>447.8</ele></trkpt>
    <trkpt lat="33.61519" lon="-111.874339"><ele>447.8</ele></trkpt>
    <trkpt lat="33.615203" lon="-111.874256"><ele>447.5</ele></trkpt>
    <trkpt lat="33.615258" lon="-111.874177"><ele>447.5</ele></trkpt>
    <trkpt lat="33.615133" lon="-111.874163"><ele>447.2</ele></trkpt>
    <trkpt lat="33.614837" lon="-111.874104"><ele>447.0</ele></trkpt>
    <trkpt lat="33.614617" lon="-111.874068"><ele>447.0</ele></trkpt>
    <trkpt lat="33.614363" lon="-111.874036"><ele>446.8</ele></trkpt>
    <trkpt lat="33.614183" lon="-111.874023"><ele>446.8</ele></trkpt>
    <trkpt lat="33.613492" lon="-111.874027"><ele>446.2</ele></trkpt>
    <trkpt lat="33.612847" lon="-111.874021"><ele>445.0</ele></trkpt>
    <trkpt lat="33.612391" lon="-111.874018"><ele>444.0</ele></trkpt>
    <trkpt lat="33.611983" lon="-111.874011"><ele>443.5</ele></trkpt>
    <trkpt lat="33.611717" lon="-111.874008"><ele>443.2</ele></trkpt>
    <trkpt lat="33.611614" lon="-111.874008"><ele>443.0</ele></trkpt>
    <trkpt lat="33.611505" lon="-111.874078"><ele>443.0</ele></trkpt>
    <trkpt lat="33.611402" lon="-111.874076"><ele>443.0</ele></trkpt>
    <trkpt lat="33.61082" lon="-111.874077"><ele>442.8</ele></trkpt>
    <trkpt lat="33.610233" lon="-111.874063"><ele>441.5</ele></trkpt>
    <trkpt lat="33.609869" lon="-111.874055"><ele>441.0</ele></trkpt>
    <trkpt lat="33.609558" lon="-111.874017"><ele>441.0</ele></trkpt>
    <trkpt lat="33.609143" lon="-111.874021"><ele>441.2</ele></trkpt>
    <trkpt lat="33.609071" lon="-111.873986"><ele>441.2</ele></trkpt>
    <trkpt lat="33.608759" lon="-111.873988"><ele>441.0</ele></trkpt>
    <trkpt lat="33.608346" lon="-111.87399"><ele>441.0</ele></trkpt>
    <trkpt lat="33.608063" lon="-111.873991"><ele>440.5</ele></trkpt>
    <trkpt lat="33.607991" lon="-111.87403"><ele>440.5</ele></trkpt>
    <trkpt lat="33.606105" lon="-111.874038"><ele>438.8</ele></trkpt>
    <trkpt lat="33.606025" lon="-111.874037"><ele>438.5</ele></trkpt>
    <trkpt lat="33.604616" lon="-111.874045"><ele>438.2</ele></trkpt>
    <trkpt lat="33.60455" lon="-111.874056"><ele>438.2</ele></trkpt>
    <trkpt lat="33.604478" lon="-111.874084"><ele>438.2</ele></trkpt>
    <trkpt lat="33.604408" lon="-111.874127"><ele>438.0</ele></trkpt>
    <trkpt lat="33.604387" lon="-111.87415"><ele>438.0</ele></trkpt>
    <trkpt lat="33.604344" lon="-111.874175"><ele>438.0</ele></trkpt>
    <trkpt lat="33.604297" lon="-111.874183"><ele>438.0</ele></trkpt>
    <trkpt lat="33.60425" lon="-111.874171"><ele>438.0</ele></trkpt>
    <trkpt lat="33.604209" lon="-111.874142"><ele>438.0</ele></trkpt>
    <trkpt lat="33.604179" lon="-111.874099"><ele>437.8</ele></trkpt>
    <trkpt lat="33.604063" lon="-111.874057"><ele>437.8</ele></trkpt>
    <trkpt lat="33.603964" lon="-111.874042"><ele>437.8</ele></trkpt>
    <trkpt lat="33.60373" lon="-111.874035"><ele>437.8</ele></trkpt>
    <trkpt lat="33.602809" lon="-111.874035"><ele>436.8</ele></trkpt>
    <trkpt lat="33.601795" lon="-111.874031"><ele>435.2</ele></trkpt>
    <trkpt lat="33.600668" lon="-111.874043"><ele>433.2</ele></trkpt>
    <trkpt lat="33.600128" lon="-111.874033"><ele>431.2</ele></trkpt>
    <trkpt lat="33.59977" lon="-111.874065"><ele>431.5</ele></trkpt>
    <trkpt lat="33.599659" lon="-111.874035"><ele>432.0</ele></trkpt>
    <trkpt lat="33.598739" lon="-111.874031"><ele>433.8</ele></trkpt>
    <trkpt lat="33.59827" lon="-111.874029"><ele>433.8</ele></trkpt>
    <trkpt lat="33.598152" lon="-111.87401"><ele>433.8</ele></trkpt>
    <trkpt lat="33.598006" lon="-111.874003"><ele>433.8</ele></trkpt>
    <trkpt lat="33.597877" lon="-111.874005"><ele>433.5</ele></trkpt>
    <trkpt lat="33.597694" lon="-111.874007"><ele>433.5</ele></trkpt>
    <trkpt lat="33.597174" lon="-111.87401"><ele>432.8</ele></trkpt>
    <trkpt lat="33.597036" lon="-111.874009"><ele>432.5</ele></trkpt>
    <trkpt lat="33.596902" lon="-111.87401"><ele>432.2</ele></trkpt>
    <trkpt lat="33.596316" lon="-111.874008"><ele>431.0</ele></trkpt>
    <trkpt lat="33.596165" lon="-111.874069"><ele>430.5</ele></trkpt>
    <trkpt lat="33.595264" lon="-111.874055"><ele>430.8</ele></trkpt>
    <trkpt lat="33.593938" lon="-111.874045"><ele>429.8</ele></trkpt>
    <trkpt lat="33.59374" lon="-111.874063"><ele>429.5</ele></trkpt>
    <trkpt lat="33.593643" lon="-111.874077"><ele>429.2</ele></trkpt>
    <trkpt lat="33.593553" lon="-111.874081"><ele>429.2</ele></trkpt>
    <trkpt lat="33.593207" lon="-111.874083"><ele>428.5</ele></trkpt>
    <trkpt lat="33.593105" lon="-111.874084"><ele>428.2</ele></trkpt>
    <trkpt lat="33.592987" lon="-111.874084"><ele>428.0</ele></trkpt>
    <trkpt lat="33.592522" lon="-111.874086"><ele>427.0</ele></trkpt>
    <trkpt lat="33.591596" lon="-111.874081"><ele>425.0</ele></trkpt>
    <trkpt lat="33.591268" lon="-111.874082"><ele>425.0</ele></trkpt>
    <trkpt lat="33.591205" lon="-111.874079"><ele>425.0</ele></trkpt>
    <trkpt lat="33.59107" lon="-111.874057"><ele>425.0</ele></trkpt>
    <trkpt lat="33.59098" lon="-111.874047"><ele>425.0</ele></trkpt>
    <trkpt lat="33.590701" lon="-111.874044"><ele>424.8</ele></trkpt>
    <trkpt lat="33.590452" lon="-111.87404"><ele>424.5</ele></trkpt>
    <trkpt lat="33.59034" lon="-111.874022"><ele>424.2</ele></trkpt>
    <trkpt lat="33.590216" lon="-111.874023"><ele>424.2</ele></trkpt>
    <trkpt lat="33.590043" lon="-111.874066"><ele>424.0</ele></trkpt>
    <trkpt lat="33.58996" lon="-111.874102"><ele>424.0</ele></trkpt>
    <trkpt lat="33.589904" lon="-111.874126"><ele>424.0</ele></trkpt>
    <trkpt lat="33.589879" lon="-111.874154"><ele>424.2</ele></trkpt>
    <trkpt lat="33.589834" lon="-111.874229"><ele>424.5</ele></trkpt>
    <trkpt lat="33.589814" lon="-111.874308"><ele>424.8</ele></trkpt>
    <trkpt lat="33.589813" lon="-111.87456"><ele>425.5</ele></trkpt>
    <trkpt lat="33.589786" lon="-111.874658"><ele>425.8</ele></trkpt>
    <trkpt lat="33.589785" lon="-111.87556"><ele>426.8</ele></trkpt>
    <trkpt lat="33.589787" lon="-111.876036"><ele>426.5</ele></trkpt>
    <trkpt lat="33.589786" lon="-111.877447"><ele>424.2</ele></trkpt>
    <trkpt lat="33.58972" lon="-111.87745"><ele>424.2</ele></trkpt>
    <trkpt lat="33.589721" lon="-111.877902"><ele>424.8</ele></trkpt>
    <trkpt lat="33.589394" lon="-111.878198"><ele>424.5</ele></trkpt>
    <trkpt lat="33.589054" lon="-111.878468"><ele>423.8</ele></trkpt>
    <trkpt lat="33.588871" lon="-111.878457"><ele>423.8</ele></trkpt>
    <trkpt lat="33.588763" lon="-111.87851"><ele>423.8</ele></trkpt>
    <trkpt lat="33.588625" lon="-111.878592"><ele>423.8</ele></trkpt>
    <trkpt lat="33.588522" lon="-111.878636"><ele>423.5</ele></trkpt>
    <trkpt lat="33.588428" lon="-111.878637"><ele>423.5</ele></trkpt>
    <trkpt lat="33.588284" lon="-111.878711"><ele>423.5</ele></trkpt>
    <trkpt lat="33.58817" lon="-111.878804"><ele>423.2</ele></trkpt>
    <trkpt lat="33.587777" lon="-111.878974"><ele>423.0</ele></trkpt>
    <trkpt lat="33.587584" lon="-111.879047"><ele>423.0</ele></trkpt>
    <trkpt lat="33.587118" lon="-111.879109"><ele>422.5</ele></trkpt>
    <trkpt lat="33.586997" lon="-111.879185"><ele>422.2</ele></trkpt>
    <trkpt lat="33.586791" lon="-111.879387"><ele>422.0</ele></trkpt>
    <trkpt lat="33.586569" lon="-111.87953"><ele>422.5</ele></trkpt>
    <trkpt lat="33.586319" lon="-111.879712"><ele>423.8</ele></trkpt>
    <trkpt lat="33.586127" lon="-111.879933"><ele>425.0</ele></trkpt>
    <trkpt lat="33.586101" lon="-111.880115"><ele>425.0</ele></trkpt>
    <trkpt lat="33.586085" lon="-111.882096"><ele>423.2</ele></trkpt>
    <trkpt lat="33.586056" lon="-111.882181"><ele>422.8</ele></trkpt>
    <trkpt lat="33.585983" lon="-111.882288"><ele>422.2</ele></trkpt>
    <trkpt lat="33.58587" lon="-111.88233"><ele>421.8</ele></trkpt>
    <trkpt lat="33.58534" lon="-111.88234"><ele>420.0</ele></trkpt>
    <trkpt lat="33.585293" lon="-111.882338"><ele>420.0</ele></trkpt>
    <trkpt lat="33.58522" lon="-111.882338"><ele>419.8</ele></trkpt>
    <trkpt lat="33.584617" lon="-111.882353"><ele>419.8</ele></trkpt>
    <trkpt lat="33.584508" lon="-111.882376"><ele>420.0</ele></trkpt>
    <trkpt lat="33.584406" lon="-111.882559"><ele>420.0</ele></trkpt>
    <trkpt lat="33.5844" lon="-111.882578"><ele>420.0</ele></trkpt>
    <trkpt lat="33.584312" lon="-111.882862"><ele>420.5</ele></trkpt>
    <trkpt lat="33.584139" lon="-111.883266"><ele>420.8</ele></trkpt>
    <trkpt lat="33.584086" lon="-111.883359"><ele>420.8</ele></trkpt>
    <trkpt lat="33.584064" lon="-111.883447"><ele>420.8</ele></trkpt>
    <trkpt lat="33.584052" lon="-111.883549"><ele>420.5</ele></trkpt>
    <trkpt lat="33.584069" lon="-111.883752"><ele>420.8</ele></trkpt>
    <trkpt lat="33.584052" lon="-111.883897"><ele>420.5</ele></trkpt>
    <trkpt lat="33.58397" lon="-111.884037"><ele>420.5</ele></trkpt>
    <trkpt lat="33.583917" lon="-111.884098"><ele>420.2</ele></trkpt>
    <trkpt lat="33.583806" lon="-111.884139"><ele>420.0</ele></trkpt>
    <trkpt lat="33.583653" lon="-111.884159"><ele>419.8</ele></trkpt>
    <trkpt lat="33.583308" lon="-111.884143"><ele>418.8</ele></trkpt>
    <trkpt lat="33.583118" lon="-111.884159"><ele>418.2</ele></trkpt>
    <trkpt lat="33.582701" lon="-111.884318"><ele>417.5</ele></trkpt>
    <trkpt lat="33.582647" lon="-111.884332"><ele>417.2</ele></trkpt>
    <trkpt lat="33.582542" lon="-111.884361"><ele>417.2</ele></trkpt>
    <trkpt lat="33.582387" lon="-111.884415"><ele>417.0</ele></trkpt>
    <trkpt lat="33.582226" lon="-111.88444"><ele>417.0</ele></trkpt>
    <trkpt lat="33.582021" lon="-111.884425"><ele>417.2</ele></trkpt>
    <trkpt lat="33.58196" lon="-111.884407"><ele>417.2</ele></trkpt>
    <trkpt lat="33.581909" lon="-111.88438"><ele>417.2</ele></trkpt>
    <trkpt lat="33.581797" lon="-111.884285"><ele>417.0</ele></trkpt>
    <trkpt lat="33.581736" lon="-111.884208"><ele>417.0</ele></trkpt>
    <trkpt lat="33.58169" lon="-111.884179"><ele>417.0</ele></trkpt>
    <trkpt lat="33.581635" lon="-111.884164"><ele>417.0</ele></trkpt>
    <trkpt lat="33.581426" lon="-111.884126"><ele>417.5</ele></trkpt>
    <trkpt lat="33.581303" lon="-111.884116"><ele>417.8</ele></trkpt>
    <trkpt lat="33.581161" lon="-111.88412"><ele>418.0</ele></trkpt>
    <trkpt lat="33.580905" lon="-111.884207"><ele>418.8</ele></trkpt>
    <trkpt lat="33.580709" lon="-111.884241"><ele>419.8</ele></trkpt>
    <trkpt lat="33.580567" lon="-111.884217"><ele>420.5</ele></trkpt>
    <trkpt lat="33.580271" lon="-111.884194"><ele>422.2</ele></trkpt>
    <trkpt lat="33.579965" lon="-111.884213"><ele>423.8</ele></trkpt>
    <trkpt lat="33.579864" lon="-111.884191"><ele>423.5</ele></trkpt>
    <trkpt lat="33.579641" lon="-111.884099"><ele>422.5</ele></trkpt>
    <trkpt lat="33.579576" lon="-111.884083"><ele>422.2</ele></trkpt>
    <trkpt lat="33.57931" lon="-111.884069"><ele>421.2</ele></trkpt>
    <trkpt lat="33.579274" lon="-111.884077"><ele>421.2</ele></trkpt>
    <trkpt lat="33.579102" lon="-111.884149"><ele>420.5</ele></trkpt>
    <trkpt lat="33.579" lon="-111.884181"><ele>420.0</ele></trkpt>
    <trkpt lat="33.578846" lon="-111.884206"><ele>419.2</ele></trkpt>
    <trkpt lat="33.57875" lon="-111.88421"><ele>418.8</ele></trkpt>
    <trkpt lat="33.578712" lon="-111.884203"><ele>418.8</ele></trkpt>
    <trkpt lat="33.578681" lon="-111.884192"><ele>418.5</ele></trkpt>
    <trkpt lat="33.578543" lon="-111.884155"><ele>418.0</ele></trkpt>
    <trkpt lat="33.578381" lon="-111.884089"><ele>417.2</ele></trkpt>
    <trkpt lat="33.578242" lon="-111.883978"><ele>417.2</ele></trkpt>
    <trkpt lat="33.578128" lon="-111.883856"><ele>417.5</ele></trkpt>
    <trkpt lat="33.578068" lon="-111.883798"><ele>417.5</ele></trkpt>
    <trkpt lat="33.577959" lon="-111.883736"><ele>417.5</ele></trkpt>
    <trkpt lat="33.577869" lon="-111.883657"><ele>417.8</ele></trkpt>
    <trkpt lat="33.577834" lon="-111.883612"><ele>417.8</ele></trkpt>
    <trkpt lat="33.577797" lon="-111.883536"><ele>417.8</ele></trkpt>
    <trkpt lat="33.577772" lon="-111.883456"><ele>417.8</ele></trkpt>
    <trkpt lat="33.577742" lon="-111.883398"><ele>417.8</ele></trkpt>
    <trkpt lat="33.577691" lon="-111.883347"><ele>417.8</ele></trkpt>
    <trkpt lat="33.577648" lon="-111.883326"><ele>417.8</ele></trkpt>
    <trkpt lat="33.577584" lon="-111.883308"><ele>417.8</ele></trkpt>
    <trkpt lat="33.577317" lon="-111.88321"><ele>416.8</ele></trkpt>
    <trkpt lat="33.577215" lon="-111.883187"><ele>416.5</ele></trkpt>
    <trkpt lat="33.577079" lon="-111.883182"><ele>416.2</ele></trkpt>
    <trkpt lat="33.576868" lon="-111.883285"><ele>416.2</ele></trkpt>
    <trkpt lat="33.576689" lon="-111.883433"><ele>416.0</ele></trkpt>
    <trkpt lat="33.576495" lon="-111.88365"><ele>415.2</ele></trkpt>
    <trkpt lat="33.576295" lon="-111.883714"><ele>414.5</ele></trkpt>
    <trkpt lat="33.57603" lon="-111.883682"><ele>413.8</ele></trkpt>
    <trkpt lat="33.575794" lon="-111.883689"><ele>413.0</ele></trkpt>
    <trkpt lat="33.575502" lon="-111.883759"><ele>413.2</ele></trkpt>
    <trkpt lat="33.575145" lon="-111.883918"><ele>413.2</ele></trkpt>
    <trkpt lat="33.574887" lon="-111.883975"><ele>413.5</ele></trkpt>
    <trkpt lat="33.574656" lon="-111.884023"><ele>414.0</ele></trkpt>
    <trkpt lat="33.574208" lon="-111.884208"><ele>414.8</ele></trkpt>
    <trkpt lat="33.574142" lon="-111.884247"><ele>415.0</ele></trkpt>
    <trkpt lat="33.574031" lon="-111.88431"><ele>415.0</ele></trkpt>
    <trkpt lat="33.573907" lon="-111.884403"><ele>415.2</ele></trkpt>
    <trkpt lat="33.573793" lon="-111.884513"><ele>415.2</ele></trkpt>
    <trkpt lat="33.573456" lon="-111.884886"><ele>415.8</ele></trkpt>
    <trkpt lat="33.573295" lon="-111.8851"><ele>415.8</ele></trkpt>
    <trkpt lat="33.573203" lon="-111.885241"><ele>415.8</ele></trkpt>
    <trkpt lat="33.573046" lon="-111.885575"><ele>415.2</ele></trkpt>
    <trkpt lat="33.572947" lon="-111.886006"><ele>415.2</ele></trkpt>
    <trkpt lat="33.572887" lon="-111.886193"><ele>415.2</ele></trkpt>
    <trkpt lat="33.572869" lon="-111.886329"><ele>415.5</ele></trkpt>
    <trkpt lat="33.572871" lon="-111.886482"><ele>415.8</ele></trkpt>
    <trkpt lat="33.57288" lon="-111.886699"><ele>416.0</ele></trkpt>
    <trkpt lat="33.57289" lon="-111.88681"><ele>416.0</ele></trkpt>
    <trkpt lat="33.572958" lon="-111.887147"><ele>416.5</ele></trkpt>
    <trkpt lat="33.572964" lon="-111.887234"><ele>416.8</ele></trkpt>
    <trkpt lat="33.572991" lon="-111.887416"><ele>417.2</ele></trkpt>
    <trkpt lat="33.572967" lon="-111.887598"><ele>417.0</ele></trkpt>
    <trkpt lat="33.572898" lon="-111.887797"><ele>416.2</ele></trkpt>
    <trkpt lat="33.572779" lon="-111.888227"><ele>415.0</ele></trkpt>
    <trkpt lat="33.572678" lon="-111.88846"><ele>414.2</ele></trkpt>
    <trkpt lat="33.572367" lon="-111.888751"><ele>413.2</ele></trkpt>
    <trkpt lat="33.572126" lon="-111.889038"><ele>413.2</ele></trkpt>
    <trkpt lat="33.572041" lon="-111.889215"><ele>413.5</ele></trkpt>
    <trkpt lat="33.572023" lon="-111.889312"><ele>413.2</ele></trkpt>
    <trkpt lat="33.571892" lon="-111.890077"><ele>412.5</ele></trkpt>
    <trkpt lat="33.571752" lon="-111.890835"><ele>412.0</ele></trkpt>
    <trkpt lat="33.571705" lon="-111.890827"><ele>412.0</ele></trkpt>
    <trkpt lat="33.571642" lon="-111.890811"><ele>411.8</ele></trkpt>
    <trkpt lat="33.571573" lon="-111.890749"><ele>411.8</ele></trkpt>
    <trkpt lat="33.57153" lon="-111.890432"><ele>411.8</ele></trkpt>
    <trkpt lat="33.5715" lon="-111.890389"><ele>412.0</ele></trkpt>
    <trkpt lat="33.571445" lon="-111.890376"><ele>412.0</ele></trkpt>
    <trkpt lat="33.57123" lon="-111.890495"><ele>411.8</ele></trkpt>
    <trkpt lat="33.569871" lon="-111.891166"><ele>411.0</ele></trkpt>
    <trkpt lat="33.569778" lon="-111.89119"><ele>411.0</ele></trkpt>
    <trkpt lat="33.569582" lon="-111.891199"><ele>411.0</ele></trkpt>
    <trkpt lat="33.569155" lon="-111.891306"><ele>410.8</ele></trkpt>
    <trkpt lat="33.568861" lon="-111.891364"><ele>410.2</ele></trkpt>
    <trkpt lat="33.568505" lon="-111.891436"><ele>409.8</ele></trkpt>
    <trkpt lat="33.568278" lon="-111.891471"><ele>409.8</ele></trkpt>
    <trkpt lat="33.567976" lon="-111.891503"><ele>409.8</ele></trkpt>
    <trkpt lat="33.567145" lon="-111.89145"><ele>409.5</ele></trkpt>
    <trkpt lat="33.563172" lon="-111.891458"><ele>406.5</ele></trkpt>
    <trkpt lat="33.563075" lon="-111.891481"><ele>406.5</ele></trkpt>
    <trkpt lat="33.563015" lon="-111.891506"><ele>406.5</ele></trkpt>
    <trkpt lat="33.562908" lon="-111.891583"><ele>406.5</ele></trkpt>
    <trkpt lat="33.562802" lon="-111.891636"><ele>406.5</ele></trkpt>
    <trkpt lat="33.562708" lon="-111.891649"><ele>406.2</ele></trkpt>
    <trkpt lat="33.56064" lon="-111.891657"><ele>405.8</ele></trkpt>
    <trkpt lat="33.560492" lon="-111.891642"><ele>405.8</ele></trkpt>
    <trkpt lat="33.560247" lon="-111.891659"><ele>405.8</ele></trkpt>
    <trkpt lat="33.559862" lon="-111.891664"><ele>405.8</ele></trkpt>
    <trkpt lat="33.559695" lon="-111.891642"><ele>405.5</ele></trkpt>
    <trkpt lat="33.559552" lon="-111.891664"><ele>405.2</ele></trkpt>
    <trkpt lat="33.557552" lon="-111.891679"><ele>405.0</ele></trkpt>
    <trkpt lat="33.557279" lon="-111.891674"><ele>404.8</ele></trkpt>
    <trkpt lat="33.55705" lon="-111.891704"><ele>404.5</ele></trkpt>
    <trkpt lat="33.556837" lon="-111.891718"><ele>404.2</ele></trkpt>
    <trkpt lat="33.554083" lon="-111.891732"><ele>399.8</ele></trkpt>
    <trkpt lat="33.553861" lon="-111.891728"><ele>400.2</ele></trkpt>
    <trkpt lat="33.553688" lon="-111.891683"><ele>400.5</ele></trkpt>
    <trkpt lat="33.553613" lon="-111.891654"><ele>400.5</ele></trkpt>
    <trkpt lat="33.553551" lon="-111.891644"><ele>400.8</ele></trkpt>
    <trkpt lat="33.553185" lon="-111.891647"><ele>401.2</ele></trkpt>
    <trkpt lat="33.553128" lon="-111.891632"><ele>401.5</ele></trkpt>
    <trkpt lat="33.553076" lon="-111.891668"><ele>401.5</ele></trkpt>
    <trkpt lat="33.553021" lon="-111.891662"><ele>401.8</ele></trkpt>
    <trkpt lat="33.552896" lon="-111.891638"><ele>402.0</ele></trkpt>
    <trkpt lat="33.552853" lon="-111.891631"><ele>402.0</ele></trkpt>
    <trkpt lat="33.55283" lon="-111.891612"><ele>402.0</ele></trkpt>
    <trkpt lat="33.552798" lon="-111.891611"><ele>402.2</ele></trkpt>
    <trkpt lat="33.551114" lon="-111.891637"><ele>403.5</ele></trkpt>
    <trkpt lat="33.545995" lon="-111.891607"><ele>397.8</ele></trkpt>
    <trkpt lat="33.545793" lon="-111.891621"><ele>397.8</ele></trkpt>
    <trkpt lat="33.545079" lon="-111.891637"><ele>397.0</ele></trkpt>
    <trkpt lat="33.544601" lon="-111.891636"><ele>397.8</ele></trkpt>
    <trkpt lat="33.543978" lon="-111.891636"><ele>398.0</ele></trkpt>
    <trkpt lat="33.54321" lon="-111.891632"><ele>395.8</ele></trkpt>
    <trkpt lat="33.542289" lon="-111.891584"><ele>396.0</ele></trkpt>
    <trkpt lat="33.542184" lon="-111.891588"><ele>396.0</ele></trkpt>
    <trkpt lat="33.541314" lon="-111.891621"><ele>396.0</ele></trkpt>
    <trkpt lat="33.539986" lon="-111.891648"><ele>395.8</ele></trkpt>
    <trkpt lat="33.539289" lon="-111.891659"><ele>391.8</ele></trkpt>
    <trkpt lat="33.538567" lon="-111.891658"><ele>392.2</ele></trkpt>
    <trkpt lat="33.53855" lon="-111.891666"><ele>392.2</ele></trkpt>
    <trkpt lat="33.538542" lon="-111.891681"><ele>392.5</ele></trkpt>
    <trkpt lat="33.538429" lon="-111.891663"><ele>392.8</ele></trkpt>
    <trkpt lat="33.538312" lon="-111.891649"><ele>392.8</ele></trkpt>
    <trkpt lat="33.538274" lon="-111.891623"><ele>392.8</ele></trkpt>
    <trkpt lat="33.538127" lon="-111.891646"><ele>392.8</ele></trkpt>
    <trkpt lat="33.537894" lon="-111.891654"><ele>392.8</ele></trkpt>
    <trkpt lat="33.536172" lon="-111.891616"><ele>394.0</ele></trkpt>
    <trkpt lat="33.535819" lon="-111.89168"><ele>394.8</ele></trkpt>
    <trkpt lat="33.535381" lon="-111.891675"><ele>392.8</ele></trkpt>
    <trkpt lat="33.534797" lon="-111.891679"><ele>390.5</ele></trkpt>
    <trkpt lat="33.534675" lon="-111.891691"><ele>390.5</ele></trkpt>
    <trkpt lat="33.534605" lon="-111.891754"><ele>390.2</ele></trkpt>
    <trkpt lat="33.534551" lon="-111.891761"><ele>390.0</ele></trkpt>
    <trkpt lat="33.534505" lon="-111.891761"><ele>390.0</ele></trkpt>
    <trkpt lat="33.534492" lon="-111.891761"><ele>390.0</ele></trkpt>
    <trkpt lat="33.534419" lon="-111.891707"><ele>390.0</ele></trkpt>
    <trkpt lat="33.534362" lon="-111.891678"><ele>390.0</ele></trkpt>
    <trkpt lat="33.533607" lon="-111.891687"><ele>390.5</ele></trkpt>
    <trkpt lat="33.53311" lon="-111.891643"><ele>390.5</ele></trkpt>
    <trkpt lat="33.532721" lon="-111.891646"><ele>390.0</ele></trkpt>
    <trkpt lat="33.532248" lon="-111.891632"><ele>389.8</ele></trkpt>
    <trkpt lat="33.532188" lon="-111.891632"><ele>390.0</ele></trkpt>
    <trkpt lat="33.532007" lon="-111.891633"><ele>390.0</ele></trkpt>
    <trkpt lat="33.531592" lon="-111.891635"><ele>390.0</ele></trkpt>
    <trkpt lat="33.531525" lon="-111.891532"><ele>390.0</ele></trkpt>
    <trkpt lat="33.531447" lon="-111.891438"><ele>390.0</ele></trkpt>
    <trkpt lat="33.530439" lon="-111.890217"><ele>390.5</ele></trkpt>
    <trkpt lat="33.529964" lon="-111.889648"><ele>389.8</ele></trkpt>
    <trkpt lat="33.529803" lon="-111.889394"><ele>389.0</ele></trkpt>
    <trkpt lat="33.529633" lon="-111.889076"><ele>388.2</ele></trkpt>
    <trkpt lat="33.529466" lon="-111.888693"><ele>389.0</ele></trkpt>
    <trkpt lat="33.529225" lon="-111.88797"><ele>391.5</ele></trkpt>
    <trkpt lat="33.529088" lon="-111.887111"><ele>392.2</ele></trkpt>
    <trkpt lat="33.528822" lon="-111.885156"><ele>389.0</ele></trkpt>
    <trkpt lat="33.528694" lon="-111.884428"><ele>390.0</ele></trkpt>
    <trkpt lat="33.528275" lon="-111.881139"><ele>392.0</ele></trkpt>
    <trkpt lat="33.527917" lon="-111.878512"><ele>391.0</ele></trkpt>
    <trkpt lat="33.527526" lon="-111.875821"><ele>391.8</ele></trkpt>
    <trkpt lat="33.527428" lon="-111.874809"><ele>390.8</ele></trkpt>
    <trkpt lat="33.52742" lon="-111.87414"><ele>390.8</ele></trkpt>
    <trkpt lat="33.52742" lon="-111.873263"><ele>389.0</ele></trkpt>
    <trkpt lat="33.527431" lon="-111.872191"><ele>391.0</ele></trkpt>
    <trkpt lat="33.527358" lon="-111.871019"><ele>389.5</ele></trkpt>
    <trkpt lat="33.527243" lon="-111.870195"><ele>390.0</ele></trkpt>
    <trkpt lat="33.527092" lon="-111.86948"><ele>390.5</ele></trkpt>
    <trkpt lat="33.526833" lon="-111.868567"><ele>391.5</ele></trkpt>
    <trkpt lat="33.526434" lon="-111.867283"><ele>389.5</ele></trkpt>
    <trkpt lat="33.525948" lon="-111.865747"><ele>391.5</ele></trkpt>
    <trkpt lat="33.525299" lon="-111.863617"><ele>389.5</ele></trkpt>
    <trkpt lat="33.524715" lon="-111.861762"><ele>391.2</ele></trkpt>
    <trkpt lat="33.524537" lon="-111.861281"><ele>391.5</ele></trkpt>
    <trkpt lat="33.52419" lon="-111.86049"><ele>392.2</ele></trkpt>
    <trkpt lat="33.523549" lon="-111.859455"><ele>392.0</ele></trkpt>
    <trkpt lat="33.5218" lon="-111.856723"><ele>391.0</ele></trkpt>
    <trkpt lat="33.518019" lon="-111.85082"><ele>390.2</ele></trkpt>
    <trkpt lat="33.515308" lon="-111.846607"><ele>392.8</ele></trkpt>
    <trkpt lat="33.514972" lon="-111.84605"><ele>392.0</ele></trkpt>
    <trkpt lat="33.514712" lon="-111.845551"><ele>391.8</ele></trkpt>
    <trkpt lat="33.514584" lon="-111.845292"><ele>391.5</ele></trkpt>
    <trkpt lat="33.514435" lon="-111.844971"><ele>390.5</ele></trkpt>
    <trkpt lat="33.514304" lon="-111.84462"><ele>391.5</ele></trkpt>
    <trkpt lat="33.512678" lon="-111.840109"><ele>391.8</ele></trkpt>
    <trkpt lat="33.512059" lon="-111.838366"><ele>392.2</ele></trkpt>
    <trkpt lat="33.51145" lon="-111.836714"><ele>391.5</ele></trkpt>
    <trkpt lat="33.510933" lon="-111.835288"><ele>391.2</ele></trkpt>
    <trkpt lat="33.51035" lon="-111.833645"><ele>391.2</ele></trkpt>
    <trkpt lat="33.509903" lon="-111.832441"><ele>392.0</ele></trkpt>
    <trkpt lat="33.509477" lon="-111.831258"><ele>392.5</ele></trkpt>
    <trkpt lat="33.509235" lon="-111.830604"><ele>392.2</ele></trkpt>
    <trkpt lat="33.509133" lon="-111.830346"><ele>392.5</ele></trkpt>
    <trkpt lat="33.508444" lon="-111.828728"><ele>392.8</ele></trkpt>
    <trkpt lat="33.507936" lon="-111.827507"><ele>394.5</ele></trkpt>
    <trkpt lat="33.507444" lon="-111.826382"><ele>392.8</ele></trkpt>
    <trkpt lat="33.506729" lon="-111.824694"><ele>392.8</ele></trkpt>
    <trkpt lat="33.506269" lon="-111.823515"><ele>393.0</ele></trkpt>
    <trkpt lat="33.5059" lon="-111.822461"><ele>391.0</ele></trkpt>
    <trkpt lat="33.50582" lon="-111.822305"><ele>391.0</ele></trkpt>
    <trkpt lat="33.505761" lon="-111.822096"><ele>391.5</ele></trkpt>
    <trkpt lat="33.505573" lon="-111.821449"><ele>392.5</ele></trkpt>
    <trkpt lat="33.50492" lon="-111.819566"><ele>393.2</ele></trkpt>
    <trkpt lat="33.504249" lon="-111.817533"><ele>391.8</ele></trkpt>
    <trkpt lat="33.503726" lon="-111.81542"><ele>392.8</ele></trkpt>
    <trkpt lat="33.503113" lon="-111.812619"><ele>391.2</ele></trkpt>
    <trkpt lat="33.502518" lon="-111.809889"><ele>392.0</ele></trkpt>
    <trkpt lat="33.502281" lon="-111.808827"><ele>392.5</ele></trkpt>
    <trkpt lat="33.502268" lon="-111.807631"><ele>394.2</ele></trkpt>
    <trkpt lat="33.50263" lon="-111.806821"><ele>394.2</ele></trkpt>
    <trkpt lat="33.503448" lon="-111.805962"><ele>390.5</ele></trkpt>
    <trkpt lat="33.505502" lon="-111.804423"><ele>392.5</ele></trkpt>
    <trkpt lat="33.505967" lon="-111.803677"><ele>392.5</ele></trkpt>
    <trkpt lat="33.506047" lon="-111.803275"><ele>393.0</ele></trkpt>
    <trkpt lat="33.506025" lon="-111.802679"><ele>393.5</ele></trkpt>
    <trkpt lat="33.505667" lon="-111.802121"><ele>394.2</ele></trkpt>
    <trkpt lat="33.504822" lon="-111.801086"><ele>394.2</ele></trkpt>
    <trkpt lat="33.504298" lon="-111.800078"><ele>393.5</ele></trkpt>
    <trkpt lat="33.504155" lon="-111.799348"><ele>395.5</ele></trkpt>
    <trkpt lat="33.504276" lon="-111.798168"><ele>395.0</ele></trkpt>
    <trkpt lat="33.504446" lon="-111.797712"><ele>395.0</ele></trkpt>
    <trkpt lat="33.504585" lon="-111.797116"><ele>394.5</ele></trkpt>
    <trkpt lat="33.504495" lon="-111.796446"><ele>394.5</ele></trkpt>
    <trkpt lat="33.504325" lon="-111.795427"><ele>395.5</ele></trkpt>
    <trkpt lat="33.504325" lon="-111.794574"><ele>395.0</ele></trkpt>
    <trkpt lat="33.504692" lon="-111.793334"><ele>396.2</ele></trkpt>
    <trkpt lat="33.505448" lon="-111.792176"><ele>395.0</ele></trkpt>
    <trkpt lat="33.506123" lon="-111.791301"><ele>395.5</ele></trkpt>
    <trkpt lat="33.506683" lon="-111.78973"><ele>395.0</ele></trkpt>
    <trkpt lat="33.507564" lon="-111.787396"><ele>394.0</ele></trkpt>
    <trkpt lat="33.508047" lon="-111.78605"><ele>395.8</ele></trkpt>
    <trkpt lat="33.508499" lon="-111.785218"><ele>396.8</ele></trkpt>
    <trkpt lat="33.509384" lon="-111.784403"><ele>395.5</ele></trkpt>
    <trkpt lat="33.510404" lon="-111.783603"><ele>395.2</ele></trkpt>
    <trkpt lat="33.510865" lon="-111.783067"><ele>395.8</ele></trkpt>
    <trkpt lat="33.511057" lon="-111.782654"><ele>395.8</ele></trkpt>
    <trkpt lat="33.511182" lon="-111.781715"><ele>396.8</ele></trkpt>
    <trkpt lat="33.510985" lon="-111.780438"><ele>397.2</ele></trkpt>
    <trkpt lat="33.51086" lon="-111.779521"><ele>398.0</ele></trkpt>
    <trkpt lat="33.510945" lon="-111.779017"><ele>398.0</ele></trkpt>
    <trkpt lat="33.511817" lon="-111.777794"><ele>396.2</ele></trkpt>
    <trkpt lat="33.512761" lon="-111.776388"><ele>396.0</ele></trkpt>
    <trkpt lat="33.513074" lon="-111.775112"><ele>395.5</ele></trkpt>
    <trkpt lat="33.512855" lon="-111.774484"><ele>395.2</ele></trkpt>
    <trkpt lat="33.511688" lon="-111.771984"><ele>393.0</ele></trkpt>
    <trkpt lat="33.510833" lon="-111.769355"><ele>394.5</ele></trkpt>
    <trkpt lat="33.51031" lon="-111.766807"><ele>396.2</ele></trkpt>
    <trkpt lat="33.510265" lon="-111.765016"><ele>396.5</ele></trkpt>
    <trkpt lat="33.510431" lon="-111.764254"><ele>396.5</ele></trkpt>
    <trkpt lat="33.5109" lon="-111.763101"><ele>396.0</ele></trkpt>
    <trkpt lat="33.51171" lon="-111.761867"><ele>397.2</ele></trkpt>
    <trkpt lat="33.512654" lon="-111.76088"><ele>396.2</ele></trkpt>
    <trkpt lat="33.514388" lon="-111.75955"><ele>395.8</ele></trkpt>
    <trkpt lat="33.515568" lon="-111.758748"><ele>396.5</ele></trkpt>
    <trkpt lat="33.515811" lon="-111.75845"><ele>396.8</ele></trkpt>
    <trkpt lat="33.515937" lon="-111.757897"><ele>396.0</ele></trkpt>
    <trkpt lat="33.515892" lon="-111.757393"><ele>395.2</ele></trkpt>
    <trkpt lat="33.515333" lon="-111.756309"><ele>396.5</ele></trkpt>
    <trkpt lat="33.514707" lon="-111.755204"><ele>397.0</ele></trkpt>
    <trkpt lat="33.514341" lon="-111.754942"><ele>397.0</ele></trkpt>
    <trkpt lat="33.51419" lon="-111.754717"><ele>397.0</ele></trkpt>
    <trkpt lat="33.514148" lon="-111.754539"><ele>396.8</ele></trkpt>
    <trkpt lat="33.514054" lon="-111.754019"><ele>396.8</ele></trkpt>
    <trkpt lat="33.512444" lon="-111.751102"><ele>396.0</ele></trkpt>
    <trkpt lat="33.511661" lon="-111.749625"><ele>395.2</ele></trkpt>
    <trkpt lat="33.510471" lon="-111.74756"><ele>395.0</ele></trkpt>
    <trkpt lat="33.509769" lon="-111.745704"><ele>397.2</ele></trkpt>
    <trkpt lat="33.508458" lon="-111.741911"><ele>396.2</ele></trkpt>
    <trkpt lat="33.508221" lon="-111.740806"><ele>395.8</ele></trkpt>
    <trkpt lat="33.508176" lon="-111.739583"><ele>396.8</ele></trkpt>
    <trkpt lat="33.508011" lon="-111.730775"><ele>395.2</ele></trkpt>
    <trkpt lat="33.507984" lon="-111.728763"><ele>397.0</ele></trkpt>
    <trkpt lat="33.508051" lon="-111.727132"><ele>397.5</ele></trkpt>
    <trkpt lat="33.508861" lon="-111.722052"><ele>396.2</ele></trkpt>
    <trkpt lat="33.50908" lon="-111.720571"><ele>395.2</ele></trkpt>
    <trkpt lat="33.509814" lon="-111.715792"><ele>397.8</ele></trkpt>
    <trkpt lat="33.509923" lon="-111.715026"><ele>398.8</ele></trkpt>
    <trkpt lat="33.510104" lon="-111.714317"><ele>400.2</ele></trkpt>
    <trkpt lat="33.511017" lon="-111.712348"><ele>399.0</ele></trkpt>
    <trkpt lat="33.511061" lon="-111.712071"><ele>399.2</ele></trkpt>
    <trkpt lat="33.511068" lon="-111.711794"><ele>399.5</ele></trkpt>
    <trkpt lat="33.511078" lon="-111.711656"><ele>399.5</ele></trkpt>
    <trkpt lat="33.510628" lon="-111.707815"><ele>396.0</ele></trkpt>
    <trkpt lat="33.510595" lon="-111.707413"><ele>395.0</ele></trkpt>
    <trkpt lat="33.510614" lon="-111.707096"><ele>394.8</ele></trkpt>
    <trkpt lat="33.510748" lon="-111.706592"><ele>395.0</ele></trkpt>
    <trkpt lat="33.510815" lon="-111.706426"><ele>395.0</ele></trkpt>
    <trkpt lat="33.511672" lon="-111.704933"><ele>394.8</ele></trkpt>
    <trkpt lat="33.512625" lon="-111.703314"><ele>393.5</ele></trkpt>
    <trkpt lat="33.513092" lon="-111.702606"><ele>394.2</ele></trkpt>
    <trkpt lat="33.514112" lon="-111.701243"><ele>396.2</ele></trkpt>
    <trkpt lat="33.514894" lon="-111.699962"><ele>397.0</ele></trkpt>
    <trkpt lat="33.515547" lon="-111.698674"><ele>399.2</ele></trkpt>
    <trkpt lat="33.515735" lon="-111.698363"><ele>399.2</ele></trkpt>
    <trkpt lat="33.515807" lon="-111.698106"><ele>399.0</ele></trkpt>
    <trkpt lat="33.515798" lon="-111.697859"><ele>398.5</ele></trkpt>
    <trkpt lat="33.515735" lon="-111.697516"><ele>397.0</ele></trkpt>
    <trkpt lat="33.515637" lon="-111.697248"><ele>395.0</ele></trkpt>
    <trkpt lat="33.515538" lon="-111.697054"><ele>393.5</ele></trkpt>
    <trkpt lat="33.515458" lon="-111.696936"><ele>392.5</ele></trkpt>
    <trkpt lat="33.515296" lon="-111.696812"><ele>391.0</ele></trkpt>
    <trkpt lat="33.51519" lon="-111.696733"><ele>390.2</ele></trkpt>
    <trkpt lat="33.512831" lon="-111.695392"><ele>396.5</ele></trkpt>
    <trkpt lat="33.512654" lon="-111.695708"><ele>396.8</ele></trkpt>
    <trkpt lat="33.512238" lon="-111.696582"><ele>397.0</ele></trkpt>
    <trkpt lat="33.512005" lon="-111.697033"><ele>396.5</ele></trkpt>
    <trkpt lat="33.511576" lon="-111.697548"><ele>397.0</ele></trkpt>
    <trkpt lat="33.510216" lon="-111.698953"><ele>396.5</ele></trkpt>
    <trkpt lat="33.509715" lon="-111.699629"><ele>396.8</ele></trkpt>
    <trkpt lat="33.508982" lon="-111.70067"><ele>398.0</ele></trkpt>
    <trkpt lat="33.508302" lon="-111.701936"><ele>399.8</ele></trkpt>
    <trkpt lat="33.507859" lon="-111.702886"><ele>399.0</ele></trkpt>
    <trkpt lat="33.50764" lon="-111.70362"><ele>398.8</ele></trkpt>
    <trkpt lat="33.507452" lon="-111.704447"><ele>397.5</ele></trkpt>
    <trkpt lat="33.507049" lon="-111.705208"><ele>396.8</ele></trkpt>
    <trkpt lat="33.506464" lon="-111.707027"><ele>398.5</ele></trkpt>
    <trkpt lat="33.506199" lon="-111.708448"><ele>399.0</ele></trkpt>
    <trkpt lat="33.505824" lon="-111.709575"><ele>396.5</ele></trkpt>
    <trkpt lat="33.505385" lon="-111.710498"><ele>396.2</ele></trkpt>
    <trkpt lat="33.501717" lon="-111.715025"><ele>396.8</ele></trkpt>
    <trkpt lat="33.501395" lon="-111.715283"><ele>395.8</ele></trkpt>
    <trkpt lat="33.498631" lon="-111.717053"><ele>396.0</ele></trkpt>
    <trkpt lat="33.498371" lon="-111.717246"><ele>396.2</ele></trkpt>
    <trkpt lat="33.498139" lon="-111.717514"><ele>396.5</ele></trkpt>
    <trkpt lat="33.497648" lon="-111.718178"><ele>396.8</ele></trkpt>
    <trkpt lat="33.49677" lon="-111.719671"><ele>395.5</ele></trkpt>
    <trkpt lat="33.496564" lon="-111.719907"><ele>395.2</ele></trkpt>
    <trkpt lat="33.496349" lon="-111.720046"><ele>395.5</ele></trkpt>
    <trkpt lat="33.496161" lon="-111.720121"><ele>396.0</ele></trkpt>
    <trkpt lat="33.495723" lon="-111.720175"><ele>396.5</ele></trkpt>
    <trkpt lat="33.494627" lon="-111.719966"><ele>397.2</ele></trkpt>
    <trkpt lat="33.494506" lon="-111.719982"><ele>397.8</ele></trkpt>
    <trkpt lat="33.494363" lon="-111.720046"><ele>398.0</ele></trkpt>
    <trkpt lat="33.494273" lon="-111.720186"><ele>398.0</ele></trkpt>
    <trkpt lat="33.494202" lon="-111.720357"><ele>398.0</ele></trkpt>
    <trkpt lat="33.493629" lon="-111.723104"><ele>397.2</ele></trkpt>
    <trkpt lat="33.493531" lon="-111.72334"><ele>396.8</ele></trkpt>
    <trkpt lat="33.49345" lon="-111.723458"><ele>396.5</ele></trkpt>
    <trkpt lat="33.493316" lon="-111.723565"><ele>396.2</ele></trkpt>
    <trkpt lat="33.491872" lon="-111.724236"><ele>397.0</ele></trkpt>
    <trkpt lat="33.491733" lon="-111.724284"><ele>397.2</ele></trkpt>
    <trkpt lat="33.49158" lon="-111.724295"><ele>397.2</ele></trkpt>
    <trkpt lat="33.491419" lon="-111.724263"><ele>397.2</ele></trkpt>
    <trkpt lat="33.490919" lon="-111.724037"><ele>397.2</ele></trkpt>
    <trkpt lat="33.490798" lon="-111.724032"><ele>397.0</ele></trkpt>
    <trkpt lat="33.490655" lon="-111.724054"><ele>396.5</ele></trkpt>
    <trkpt lat="33.490404" lon="-111.724257"><ele>395.8</ele></trkpt>
    <trkpt lat="33.489608" lon="-111.725534"><ele>395.5</ele></trkpt>
    <trkpt lat="33.489429" lon="-111.725759"><ele>395.0</ele></trkpt>
    <trkpt lat="33.48925" lon="-111.72592"><ele>395.0</ele></trkpt>
    <trkpt lat="33.488069" lon="-111.726725"><ele>396.8</ele></trkpt>
    <trkpt lat="33.487854" lon="-111.726811"><ele>396.8</ele></trkpt>
    <trkpt lat="33.487375" lon="-111.726922"><ele>396.8</ele></trkpt>
    <trkpt lat="33.487309" lon="-111.726594"><ele>397.0</ele></trkpt>
    <trkpt lat="33.48721" lon="-111.726229"><ele>398.0</ele></trkpt>
    <trkpt lat="33.486842" lon="-111.725684"><ele>400.0</ele></trkpt>
    <trkpt lat="33.486688" lon="-111.725456"><ele>400.2</ele></trkpt>
    <trkpt lat="33.486521" lon="-111.72521"><ele>400.8</ele></trkpt>
    <trkpt lat="33.486208" lon="-111.72477"><ele>401.8</ele></trkpt>
    <trkpt lat="33.48585" lon="-111.72433"><ele>402.8</ele></trkpt>
    <trkpt lat="33.485582" lon="-111.723987"><ele>402.8</ele></trkpt>
    <trkpt lat="33.485313" lon="-111.7236"><ele>403.0</ele></trkpt>
    <trkpt lat="33.484622" lon="-111.72217"><ele>405.5</ele></trkpt>
    <trkpt lat="33.484499" lon="-111.721916"><ele>405.8</ele></trkpt>
    <trkpt lat="33.484097" lon="-111.720897"><ele>407.8</ele></trkpt>
    <trkpt lat="33.484061" lon="-111.720532"><ele>408.2</ele></trkpt>
    <trkpt lat="33.484041" lon="-111.720087"><ele>408.8</ele></trkpt>
    <trkpt lat="33.48402" lon="-111.718567"><ele>415.8</ele></trkpt>
    <trkpt lat="33.48402" lon="-111.718393"><ele>416.8</ele></trkpt>
    <trkpt lat="33.484019" lon="-111.717709"><ele>418.5</ele></trkpt>
    <trkpt lat="33.484004" lon="-111.717128"><ele>419.2</ele></trkpt>
    <trkpt lat="33.483973" lon="-111.716795"><ele>419.5</ele></trkpt>
    <trkpt lat="33.483934" lon="-111.716534"><ele>419.8</ele></trkpt>
    <trkpt lat="33.48381" lon="-111.715951"><ele>420.2</ele></trkpt>
    <trkpt lat="33.483613" lon="-111.715414"><ele>421.0</ele></trkpt>
    <trkpt lat="33.483348" lon="-111.714906"><ele>422.2</ele></trkpt>
    <trkpt lat="33.483041" lon="-111.714424"><ele>423.5</ele></trkpt>
    <trkpt lat="33.482688" lon="-111.71401"><ele>424.5</ele></trkpt>
    <trkpt lat="33.481872" lon="-111.713117"><ele>426.0</ele></trkpt>
    <trkpt lat="33.481546" lon="-111.712732"><ele>427.0</ele></trkpt>
    <trkpt lat="33.481269" lon="-111.712335"><ele>427.8</ele></trkpt>
    <trkpt lat="33.48109" lon="-111.711927"><ele>428.2</ele></trkpt>
    <trkpt lat="33.480947" lon="-111.711423"><ele>429.0</ele></trkpt>
    <trkpt lat="33.480886" lon="-111.711099"><ele>429.0</ele></trkpt>
    <trkpt lat="33.480862" lon="-111.710834"><ele>429.0</ele></trkpt>
    <trkpt lat="33.480855" lon="-111.709976"><ele>433.0</ele></trkpt>
    <trkpt lat="33.480855" lon="-111.709804"><ele>433.5</ele></trkpt>
    <trkpt lat="33.480853" lon="-111.709271"><ele>434.8</ele></trkpt>
    <trkpt lat="33.480853" lon="-111.709102"><ele>434.8</ele></trkpt>
    <trkpt lat="33.480843" lon="-111.705522"><ele>433.8</ele></trkpt>
    <trkpt lat="33.480842" lon="-111.705411"><ele>433.2</ele></trkpt>
    <trkpt lat="33.480842" lon="-111.705359"><ele>433.2</ele></trkpt>
    <trkpt lat="33.480839" lon="-111.7042"><ele>432.8</ele></trkpt>
    <trkpt lat="33.480835" lon="-111.702794"><ele>433.8</ele></trkpt>
    <trkpt lat="33.480834" lon="-111.702272"><ele>435.5</ele></trkpt>
    <trkpt lat="33.480831" lon="-111.701421"><ele>438.0</ele></trkpt>
    <trkpt lat="33.480831" lon="-111.701346"><ele>438.5</ele></trkpt>
    <trkpt lat="33.480674" lon="-111.701351"><ele>438.8</ele></trkpt>
    <trkpt lat="33.479799" lon="-111.701347"><ele>440.5</ele></trkpt>
    <trkpt lat="33.479356" lon="-111.701345"><ele>441.5</ele></trkpt>
    <trkpt lat="33.478139" lon="-111.701354"><ele>440.0</ele></trkpt>
    <trkpt lat="33.478015" lon="-111.701347"><ele>440.2</ele></trkpt>
    <trkpt lat="33.477298" lon="-111.701348"><ele>440.8</ele></trkpt>
    <trkpt lat="33.477219" lon="-111.701351"><ele>441.0</ele></trkpt>
    <trkpt lat="33.477147" lon="-111.701364"><ele>441.0</ele></trkpt>
    <trkpt lat="33.476651" lon="-111.701386"><ele>441.8</ele></trkpt>
    <trkpt lat="33.476512" lon="-111.701392"><ele>441.8</ele></trkpt>
    <trkpt lat="33.476362" lon="-111.701399"><ele>441.5</ele></trkpt>
    <trkpt lat="33.475968" lon="-111.701416"><ele>441.0</ele></trkpt>
    <trkpt lat="33.475836" lon="-111.701409"><ele>441.0</ele></trkpt>
    <trkpt lat="33.475681" lon="-111.701414"><ele>441.0</ele></trkpt>
    <trkpt lat="33.474999" lon="-111.701406"><ele>441.8</ele></trkpt>
    <trkpt lat="33.474824" lon="-111.701411"><ele>441.5</ele></trkpt>
    <trkpt lat="33.474717" lon="-111.701415"><ele>441.5</ele></trkpt>
    <trkpt lat="33.474294" lon="-111.701409"><ele>440.8</ele></trkpt>
    <trkpt lat="33.472858" lon="-111.701362"><ele>443.5</ele></trkpt>
    <trkpt lat="33.47245" lon="-111.701349"><ele>444.8</ele></trkpt>
    <trkpt lat="33.472029" lon="-111.701349"><ele>444.8</ele></trkpt>
    <trkpt lat="33.47198" lon="-111.701349"><ele>444.8</ele></trkpt>
    <trkpt lat="33.471888" lon="-111.701348"><ele>444.8</ele></trkpt>
    <trkpt lat="33.471765" lon="-111.701346"><ele>444.8</ele></trkpt>
    <trkpt lat="33.469535" lon="-111.701347"><ele>444.2</ele></trkpt>
    <trkpt lat="33.46842" lon="-111.701348"><ele>444.8</ele></trkpt>
    <trkpt lat="33.468107" lon="-111.701348"><ele>444.8</ele></trkpt>
    <trkpt lat="33.467494" lon="-111.701348"><ele>444.2</ele></trkpt>
    <trkpt lat="33.467287" lon="-111.701348"><ele>444.2</ele></trkpt>
    <trkpt lat="33.467184" lon="-111.701351"><ele>444.0</ele></trkpt>
    <trkpt lat="33.466533" lon="-111.701348"><ele>444.2</ele></trkpt>
    <trkpt lat="33.466546" lon="-111.701227"><ele>444.2</ele></trkpt>
    <trkpt lat="33.466554" lon="-111.701154"><ele>444.2</ele></trkpt>
    <trkpt lat="33.466518" lon="-111.701094"><ele>444.5</ele></trkpt>
    <trkpt lat="33.466516" lon="-111.700969"><ele>444.5</ele></trkpt>
    <trkpt lat="33.466526" lon="-111.700902"><ele>444.5</ele></trkpt>
    <trkpt lat="33.466556" lon="-111.70089"><ele>444.5</ele></trkpt>
    <trkpt lat="33.466655" lon="-111.700878"><ele>444.0</ele></trkpt>
    <trkpt lat="33.466773" lon="-111.700879"><ele>444.0</ele></trkpt>
    <trkpt lat="33.466848" lon="-111.700857"><ele>444.0</ele></trkpt>
    <trkpt lat="33.466892" lon="-111.700802"><ele>444.2</ele></trkpt>
    <trkpt lat="33.466968" lon="-111.700802"><ele>444.2</ele></trkpt>
    <trkpt lat="33.466972" lon="-111.700803"><ele>444.5</ele></trkpt>
  </trkseg></trk>
</gpx>
