<?xml version="1.0" encoding="UTF-8"?>
<gpx xmlns="http://www.topografix.com/GPX/1/1" version="1.1" creator="az-planning">
  <metadata><name>Link 3: Fountain Hills / Shea Blvd / Bush Hwy / Usery Pass Rd</name></metadata>
  <trk><name>Link 3: Fountain Hills / Shea Blvd / Bush Hwy / Usery Pass Rd</name><trkseg>
    <trkpt lat="33.641445" lon="-111.927427"><ele>465.2</ele></trkpt>
    <trkpt lat="33.641415" lon="-111.92739"><ele>465.5</ele></trkpt>
    <trkpt lat="33.641404" lon="-111.927356"><ele>465.5</ele></trkpt>
    <trkpt lat="33.641403" lon="-111.92732"><ele>465.5</ele></trkpt>
    <trkpt lat="33.641412" lon="-111.927285"><ele>465.8</ele></trkpt>
    <trkpt lat="33.641455" lon="-111.927269"><ele>465.8</ele></trkpt>
    <trkpt lat="33.641453" lon="-111.927101"><ele>466.0</ele></trkpt>
    <trkpt lat="33.641459" lon="-111.926412"><ele>466.8</ele></trkpt>
    <trkpt lat="33.641458" lon="-111.926319"><ele>466.5</ele></trkpt>
    <trkpt lat="33.641462" lon="-111.925592"><ele>466.0</ele></trkpt>
    <trkpt lat="33.641464" lon="-111.925453"><ele>466.0</ele></trkpt>
    <trkpt lat="33.641396" lon="-111.925454"><ele>465.8</ele></trkpt>
    <trkpt lat="33.640187" lon="-111.925496"><ele>462.2</ele></trkpt>
    <trkpt lat="33.639931" lon="-111.925505"><ele>461.8</ele></trkpt>
    <trkpt lat="33.639824" lon="-111.925506"><ele>461.5</ele></trkpt>
    <trkpt lat="33.639694" lon="-111.925504"><ele>461.2</ele></trkpt>
    <trkpt lat="33.638736" lon="-111.925489"><ele>459.8</ele></trkpt>
    <trkpt lat="33.638481" lon="-111.925488"><ele>459.2</ele></trkpt>
    <trkpt lat="33.638361" lon="-111.925488"><ele>459.0</ele></trkpt>
    <trkpt lat="33.638234" lon="-111.925489"><ele>459.0</ele></trkpt>
    <trkpt lat="33.638075" lon="-111.9255"><ele>459.2</ele></trkpt>
    <trkpt lat="33.638035" lon="-111.925301"><ele>459.2</ele></trkpt>
    <trkpt lat="33.63801" lon="-111.925177"><ele>459.0</ele></trkpt>
    <trkpt lat="33.637605" lon="-111.92318"><ele>461.8</ele></trkpt>
    <trkpt lat="33.637499" lon="-111.9227"><ele>464.8</ele></trkpt>
    <trkpt lat="33.637285" lon="-111.921699"><ele>467.2</ele></trkpt>
    <trkpt lat="33.637214" lon="-111.921371"><ele>466.0</ele></trkpt>
    <trkpt lat="33.637191" lon="-111.921261"><ele>465.5</ele></trkpt>
    <trkpt lat="33.637166" lon="-111.921145"><ele>465.0</ele></trkpt>
    <trkpt lat="33.636983" lon="-111.920265"><ele>462.8</ele></trkpt>
    <trkpt lat="33.636903" lon="-111.91988"><ele>462.8</ele></trkpt>
    <trkpt lat="33.636725" lon="-111.919025"><ele>461.8</ele></trkpt>
    <trkpt lat="33.636647" lon="-111.918646"><ele>460.5</ele></trkpt>
    <trkpt lat="33.63633" lon="-111.917122"><ele>460.0</ele></trkpt>
    <trkpt lat="33.636261" lon="-111.916788"><ele>460.2</ele></trkpt>
    <trkpt lat="33.63624" lon="-111.91669"><ele>460.2</ele></trkpt>
    <trkpt lat="33.636221" lon="-111.916598"><ele>460.5</ele></trkpt>
    <trkpt lat="33.636019" lon="-111.915636"><ele>461.5</ele></trkpt>
    <trkpt lat="33.635912" lon="-111.915126"><ele>461.2</ele></trkpt>
    <trkpt lat="33.635856" lon="-111.914862"><ele>460.5</ele></trkpt>
    <trkpt lat="33.635692" lon="-111.914088"><ele>458.5</ele></trkpt>
    <trkpt lat="33.635523" lon="-111.913256"><ele>458.8</ele></trkpt>
    <trkpt lat="33.635421" lon="-111.912765"><ele>460.2</ele></trkpt>
    <trkpt lat="33.635225" lon="-111.911811"><ele>461.0</ele></trkpt>
    <trkpt lat="33.635128" lon="-111.911339"><ele>460.2</ele></trkpt>
    <trkpt lat="33.634923" lon="-111.910369"><ele>459.0</ele></trkpt>
    <trkpt lat="33.634806" lon="-111.909814"><ele>460.2</ele></trkpt>
    <trkpt lat="33.634555" lon="-111.908639"><ele>461.5</ele></trkpt>
    <trkpt lat="33.634539" lon="-111.908566"><ele>461.2</ele></trkpt>
    <trkpt lat="33.634524" lon="-111.908495"><ele>461.2</ele></trkpt>
    <trkpt lat="33.634418" lon="-111.907983"><ele>462.5</ele></trkpt>
    <trkpt lat="33.634393" lon="-111.90788"><ele>463.0</ele></trkpt>
    <trkpt lat="33.634365" lon="-111.907742"><ele>463.8</ele></trkpt>
    <trkpt lat="33.634353" lon="-111.907684"><ele>464.0</ele></trkpt>
    <trkpt lat="33.634344" lon="-111.907642"><ele>464.2</ele></trkpt>
    <trkpt lat="33.633962" lon="-111.905753"><ele>463.0</ele></trkpt>
    <trkpt lat="33.633517" lon="-111.903606"><ele>460.8</ele></trkpt>
    <trkpt lat="33.632986" lon="-111.90103"><ele>457.2</ele></trkpt>
    <trkpt lat="33.632445" lon="-111.898449"><ele>459.0</ele></trkpt>
    <trkpt lat="33.632295" lon="-111.897818"><ele>460.8</ele></trkpt>
    <trkpt lat="33.632236" lon="-111.897614"><ele>461.2</ele></trkpt>
    <trkpt lat="33.632153" lon="-111.897333"><ele>461.2</ele></trkpt>
    <trkpt lat="33.632057" lon="-111.897047"><ele>461.0</ele></trkpt>
    <trkpt lat="33.631996" lon="-111.89686"><ele>461.0</ele></trkpt>
    <trkpt lat="33.63192" lon="-111.89666"><ele>461.0</ele></trkpt>
    <trkpt lat="33.63173" lon="-111.896208"><ele>461.0</ele></trkpt>
    <trkpt lat="33.631694" lon="-111.896123"><ele>461.0</ele></trkpt>
    <trkpt lat="33.631383" lon="-111.895511"><ele>460.5</ele></trkpt>
    <trkpt lat="33.631203" lon="-111.895186"><ele>460.0</ele></trkpt>
    <trkpt lat="33.631149" lon="-111.895093"><ele>460.0</ele></trkpt>
    <trkpt lat="33.631115" lon="-111.895037"><ele>459.8</ele></trkpt>
    <trkpt lat="33.630855" lon="-111.894611"><ele>459.8</ele></trkpt>
    <trkpt lat="33.630582" lon="-111.894161"><ele>460.0</ele></trkpt>
    <trkpt lat="33.630425" lon="-111.893885"><ele>460.2</ele></trkpt>
    <trkpt lat="33.630319" lon="-111.89368"><ele>460.5</ele></trkpt>
    <trkpt lat="33.63015" lon="-111.893307"><ele>461.2</ele></trkpt>
    <trkpt lat="33.630101" lon="-111.893178"><ele>461.5</ele></trkpt>
    <trkpt lat="33.630049" lon="-111.893041"><ele>461.8</ele></trkpt>
    <trkpt lat="33.629868" lon="-111.89247"><ele>462.8</ele></trkpt>
    <trkpt lat="33.629791" lon="-111.892188"><ele>462.0</ele></trkpt>
    <trkpt lat="33.629769" lon="-111.892078"><ele>461.5</ele></trkpt>
    <trkpt lat="33.629755" lon="-111.892005"><ele>461.5</ele></trkpt>
    <trkpt lat="33.629709" lon="-111.891738"><ele>460.8</ele></trkpt>
    <trkpt lat="33.629652" lon="-111.891317"><ele>461.2</ele></trkpt>
    <trkpt lat="33.629639" lon="-111.891128"><ele>461.5</ele></trkpt>
    <trkpt lat="33.629637" lon="-111.891096"><ele>461.5</ele></trkpt>
    <trkpt lat="33.629633" lon="-111.891018"><ele>461.8</ele></trkpt>
    <trkpt lat="33.629628" lon="-111.890793"><ele>462.2</ele></trkpt>
    <trkpt lat="33.629616" lon="-111.889819"><ele>464.2</ele></trkpt>
    <trkpt lat="33.629616" lon="-111.889694"><ele>463.8</ele></trkpt>
    <trkpt lat="33.629617" lon="-111.889402"><ele>462.5</ele></trkpt>
    <trkpt lat="33.629618" lon="-111.889109"><ele>461.2</ele></trkpt>
    <trkpt lat="33.629624" lon="-111.888792"><ele>460.8</ele></trkpt>
    <trkpt lat="33.629633" lon="-111.888359"><ele>460.0</ele></trkpt>
    <trkpt lat="33.629638" lon="-111.887879"><ele>460.0</ele></trkpt>
    <trkpt lat="33.629638" lon="-111.887721"><ele>460.0</ele></trkpt>
    <trkpt lat="33.629642" lon="-111.887232"><ele>460.2</ele></trkpt>
    <trkpt lat="33.629643" lon="-111.88635"><ele>460.5</ele></trkpt>
    <trkpt lat="33.629642" lon="-111.886206"><ele>460.2</ele></trkpt>
    <trkpt lat="33.629644" lon="-111.886068"><ele>460.2</ele></trkpt>
    <trkpt lat="33.62964" lon="-111.885583"><ele>459.8</ele></trkpt>
    <trkpt lat="33.62962" lon="-111.885201"><ele>459.2</ele></trkpt>
    <trkpt lat="33.629613" lon="-111.885107"><ele>459.0</ele></trkpt>
    <trkpt lat="33.629571" lon="-111.884755"><ele>458.5</ele></trkpt>
    <trkpt lat="33.629492" lon="-111.884283"><ele>458.2</ele></trkpt>
    <trkpt lat="33.629466" lon="-111.884169"><ele>458.2</ele></trkpt>
    <trkpt lat="33.629446" lon="-111.884077"><ele>458.2</ele></trkpt>
    <trkpt lat="33.629344" lon="-111.883661"><ele>458.2</ele></trkpt>
    <trkpt lat="33.629287" lon="-111.883474"><ele>458.2</ele></trkpt>
    <trkpt lat="33.629246" lon="-111.883345"><ele>458.0</ele></trkpt>
    <trkpt lat="33.62913" lon="-111.883023"><ele>457.8</ele></trkpt>
    <trkpt lat="33.629002" lon="-111.882709"><ele>457.5</ele></trkpt>
    <trkpt lat="33.628795" lon="-111.88227"><ele>457.5</ele></trkpt>
    <trkpt lat="33.628644" lon="-111.881994"><ele>457.8</ele></trkpt>
    <trkpt lat="33.628442" lon="-111.881669"><ele>458.2</ele></trkpt>
    <trkpt lat="33.628185" lon="-111.881297"><ele>458.2</ele></trkpt>
    <trkpt lat="33.628072" lon="-111.881155"><ele>458.5</ele></trkpt>
    <trkpt lat="33.627775" lon="-111.880812"><ele>459.0</ele></trkpt>
    <trkpt lat="33.627685" lon="-111.880718"><ele>459.0</ele></trkpt>
    <trkpt lat="33.627423" lon="-111.880447"><ele>459.2</ele></trkpt>
    <trkpt lat="33.627372" lon="-111.880395"><ele>459.2</ele></trkpt>
    <trkpt lat="33.627284" lon="-111.880318"><ele>459.2</ele></trkpt>
    <trkpt lat="33.626168" lon="-111.879341"><ele>458.5</ele></trkpt>
    <trkpt lat="33.625923" lon="-111.879127"><ele>458.2</ele></trkpt>
    <trkpt lat="33.625826" lon="-111.879041"><ele>458.0</ele></trkpt>
    <trkpt lat="33.625902" lon="-111.878915"><ele>458.2</ele></trkpt>
    <trkpt lat="33.625957" lon="-111.878825"><ele>458.5</ele></trkpt>
    <trkpt lat="33.626189" lon="-111.878469"><ele>458.8</ele></trkpt>
    <trkpt lat="33.626417" lon="-111.878069"><ele>458.5</ele></trkpt>
    <trkpt lat="33.626577" lon="-111.877674"><ele>457.5</ele></trkpt>
    <trkpt lat="33.626585" lon="-111.877649"><ele>457.5</ele></trkpt>
    <trkpt lat="33.6266" lon="-111.877593"><ele>457.2</ele></trkpt>
    <trkpt lat="33.626696" lon="-111.877202"><ele>457.0</ele></trkpt>
    <trkpt lat="33.626725" lon="-111.876801"><ele>457.0</ele></trkpt>
    <trkpt lat="33.626714" lon="-111.876434"><ele>457.2</ele></trkpt>
    <trkpt lat="33.626703" lon="-111.876318"><ele>457.2</ele></trkpt>
    <trkpt lat="33.626643" lon="-111.876019"><ele>457.8</ele></trkpt>
    <trkpt lat="33.626619" lon="-111.875896"><ele>457.8</ele></trkpt>
    <trkpt lat="33.626609" lon="-111.875845"><ele>457.8</ele></trkpt>
    <trkpt lat="33.626421" lon="-111.875362"><ele>457.2</ele></trkpt>
    <trkpt lat="33.626183" lon="-111.874748"><ele>456.8</ele></trkpt>
    <trkpt lat="33.625976" lon="-111.874214"><ele>457.5</ele></trkpt>
    <trkpt lat="33.625943" lon="-111.874131"><ele>457.8</ele></trkpt>
    <trkpt lat="33.62571" lon="-111.873529"><ele>459.2</ele></trkpt>
    <trkpt lat="33.625523" lon="-111.8732"><ele>459.5</ele></trkpt>
    <trkpt lat="33.625281" lon="-111.872851"><ele>458.8</ele></trkpt>
    <trkpt lat="33.62511" lon="-111.872677"><ele>458.2</ele></trkpt>
    <trkpt lat="33.624986" lon="-111.872587"><ele>458.0</ele></trkpt>
    <trkpt lat="33.624924" lon="-111.872538"><ele>457.8</ele></trkpt>
    <trkpt lat="33.624488" lon="-111.872198"><ele>457.2</ele></trkpt>
    <trkpt lat="33.624257" lon="-111.871993"><ele>456.5</ele></trkpt>
    <trkpt lat="33.624166" lon="-111.871929"><ele>456.2</ele></trkpt>
    <trkpt lat="33.624054" lon="-111.871845"><ele>456.2</ele></trkpt>
    <trkpt lat="33.623978" lon="-111.871786"><ele>456.5</ele></trkpt>
    <trkpt lat="33.623585" lon="-111.871472"><ele>457.2</ele></trkpt>
    <trkpt lat="33.623313" lon="-111.871247"><ele>457.2</ele></trkpt>
    <trkpt lat="33.622601" lon="-111.870689"><ele>456.2</ele></trkpt>
    <trkpt lat="33.621836" lon="-111.870053"><ele>454.5</ele></trkpt>
    <trkpt lat="33.621121" lon="-111.869495"><ele>455.5</ele></trkpt>
    <trkpt lat="33.619441" lon="-111.868144"><ele>457.0</ele></trkpt>
    <trkpt lat="33.617576" lon="-111.866671"><ele>457.0</ele></trkpt>
    <trkpt lat="33.616183" lon="-111.865609"><ele>456.2</ele></trkpt>
    <trkpt lat="33.615742" lon="-111.865304"><ele>455.2</ele></trkpt>
    <trkpt lat="33.615613" lon="-111.865277"><ele>455.0</ele></trkpt>
    <trkpt lat="33.614873" lon="-111.864763"><ele>455.2</ele></trkpt>
    <trkpt lat="33.61398" lon="-111.864145"><ele>456.0</ele></trkpt>
    <trkpt lat="33.613782" lon="-111.864036"><ele>455.2</ele></trkpt>
    <trkpt lat="33.613561" lon="-111.863938"><ele>454.8</ele></trkpt>
    <trkpt lat="33.613216" lon="-111.863825"><ele>453.5</ele></trkpt>
    <trkpt lat="33.613094" lon="-111.863752"><ele>453.2</ele></trkpt>
    <trkpt lat="33.612811" lon="-111.863704"><ele>452.0</ele></trkpt>
    <trkpt lat="33.612641" lon="-111.863697"><ele>451.2</ele></trkpt>
    <trkpt lat="33.612315" lon="-111.863704"><ele>450.2</ele></trkpt>
    <trkpt lat="33.612242" lon="-111.863707"><ele>450.0</ele></trkpt>
    <trkpt lat="33.612137" lon="-111.863712"><ele>450.0</ele></trkpt>
    <trkpt lat="33.612052" lon="-111.863716"><ele>449.8</ele></trkpt>
    <trkpt lat="33.611744" lon="-111.863735"><ele>449.5</ele></trkpt>
    <trkpt lat="33.611461" lon="-111.863748"><ele>449.0</ele></trkpt>
    <trkpt lat="33.611213" lon="-111.863759"><ele>448.2</ele></trkpt>
    <trkpt lat="33.611008" lon="-111.863783"><ele>447.8</ele></trkpt>
    <trkpt lat="33.610947" lon="-111.863791"><ele>447.8</ele></trkpt>
    <trkpt lat="33.610634" lon="-111.863862"><ele>447.8</ele></trkpt>
    <trkpt lat="33.610156" lon="-111.864045"><ele>448.0</ele></trkpt>
    <trkpt lat="33.610084" lon="-111.864084"><ele>448.0</ele></trkpt>
    <trkpt lat="33.609704" lon="-111.864291"><ele>448.0</ele></trkpt>
    <trkpt lat="33.609267" lon="-111.864571"><ele>447.8</ele></trkpt>
    <trkpt lat="33.609067" lon="-111.86409"><ele>448.8</ele></trkpt>
    <trkpt lat="33.608467" lon="-111.86264"><ele>450.8</ele></trkpt>
    <trkpt lat="33.608281" lon="-111.862262"><ele>451.2</ele></trkpt>
    <trkpt lat="33.608052" lon="-111.861927"><ele>451.5</ele></trkpt>
    <trkpt lat="33.607816" lon="-111.861653"><ele>451.8</ele></trkpt>
    <trkpt lat="33.607587" lon="-111.861455"><ele>451.2</ele></trkpt>
    <trkpt lat="33.60728" lon="-111.861258"><ele>450.8</ele></trkpt>
    <trkpt lat="33.607087" lon="-111.861155"><ele>450.5</ele></trkpt>
    <trkpt lat="33.606815" lon="-111.861063"><ele>450.0</ele></trkpt>
    <trkpt lat="33.606408" lon="-111.861009"><ele>448.8</ele></trkpt>
    <trkpt lat="33.605786" lon="-111.861009"><ele>446.8</ele></trkpt>
    <trkpt lat="33.604793" lon="-111.861008"><ele>446.0</ele></trkpt>
    <trkpt lat="33.604279" lon="-111.861012"><ele>444.5</ele></trkpt>
    <trkpt lat="33.604278" lon="-111.860963"><ele>444.5</ele></trkpt>
    <trkpt lat="33.604274" lon="-111.860589"><ele>445.8</ele></trkpt>
    <trkpt lat="33.604266" lon="-111.859921"><ele>449.2</ele></trkpt>
    <trkpt lat="33.60427" lon="-111.859387"><ele>450.5</ele></trkpt>
    <trkpt lat="33.604262" lon="-111.856664"><ele>456.0</ele></trkpt>
    <trkpt lat="33.604269" lon="-111.856288"><ele>456.5</ele></trkpt>
    <trkpt lat="33.604282" lon="-111.856079"><ele>456.8</ele></trkpt>
    <trkpt lat="33.604304" lon="-111.855925"><ele>457.0</ele></trkpt>
    <trkpt lat="33.60433" lon="-111.855781"><ele>457.2</ele></trkpt>
    <trkpt lat="33.604366" lon="-111.855632"><ele>457.5</ele></trkpt>
    <trkpt lat="33.604464" lon="-111.855334"><ele>458.0</ele></trkpt>
    <trkpt lat="33.604578" lon="-111.855042"><ele>458.2</ele></trkpt>
    <trkpt lat="33.604615" lon="-111.85496"><ele>458.5</ele></trkpt>
    <trkpt lat="33.603883" lon="-111.854524"><ele>459.8</ele></trkpt>
    <trkpt lat="33.603628" lon="-111.85433"><ele>459.5</ele></trkpt>
    <trkpt lat="33.603486" lon="-111.854209"><ele>459.2</ele></trkpt>
    <trkpt lat="33.603383" lon="-111.854109"><ele>459.2</ele></trkpt>
    <trkpt lat="33.603249" lon="-111.853964"><ele>459.2</ele></trkpt>
    <trkpt lat="33.603123" lon="-111.853807"><ele>459.2</ele></trkpt>
    <trkpt lat="33.603024" lon="-111.853675"><ele>459.2</ele></trkpt>
    <trkpt lat="33.602848" lon="-111.853404"><ele>459.2</ele></trkpt>
    <trkpt lat="33.602744" lon="-111.853215"><ele>459.2</ele></trkpt>
    <trkpt lat="33.602618" lon="-111.852959"><ele>459.0</ele></trkpt>
    <trkpt lat="33.600802" lon="-111.849036"><ele>454.0</ele></trkpt>
    <trkpt lat="33.600562" lon="-111.848569"><ele>454.2</ele></trkpt>
    <trkpt lat="33.600198" lon="-111.847898"><ele>455.2</ele></trkpt>
    <trkpt lat="33.598748" lon="-111.844906"><ele>454.0</ele></trkpt>
    <trkpt lat="33.598656" lon="-111.844731"><ele>453.8</ele></trkpt>
    <trkpt lat="33.598435" lon="-111.844366"><ele>452.5</ele></trkpt>
    <trkpt lat="33.598316" lon="-111.844201"><ele>452.0</ele></trkpt>
    <trkpt lat="33.598184" lon="-111.844044"><ele>451.0</ele></trkpt>
    <trkpt lat="33.597975" lon="-111.843818"><ele>449.8</ele></trkpt>
    <trkpt lat="33.597903" lon="-111.843748"><ele>449.2</ele></trkpt>
    <trkpt lat="33.597856" lon="-111.843704"><ele>449.2</ele></trkpt>
    <trkpt lat="33.59764" lon="-111.843513"><ele>448.2</ele></trkpt>
    <trkpt lat="33.597455" lon="-111.843371"><ele>448.0</ele></trkpt>
    <trkpt lat="33.597422" lon="-111.843347"><ele>448.0</ele></trkpt>
    <trkpt lat="33.597353" lon="-111.843301"><ele>448.0</ele></trkpt>
    <trkpt lat="33.597267" lon="-111.843233"><ele>448.2</ele></trkpt>
    <trkpt lat="33.597203" lon="-111.843183"><ele>448.2</ele></trkpt>
    <trkpt lat="33.597199" lon="-111.84318"><ele>448.2</ele></trkpt>
    <trkpt lat="33.596395" lon="-111.842597"><ele>445.2</ele></trkpt>
    <trkpt lat="33.596199" lon="-111.842445"><ele>444.2</ele></trkpt>
    <trkpt lat="33.595983" lon="-111.842262"><ele>443.5</ele></trkpt>
    <trkpt lat="33.595748" lon="-111.842051"><ele>443.5</ele></trkpt>
    <trkpt lat="33.595419" lon="-111.841767"><ele>444.8</ele></trkpt>
    <trkpt lat="33.595135" lon="-111.841517"><ele>445.5</ele></trkpt>
    <trkpt lat="33.593532" lon="-111.840126"><ele>444.2</ele></trkpt>
    <trkpt lat="33.592205" lon="-111.838958"><ele>448.5</ele></trkpt>
    <trkpt lat="33.59193" lon="-111.838716"><ele>448.8</ele></trkpt>
    <trkpt lat="33.591868" lon="-111.838659"><ele>449.0</ele></trkpt>
    <trkpt lat="33.59181" lon="-111.838611"><ele>449.0</ele></trkpt>
    <trkpt lat="33.591085" lon="-111.837979"><ele>448.0</ele></trkpt>
    <trkpt lat="33.590573" lon="-111.837534"><ele>448.2</ele></trkpt>
    <trkpt lat="33.589643" lon="-111.836723"><ele>447.2</ele></trkpt>
    <trkpt lat="33.589551" lon="-111.836643"><ele>446.8</ele></trkpt>
    <trkpt lat="33.589298" lon="-111.836423"><ele>446.5</ele></trkpt>
    <trkpt lat="33.589262" lon="-111.836392"><ele>446.5</ele></trkpt>
    <trkpt lat="33.589219" lon="-111.836354"><ele>446.5</ele></trkpt>
    <trkpt lat="33.589117" lon="-111.836265"><ele>447.0</ele></trkpt>
    <trkpt lat="33.589194" lon="-111.836129"><ele>447.8</ele></trkpt>
    <trkpt lat="33.589234" lon="-111.836057"><ele>448.5</ele></trkpt>
    <trkpt lat="33.589406" lon="-111.835753"><ele>450.5</ele></trkpt>
    <trkpt lat="33.589487" lon="-111.835524"><ele>451.0</ele></trkpt>
    <trkpt lat="33.589526" lon="-111.835415"><ele>451.2</ele></trkpt>
    <trkpt lat="33.589623" lon="-111.834985"><ele>452.0</ele></trkpt>
    <trkpt lat="33.589654" lon="-111.834574"><ele>452.5</ele></trkpt>
    <trkpt lat="33.589656" lon="-111.833965"><ele>453.2</ele></trkpt>
    <trkpt lat="33.58965" lon="-111.833165"><ele>455.0</ele></trkpt>
    <trkpt lat="33.589647" lon="-111.831799"><ele>458.0</ele></trkpt>
    <trkpt lat="33.589645" lon="-111.831263"><ele>459.2</ele></trkpt>
    <trkpt lat="33.589646" lon="-111.831072"><ele>459.5</ele></trkpt>
    <trkpt lat="33.589648" lon="-111.830852"><ele>460.0</ele></trkpt>
    <trkpt lat="33.589648" lon="-111.830723"><ele>460.2</ele></trkpt>
    <trkpt lat="33.589644" lon="-111.828733"><ele>466.8</ele></trkpt>
    <trkpt lat="33.589635" lon="-111.826865"><ele>472.2</ele></trkpt>
    <trkpt lat="33.589636" lon="-111.825671"><ele>475.2</ele></trkpt>
    <trkpt lat="33.589636" lon="-111.825107"><ele>477.2</ele></trkpt>
    <trkpt lat="33.589636" lon="-111.824996"><ele>477.5</ele></trkpt>
    <trkpt lat="33.589635" lon="-111.824889"><ele>477.8</ele></trkpt>
    <trkpt lat="33.58963" lon="-111.822677"><ele>482.5</ele></trkpt>
    <trkpt lat="33.589629" lon="-111.82244"><ele>483.0</ele></trkpt>
    <trkpt lat="33.589629" lon="-111.822347"><ele>483.0</ele></trkpt>
    <trkpt lat="33.589628" lon="-111.821958"><ele>483.2</ele></trkpt>
    <trkpt lat="33.589631" lon="-111.819892"><ele>487.2</ele></trkpt>
    <trkpt lat="33.589631" lon="-111.819383"><ele>489.0</ele></trkpt>
    <trkpt lat="33.589634" lon="-111.817713"><ele>489.5</ele></trkpt>
    <trkpt lat="33.589634" lon="-111.817198"><ele>490.5</ele></trkpt>
    <trkpt lat="33.589634" lon="-111.816709"><ele>492.2</ele></trkpt>
    <trkpt lat="33.589631" lon="-111.814037"><ele>496.0</ele></trkpt>
    <trkpt lat="33.58963" lon="-111.813518"><ele>495.0</ele></trkpt>
    <trkpt lat="33.589631" lon="-111.813368"><ele>494.8</ele></trkpt>
    <trkpt lat="33.589629" lon="-111.813223"><ele>494.8</ele></trkpt>
    <trkpt lat="33.589626" lon="-111.811403"><ele>497.2</ele></trkpt>
    <trkpt lat="33.589627" lon="-111.811368"><ele>497.2</ele></trkpt>
    <trkpt lat="33.589625" lon="-111.810709"><ele>498.5</ele></trkpt>
    <trkpt lat="33.589633" lon="-111.8095"><ele>498.5</ele></trkpt>
    <trkpt lat="33.589635" lon="-111.809197"><ele>499.0</ele></trkpt>
    <trkpt lat="33.589635" lon="-111.809169"><ele>499.0</ele></trkpt>
    <trkpt lat="33.589636" lon="-111.809042"><ele>499.0</ele></trkpt>
    <trkpt lat="33.589634" lon="-111.808394"><ele>499.5</ele></trkpt>
    <trkpt lat="33.58963" lon="-111.806721"><ele>499.0</ele></trkpt>
    <trkpt lat="33.589631" lon="-111.806273"><ele>500.0</ele></trkpt>
    <trkpt lat="33.589627" lon="-111.805187"><ele>498.0</ele></trkpt>
    <trkpt lat="33.589628" lon="-111.80487"><ele>496.8</ele></trkpt>
    <trkpt lat="33.589628" lon="-111.804852"><ele>496.8</ele></trkpt>
    <trkpt lat="33.589628" lon="-111.804739"><ele>496.2</ele></trkpt>
    <trkpt lat="33.589626" lon="-111.803924"><ele>494.2</ele></trkpt>
    <trkpt lat="33.589628" lon="-111.80171"><ele>491.8</ele></trkpt>
    <trkpt lat="33.589628" lon="-111.801044"><ele>493.2</ele></trkpt>
    <trkpt lat="33.589624" lon="-111.800628"><ele>493.5</ele></trkpt>
    <trkpt lat="33.589614" lon="-111.797567"><ele>500.8</ele></trkpt>
    <trkpt lat="33.589617" lon="-111.796663"><ele>503.0</ele></trkpt>
    <trkpt lat="33.589619" lon="-111.796175"><ele>503.5</ele></trkpt>
    <trkpt lat="33.589619" lon="-111.796063"><ele>503.8</ele></trkpt>
    <trkpt lat="33.589619" lon="-111.795947"><ele>503.8</ele></trkpt>
    <trkpt lat="33.589617" lon="-111.795737"><ele>504.2</ele></trkpt>
    <trkpt lat="33.589617" lon="-111.795723"><ele>504.2</ele></trkpt>
    <trkpt lat="33.589617" lon="-111.795172"><ele>505.5</ele></trkpt>
    <trkpt lat="33.58962" lon="-111.794481"><ele>507.0</ele></trkpt>
    <trkpt lat="33.589617" lon="-111.794046"><ele>507.8</ele></trkpt>
    <trkpt lat="33.58962" lon="-111.793943"><ele>507.8</ele></trkpt>
    <trkpt lat="33.589622" lon="-111.792114"><ele>511.2</ele></trkpt>
    <trkpt lat="33.58962" lon="-111.791916"><ele>511.8</ele></trkpt>
    <trkpt lat="33.589619" lon="-111.791801"><ele>512.0</ele></trkpt>
    <trkpt lat="33.589618" lon="-111.791719"><ele>512.2</ele></trkpt>
    <trkpt lat="33.589621" lon="-111.790116"><ele>512.2</ele></trkpt>
    <trkpt lat="33.589621" lon="-111.789703"><ele>512.5</ele></trkpt>
    <trkpt lat="33.58962" lon="-111.789545"><ele>512.5</ele></trkpt>
    <trkpt lat="33.589618" lon="-111.789157"><ele>513.0</ele></trkpt>
    <trkpt lat="33.589613" lon="-111.788038"><ele>514.2</ele></trkpt>
    <trkpt lat="33.58961" lon="-111.787523"><ele>514.5</ele></trkpt>
    <trkpt lat="33.58961" lon="-111.787452"><ele>514.5</ele></trkpt>
    <trkpt lat="33.58961" lon="-111.787334"><ele>514.8</ele></trkpt>
    <trkpt lat="33.589601" lon="-111.78724"><ele>515.0</ele></trkpt>
    <trkpt lat="33.589606" lon="-111.786594"><ele>516.5</ele></trkpt>
    <trkpt lat="33.589622" lon="-111.785351"><ele>520.5</ele></trkpt>
    <trkpt lat="33.589634" lon="-111.782912"><ele>528.5</ele></trkpt>
    <trkpt lat="33.589629" lon="-111.782014"><ele>531.2</ele></trkpt>
    <trkpt lat="33.589671" lon="-111.781412"><ele>532.5</ele></trkpt>
    <trkpt lat="33.589836" lon="-111.780693"><ele>533.2</ele></trkpt>
    <trkpt lat="33.590002" lon="-111.780025"><ele>534.0</ele></trkpt>
    <trkpt lat="33.59009" lon="-111.779305"><ele>537.8</ele></trkpt>
    <trkpt lat="33.590182" lon="-111.778173"><ele>541.2</ele></trkpt>
    <trkpt lat="33.590231" lon="-111.777732"><ele>541.5</ele></trkpt>
    <trkpt lat="33.590267" lon="-111.777555"><ele>541.5</ele></trkpt>
    <trkpt lat="33.590417" lon="-111.777136"><ele>542.2</ele></trkpt>
    <trkpt lat="33.59057" lon="-111.77689"><ele>543.0</ele></trkpt>
    <trkpt lat="33.590781" lon="-111.776685"><ele>543.8</ele></trkpt>
    <trkpt lat="33.591473" lon="-111.776146"><ele>546.2</ele></trkpt>
    <trkpt lat="33.591552" lon="-111.77608"><ele>546.5</ele></trkpt>
    <trkpt lat="33.591697" lon="-111.775931"><ele>547.2</ele></trkpt>
    <trkpt lat="33.591782" lon="-111.775806"><ele>547.8</ele></trkpt>
    <trkpt lat="33.591896" lon="-111.775606"><ele>548.5</ele></trkpt>
    <trkpt lat="33.59196" lon="-111.775467"><ele>549.0</ele></trkpt>
    <trkpt lat="33.592018" lon="-111.775279"><ele>549.5</ele></trkpt>
    <trkpt lat="33.592038" lon="-111.77517"><ele>549.8</ele></trkpt>
    <trkpt lat="33.592058" lon="-111.774948"><ele>550.2</ele></trkpt>
    <trkpt lat="33.592061" lon="-111.774793"><ele>551.0</ele></trkpt>
    <trkpt lat="33.592052" lon="-111.774675"><ele>551.2</ele></trkpt>
    <trkpt lat="33.592025" lon="-111.774499"><ele>551.8</ele></trkpt>
    <trkpt lat="33.591744" lon="-111.773376"><ele>553.2</ele></trkpt>
    <trkpt lat="33.591673" lon="-111.772972"><ele>554.2</ele></trkpt>
    <trkpt lat="33.59166" lon="-111.772482"><ele>556.0</ele></trkpt>
    <trkpt lat="33.591707" lon="-111.77213"><ele>556.8</ele></trkpt>
    <trkpt lat="33.591797" lon="-111.771773"><ele>558.0</ele></trkpt>
    <trkpt lat="33.591917" lon="-111.771402"><ele>560.2</ele></trkpt>
    <trkpt lat="33.59198" lon="-111.771293"><ele>561.2</ele></trkpt>
    <trkpt lat="33.592199" lon="-111.77091"><ele>564.0</ele></trkpt>
    <trkpt lat="33.592671" lon="-111.770295"><ele>565.8</ele></trkpt>
    <trkpt lat="33.592878" lon="-111.769923"><ele>567.2</ele></trkpt>
    <trkpt lat="33.593126" lon="-111.769162"><ele>571.2</ele></trkpt>
    <trkpt lat="33.593297" lon="-111.768751"><ele>571.5</ele></trkpt>
    <trkpt lat="33.59338" lon="-111.768618"><ele>571.5</ele></trkpt>
    <trkpt lat="33.593578" lon="-111.768382"><ele>572.5</ele></trkpt>
    <trkpt lat="33.593747" lon="-111.768242"><ele>573.2</ele></trkpt>
    <trkpt lat="33.593855" lon="-111.768179"><ele>574.0</ele></trkpt>
    <trkpt lat="33.594465" lon="-111.767816"><ele>577.0</ele></trkpt>
    <trkpt lat="33.594621" lon="-111.767694"><ele>577.8</ele></trkpt>
    <trkpt lat="33.594696" lon="-111.767674"><ele>578.2</ele></trkpt>
    <trkpt lat="33.594862" lon="-111.767483"><ele>579.0</ele></trkpt>
    <trkpt lat="33.594924" lon="-111.767423"><ele>579.5</ele></trkpt>
    <trkpt lat="33.594989" lon="-111.767392"><ele>579.8</ele></trkpt>
    <trkpt lat="33.595105" lon="-111.767382"><ele>580.2</ele></trkpt>
    <trkpt lat="33.595369" lon="-111.767418"><ele>581.5</ele></trkpt>
    <trkpt lat="33.595575" lon="-111.767354"><ele>582.2</ele></trkpt>
    <trkpt lat="33.595689" lon="-111.767299"><ele>582.5</ele></trkpt>
    <trkpt lat="33.595684" lon="-111.76727"><ele>582.2</ele></trkpt>
    <trkpt lat="33.595687" lon="-111.76724"><ele>582.2</ele></trkpt>
    <trkpt lat="33.595698" lon="-111.767213"><ele>582.0</ele></trkpt>
    <trkpt lat="33.595716" lon="-111.767192"><ele>582.0</ele></trkpt>
    <trkpt lat="33.595739" lon="-111.767179"><ele>582.0</ele></trkpt>
    <trkpt lat="33.595764" lon="-111.767176"><ele>582.0</ele></trkpt>
    <trkpt lat="33.595807" lon="-111.767192"><ele>582.2</ele></trkpt>
    <trkpt lat="33.595937" lon="-111.767126"><ele>582.8</ele></trkpt>
    <trkpt lat="33.596008" lon="-111.767104"><ele>583.0</ele></trkpt>
    <trkpt lat="33.596086" lon="-111.767106"><ele>583.5</ele></trkpt>
    <trkpt lat="33.596506" lon="-111.766891"><ele>585.0</ele></trkpt>
    <trkpt lat="33.597055" lon="-111.766592"><ele>585.8</ele></trkpt>
    <trkpt lat="33.597689" lon="-111.766296"><ele>587.8</ele></trkpt>
    <trkpt lat="33.598331" lon="-111.766007"><ele>592.0</ele></trkpt>
    <trkpt lat="33.598495" lon="-111.765973"><ele>594.0</ele></trkpt>
    <trkpt lat="33.598645" lon="-111.765982"><ele>596.0</ele></trkpt>
    <trkpt lat="33.599503" lon="-111.766248"><ele>603.8</ele></trkpt>
    <trkpt lat="33.599594" lon="-111.76627"><ele>604.0</ele></trkpt>
    <trkpt lat="33.599738" lon="-111.76627"><ele>605.0</ele></trkpt>
    <trkpt lat="33.599869" lon="-111.766251"><ele>605.8</ele></trkpt>
    <trkpt lat="33.600043" lon="-111.766188"><ele>606.8</ele></trkpt>
    <trkpt lat="33.600896" lon="-111.765801"><ele>614.0</ele></trkpt>
    <trkpt lat="33.600969" lon="-111.765765"><ele>614.2</ele></trkpt>
    <trkpt lat="33.601156" lon="-111.765694"><ele>614.5</ele></trkpt>
    <trkpt lat="33.601438" lon="-111.765596"><ele>615.0</ele></trkpt>
    <trkpt lat="33.601778" lon="-111.765498"><ele>616.0</ele></trkpt>
    <trkpt lat="33.602618" lon="-111.765298"><ele>619.8</ele></trkpt>
    <trkpt lat="33.602893" lon="-111.765224"><ele>620.8</ele></trkpt>
    <trkpt lat="33.602969" lon="-111.765207"><ele>621.0</ele></trkpt>
    <trkpt lat="33.603152" lon="-111.765178"><ele>621.8</ele></trkpt>
    <trkpt lat="33.603344" lon="-111.765166"><ele>622.2</ele></trkpt>
    <trkpt lat="33.603532" lon="-111.765185"><ele>623.0</ele></trkpt>
    <trkpt lat="33.60369" lon="-111.76524"><ele>623.8</ele></trkpt>
    <trkpt lat="33.60381" lon="-111.765292"><ele>624.2</ele></trkpt>
    <trkpt lat="33.604135" lon="-111.765475"><ele>626.0</ele></trkpt>
    <trkpt lat="33.604689" lon="-111.765795"><ele>628.8</ele></trkpt>
    <trkpt lat="33.604831" lon="-111.76589"><ele>629.8</ele></trkpt>
    <trkpt lat="33.604936" lon="-111.765983"><ele>631.0</ele></trkpt>
    <trkpt lat="33.605001" lon="-111.766081"><ele>632.0</ele></trkpt>
    <trkpt lat="33.605074" lon="-111.766216"><ele>633.2</ele></trkpt>
    <trkpt lat="33.605119" lon="-111.76635"><ele>634.2</ele></trkpt>
    <trkpt lat="33.605135" lon="-111.766465"><ele>635.2</ele></trkpt>
    <trkpt lat="33.605571" lon="-111.766362"><ele>635.0</ele></trkpt>
    <trkpt lat="33.605631" lon="-111.766333"><ele>634.8</ele></trkpt>
    <trkpt lat="33.60567" lon="-111.766302"><ele>634.8</ele></trkpt>
    <trkpt lat="33.60571" lon="-111.766237"><ele>634.5</ele></trkpt>
    <trkpt lat="33.605757" lon="-111.766099"><ele>634.2</ele></trkpt>
    <trkpt lat="33.605866" lon="-111.765752"><ele>635.2</ele></trkpt>
    <trkpt lat="33.605886" lon="-111.765665"><ele>636.2</ele></trkpt>
    <trkpt lat="33.605883" lon="-111.765595"><ele>637.0</ele></trkpt>
    <trkpt lat="33.605836" lon="-111.76549"><ele>637.5</ele></trkpt>
    <trkpt lat="33.605708" lon="-111.765321"><ele>638.0</ele></trkpt>
    <trkpt lat="33.605686" lon="-111.765273"><ele>638.2</ele></trkpt>
    <trkpt lat="33.605682" lon="-111.76525"><ele>638.2</ele></trkpt>
    <trkpt lat="33.605692" lon="-111.765191"><ele>639.0</ele></trkpt>
    <trkpt lat="33.605733" lon="-111.765134"><ele>640.0</ele></trkpt>
    <trkpt lat="33.605754" lon="-111.76512"><ele>640.5</ele></trkpt>
    <trkpt lat="33.605806" lon="-111.765115"><ele>641.2</ele></trkpt>
    <trkpt lat="33.605829" lon="-111.765131"><ele>641.5</ele></trkpt>
    <trkpt lat="33.605993" lon="-111.765326"><ele>641.2</ele></trkpt>
    <trkpt lat="33.606057" lon="-111.76537"><ele>641.5</ele></trkpt>
    <trkpt lat="33.606454" lon="-111.765478"><ele>644.8</ele></trkpt>
    <trkpt lat="33.606524" lon="-111.765508"><ele>645.2</ele></trkpt>
    <trkpt lat="33.606641" lon="-111.765591"><ele>646.0</ele></trkpt>
    <trkpt lat="33.606689" lon="-111.765639"><ele>646.0</ele></trkpt>
    <trkpt lat="33.606727" lon="-111.765692"><ele>646.0</ele></trkpt>
    <trkpt lat="33.606774" lon="-111.765774"><ele>646.0</ele></trkpt>
    <trkpt lat="33.606863" lon="-111.76598"><ele>645.8</ele></trkpt>
    <trkpt lat="33.606882" lon="-111.766012"><ele>645.8</ele></trkpt>
    <trkpt lat="33.606905" lon="-111.76603"><ele>646.0</ele></trkpt>
    <trkpt lat="33.60694" lon="-111.766034"><ele>646.5</ele></trkpt>
    <trkpt lat="33.606976" lon="-111.766028"><ele>647.0</ele></trkpt>
    <trkpt lat="33.607009" lon="-111.766012"><ele>647.5</ele></trkpt>
    <trkpt lat="33.607038" lon="-111.765979"><ele>648.2</ele></trkpt>
    <trkpt lat="33.607053" lon="-111.765938"><ele>648.8</ele></trkpt>
    <trkpt lat="33.60705" lon="-111.765894"><ele>649.0</ele></trkpt>
    <trkpt lat="33.607042" lon="-111.765861"><ele>649.0</ele></trkpt>
    <trkpt lat="33.60686" lon="-111.765617"><ele>648.2</ele></trkpt>
    <trkpt lat="33.606786" lon="-111.765501"><ele>648.2</ele></trkpt>
    <trkpt lat="33.606685" lon="-111.765304"><ele>649.0</ele></trkpt>
    <trkpt lat="33.606602" lon="-111.765099"><ele>650.2</ele></trkpt>
    <trkpt lat="33.606564" lon="-111.765023"><ele>650.5</ele></trkpt>
    <trkpt lat="33.606513" lon="-111.764949"><ele>650.2</ele></trkpt>
    <trkpt lat="33.606427" lon="-111.764841"><ele>650.0</ele></trkpt>
    <trkpt lat="33.606323" lon="-111.764735"><ele>650.0</ele></trkpt>
    <trkpt lat="33.606121" lon="-111.764577"><ele>650.8</ele></trkpt>
    <trkpt lat="33.606006" lon="-111.764471"><ele>652.2</ele></trkpt>
    <trkpt lat="33.605933" lon="-111.764381"><ele>653.8</ele></trkpt>
    <trkpt lat="33.605775" lon="-111.764163"><ele>656.8</ele></trkpt>
    <trkpt lat="33.605726" lon="-111.764109"><ele>656.2</ele></trkpt>
    <trkpt lat="33.605637" lon="-111.764047"><ele>655.0</ele></trkpt>
    <trkpt lat="33.605511" lon="-111.763982"><ele>653.5</ele></trkpt>
    <trkpt lat="33.60541" lon="-111.7639"><ele>652.8</ele></trkpt>
    <trkpt lat="33.605367" lon="-111.763842"><ele>652.8</ele></trkpt>
    <trkpt lat="33.605361" lon="-111.763802"><ele>653.0</ele></trkpt>
    <trkpt lat="33.605378" lon="-111.763697"><ele>654.2</ele></trkpt>
    <trkpt lat="33.605292" lon="-111.763668"><ele>653.8</ele></trkpt>
    <trkpt lat="33.60521" lon="-111.763642"><ele>653.5</ele></trkpt>
    <trkpt lat="33.604671" lon="-111.763537"><ele>650.8</ele></trkpt>
    <trkpt lat="33.604302" lon="-111.763406"><ele>650.2</ele></trkpt>
    <trkpt lat="33.603688" lon="-111.763115"><ele>647.2</ele></trkpt>
    <trkpt lat="33.603318" lon="-111.762933"><ele>645.0</ele></trkpt>
    <trkpt lat="33.603236" lon="-111.762893"><ele>644.5</ele></trkpt>
    <trkpt lat="33.603152" lon="-111.762853"><ele>644.0</ele></trkpt>
    <trkpt lat="33.602125" lon="-111.762441"><ele>642.2</ele></trkpt>
    <trkpt lat="33.601175" lon="-111.762086"><ele>638.8</ele></trkpt>
    <trkpt lat="33.600662" lon="-111.761826"><ele>639.0</ele></trkpt>
    <trkpt lat="33.599977" lon="-111.761399"><ele>639.0</ele></trkpt>
    <trkpt lat="33.59989" lon="-111.761337"><ele>638.5</ele></trkpt>
    <trkpt lat="33.599654" lon="-111.761135"><ele>637.0</ele></trkpt>
    <trkpt lat="33.599585" lon="-111.761076"><ele>636.5</ele></trkpt>
    <trkpt lat="33.599112" lon="-111.760646"><ele>632.0</ele></trkpt>
    <trkpt lat="33.598784" lon="-111.760443"><ele>629.8</ele></trkpt>
    <trkpt lat="33.597717" lon="-111.760015"><ele>622.5</ele></trkpt>
    <trkpt lat="33.597427" lon="-111.759848"><ele>620.8</ele></trkpt>
    <trkpt lat="33.597252" lon="-111.759716"><ele>619.2</ele></trkpt>
    <trkpt lat="33.59706" lon="-111.759547"><ele>617.8</ele></trkpt>
    <trkpt lat="33.596953" lon="-111.759438"><ele>616.8</ele></trkpt>
    <trkpt lat="33.596748" lon="-111.759172"><ele>614.8</ele></trkpt>
    <trkpt lat="33.596651" lon="-111.759022"><ele>614.5</ele></trkpt>
    <trkpt lat="33.596469" lon="-111.758679"><ele>614.2</ele></trkpt>
    <trkpt lat="33.596294" lon="-111.758214"><ele>614.0</ele></trkpt>
    <trkpt lat="33.596007" lon="-111.7575"><ele>615.2</ele></trkpt>
    <trkpt lat="33.595856" lon="-111.757136"><ele>614.0</ele></trkpt>
    <trkpt lat="33.595867" lon="-111.757015"><ele>614.0</ele></trkpt>
    <trkpt lat="33.59582" lon="-111.756883"><ele>613.8</ele></trkpt>
    <trkpt lat="33.595676" lon="-111.756501"><ele>613.0</ele></trkpt>
    <trkpt lat="33.595656" lon="-111.756448"><ele>612.8</ele></trkpt>
    <trkpt lat="33.594176" lon="-111.752534"><ele>601.8</ele></trkpt>
    <trkpt lat="33.594011" lon="-111.752098"><ele>599.2</ele></trkpt>
    <trkpt lat="33.593908" lon="-111.75187"><ele>598.0</ele></trkpt>
    <trkpt lat="33.593745" lon="-111.751605"><ele>596.5</ele></trkpt>
    <trkpt lat="33.593618" lon="-111.751452"><ele>595.5</ele></trkpt>
    <trkpt lat="33.593088" lon="-111.751047"><ele>593.8</ele></trkpt>
    <trkpt lat="33.592501" lon="-111.750591"><ele>592.5</ele></trkpt>
    <trkpt lat="33.592391" lon="-111.750516"><ele>591.5</ele></trkpt>
    <trkpt lat="33.592185" lon="-111.750316"><ele>590.2</ele></trkpt>
    <trkpt lat="33.591969" lon="-111.750062"><ele>589.5</ele></trkpt>
    <trkpt lat="33.591871" lon="-111.749914"><ele>589.2</ele></trkpt>
    <trkpt lat="33.59179" lon="-111.749734"><ele>588.8</ele></trkpt>
    <trkpt lat="33.591676" lon="-111.749395"><ele>588.2</ele></trkpt>
    <trkpt lat="33.591607" lon="-111.749022"><ele>586.8</ele></trkpt>
    <trkpt lat="33.591384" lon="-111.747718"><ele>582.5</ele></trkpt>
    <trkpt lat="33.591359" lon="-111.74753"><ele>582.5</ele></trkpt>
    <trkpt lat="33.591348" lon="-111.747337"><ele>582.2</ele></trkpt>
    <trkpt lat="33.591352" lon="-111.747007"><ele>582.0</ele></trkpt>
    <trkpt lat="33.59144" lon="-111.745729"><ele>576.5</ele></trkpt>
    <trkpt lat="33.591478" lon="-111.745057"><ele>572.2</ele></trkpt>
    <trkpt lat="33.591478" lon="-111.74484"><ele>571.0</ele></trkpt>
    <trkpt lat="33.591462" lon="-111.744679"><ele>570.0</ele></trkpt>
    <trkpt lat="33.591388" lon="-111.744355"><ele>568.8</ele></trkpt>
    <trkpt lat="33.590741" lon="-111.742266"><ele>568.8</ele></trkpt>
    <trkpt lat="33.59063" lon="-111.741937"><ele>566.5</ele></trkpt>
    <trkpt lat="33.590554" lon="-111.741762"><ele>565.5</ele></trkpt>
    <trkpt lat="33.590442" lon="-111.741565"><ele>565.2</ele></trkpt>
    <trkpt lat="33.590297" lon="-111.741328"><ele>564.8</ele></trkpt>
    <trkpt lat="33.590074" lon="-111.741042"><ele>564.8</ele></trkpt>
    <trkpt lat="33.589774" lon="-111.740744"><ele>563.5</ele></trkpt>
    <trkpt lat="33.58823" lon="-111.739165"><ele>558.5</ele></trkpt>
    <trkpt lat="33.588025" lon="-111.738945"><ele>558.8</ele></trkpt>
    <trkpt lat="33.587896" lon="-111.738711"><ele>558.5</ele></trkpt>
    <trkpt lat="33.587817" lon="-111.738515"><ele>558.2</ele></trkpt>
    <trkpt lat="33.587612" lon="-111.737738"><ele>555.0</ele></trkpt>
    <trkpt lat="33.587469" lon="-111.737469"><ele>554.8</ele></trkpt>
    <trkpt lat="33.587348" lon="-111.737295"><ele>554.5</ele></trkpt>
    <trkpt lat="33.587245" lon="-111.737197"><ele>554.0</ele></trkpt>
    <trkpt lat="33.587044" lon="-111.737072"><ele>553.2</ele></trkpt>
    <trkpt lat="33.586877" lon="-111.736989"><ele>552.5</ele></trkpt>
    <trkpt lat="33.587076" lon="-111.736447"><ele>550.2</ele></trkpt>
    <trkpt lat="33.58735" lon="-111.735698"><ele>549.5</ele></trkpt>
    <trkpt lat="33.587459" lon="-111.735436"><ele>550.2</ele></trkpt>
    <trkpt lat="33.587539" lon="-111.735276"><ele>550.0</ele></trkpt>
    <trkpt lat="33.587774" lon="-111.734891"><ele>548.2</ele></trkpt>
    <trkpt lat="33.587674" lon="-111.734809"><ele>548.5</ele></trkpt>
    <trkpt lat="33.587396" lon="-111.734536"><ele>548.8</ele></trkpt>
    <trkpt lat="33.587295" lon="-111.734432"><ele>548.2</ele></trkpt>
    <trkpt lat="33.586908" lon="-111.734045"><ele>547.5</ele></trkpt>
    <trkpt lat="33.586662" lon="-111.733802"><ele>547.5</ele></trkpt>
    <trkpt lat="33.58659" lon="-111.733715"><ele>546.8</ele></trkpt>
    <trkpt lat="33.586515" lon="-111.733619"><ele>546.2</ele></trkpt>
    <trkpt lat="33.586455" lon="-111.733528"><ele>545.8</ele></trkpt>
    <trkpt lat="33.586304" lon="-111.733241"><ele>544.5</ele></trkpt>
    <trkpt lat="33.586244" lon="-111.733082"><ele>543.8</ele></trkpt>
    <trkpt lat="33.58618" lon="-111.732855"><ele>543.0</ele></trkpt>
    <trkpt lat="33.586148" lon="-111.732685"><ele>542.5</ele></trkpt>
    <trkpt lat="33.586127" lon="-111.732474"><ele>542.2</ele></trkpt>
    <trkpt lat="33.586123" lon="-111.732274"><ele>541.8</ele></trkpt>
    <trkpt lat="33.586142" lon="-111.732001"><ele>541.0</ele></trkpt>
    <trkpt lat="33.58615" lon="-111.731896"><ele>540.8</ele></trkpt>
    <trkpt lat="33.586028" lon="-111.731882"><ele>540.8</ele></trkpt>
    <trkpt lat="33.585741" lon="-111.731828"><ele>539.0</ele></trkpt>
    <trkpt lat="33.585619" lon="-111.731794"><ele>537.2</ele></trkpt>
    <trkpt lat="33.585507" lon="-111.731743"><ele>535.8</ele></trkpt>
    <trkpt lat="33.585375" lon="-111.731653"><ele>533.8</ele></trkpt>
    <trkpt lat="33.585248" lon="-111.731532"><ele>531.8</ele></trkpt>
    <trkpt lat="33.585096" lon="-111.731335"><ele>529.5</ele></trkpt>
    <trkpt lat="33.584426" lon="-111.730259"><ele>525.5</ele></trkpt>
    <trkpt lat="33.584321" lon="-111.730061"><ele>526.2</ele></trkpt>
    <trkpt lat="33.584231" lon="-111.729865"><ele>526.2</ele></trkpt>
    <trkpt lat="33.58416" lon="-111.729684"><ele>525.8</ele></trkpt>
    <trkpt lat="33.584097" lon="-111.729458"><ele>524.2</ele></trkpt>
    <trkpt lat="33.584022" lon="-111.729097"><ele>521.8</ele></trkpt>
    <trkpt lat="33.583939" lon="-111.728703"><ele>516.2</ele></trkpt>
    <trkpt lat="33.583905" lon="-111.728583"><ele>514.8</ele></trkpt>
    <trkpt lat="33.583874" lon="-111.728504"><ele>513.8</ele></trkpt>
    <trkpt lat="33.583815" lon="-111.728389"><ele>512.2</ele></trkpt>
    <trkpt lat="33.583735" lon="-111.728294"><ele>511.2</ele></trkpt>
    <trkpt lat="33.583663" lon="-111.728228"><ele>510.5</ele></trkpt>
    <trkpt lat="33.583509" lon="-111.728135"><ele>509.2</ele></trkpt>
    <trkpt lat="33.583227" lon="-111.72804"><ele>508.5</ele></trkpt>
    <trkpt lat="33.58311" lon="-111.728"><ele>508.5</ele></trkpt>
    <trkpt lat="33.583047" lon="-111.727968"><ele>508.8</ele></trkpt>
    <trkpt lat="33.582991" lon="-111.72792"><ele>509.0</ele></trkpt>
    <trkpt lat="33.582941" lon="-111.727866"><ele>509.2</ele></trkpt>
    <trkpt lat="33.582868" lon="-111.727766"><ele>509.8</ele></trkpt>
    <trkpt lat="33.582315" lon="-111.726563"><ele>515.2</ele></trkpt>
    <trkpt lat="33.582266" lon="-111.726486"><ele>515.8</ele></trkpt>
    <trkpt lat="33.58219" lon="-111.72641"><ele>516.5</ele></trkpt>
    <trkpt lat="33.582104" lon="-111.726359"><ele>517.8</ele></trkpt>
    <trkpt lat="33.582037" lon="-111.726339"><ele>518.8</ele></trkpt>
    <trkpt lat="33.581948" lon="-111.726331"><ele>520.2</ele></trkpt>
    <trkpt lat="33.581886" lon="-111.726338"><ele>521.2</ele></trkpt>
    <trkpt lat="33.581795" lon="-111.726373"><ele>523.0</ele></trkpt>
    <trkpt lat="33.581688" lon="-111.726438"><ele>525.2</ele></trkpt>
    <trkpt lat="33.581641" lon="-111.726477"><ele>525.8</ele></trkpt>
    <trkpt lat="33.581481" lon="-111.726196"><ele>523.2</ele></trkpt>
    <trkpt lat="33.581425" lon="-111.726051"><ele>522.0</ele></trkpt>
    <trkpt lat="33.581389" lon="-111.725874"><ele>520.5</ele></trkpt>
    <trkpt lat="33.581402" lon="-111.725702"><ele>519.8</ele></trkpt>
    <trkpt lat="33.581496" lon="-111.725319"><ele>518.8</ele></trkpt>
    <trkpt lat="33.581536" lon="-111.725126"><ele>518.5</ele></trkpt>
    <trkpt lat="33.581543" lon="-111.724892"><ele>517.5</ele></trkpt>
    <trkpt lat="33.581349" lon="-111.723049"><ele>512.8</ele></trkpt>
    <trkpt lat="33.581322" lon="-111.722901"><ele>513.2</ele></trkpt>
    <trkpt lat="33.581294" lon="-111.722807"><ele>513.8</ele></trkpt>
    <trkpt lat="33.581262" lon="-111.72273"><ele>514.0</ele></trkpt>
    <trkpt lat="33.581219" lon="-111.722655"><ele>514.5</ele></trkpt>
    <trkpt lat="33.581177" lon="-111.722596"><ele>514.8</ele></trkpt>
    <trkpt lat="33.580978" lon="-111.722326"><ele>516.2</ele></trkpt>
    <trkpt lat="33.580947" lon="-111.722265"><ele>516.5</ele></trkpt>
    <trkpt lat="33.580906" lon="-111.722192"><ele>516.8</ele></trkpt>
    <trkpt lat="33.580864" lon="-111.722085"><ele>517.2</ele></trkpt>
    <trkpt lat="33.580844" lon="-111.72197"><ele>517.5</ele></trkpt>
    <trkpt lat="33.580843" lon="-111.721846"><ele>517.5</ele></trkpt>
    <trkpt lat="33.580851" lon="-111.721756"><ele>517.5</ele></trkpt>
    <trkpt lat="33.580883" lon="-111.721636"><ele>517.2</ele></trkpt>
    <trkpt lat="33.580914" lon="-111.72155"><ele>516.5</ele></trkpt>
    <trkpt lat="33.58045" lon="-111.721204"><ele>514.0</ele></trkpt>
    <trkpt lat="33.580366" lon="-111.721122"><ele>514.0</ele></trkpt>
    <trkpt lat="33.580243" lon="-111.720976"><ele>514.0</ele></trkpt>
    <trkpt lat="33.579302" lon="-111.719752"><ele>508.0</ele></trkpt>
    <trkpt lat="33.579239" lon="-111.719627"><ele>507.8</ele></trkpt>
    <trkpt lat="33.579191" lon="-111.719515"><ele>507.8</ele></trkpt>
    <trkpt lat="33.579154" lon="-111.719387"><ele>507.8</ele></trkpt>
    <trkpt lat="33.57899" lon="-111.718731"><ele>506.5</ele></trkpt>
    <trkpt lat="33.578724" lon="-111.717699"><ele>503.5</ele></trkpt>
    <trkpt lat="33.578574" lon="-111.717728"><ele>503.8</ele></trkpt>
    <trkpt lat="33.578504" lon="-111.717727"><ele>503.8</ele></trkpt>
    <trkpt lat="33.578408" lon="-111.71771"><ele>503.8</ele></trkpt>
    <trkpt lat="33.578304" lon="-111.71767"><ele>503.8</ele></trkpt>
    <trkpt lat="33.578099" lon="-111.717562"><ele>502.8</ele></trkpt>
    <trkpt lat="33.577542" lon="-111.717243"><ele>500.0</ele></trkpt>
    <trkpt lat="33.577436" lon="-111.717172"><ele>499.5</ele></trkpt>
    <trkpt lat="33.577351" lon="-111.717101"><ele>499.0</ele></trkpt>
    <trkpt lat="33.577263" lon="-111.716997"><ele>498.5</ele></trkpt>
    <trkpt lat="33.577196" lon="-111.716899"><ele>498.2</ele></trkpt>
    <trkpt lat="33.577123" lon="-111.716761"><ele>498.0</ele></trkpt>
    <trkpt lat="33.57704" lon="-111.716527"><ele>497.0</ele></trkpt>
    <trkpt lat="33.576563" lon="-111.715068"><ele>491.8</ele></trkpt>
    <trkpt lat="33.576544" lon="-111.715014"><ele>491.2</ele></trkpt>
    <trkpt lat="33.57639" lon="-111.714525"><ele>489.5</ele></trkpt>
    <trkpt lat="33.576129" lon="-111.713729"><ele>486.2</ele></trkpt>
    <trkpt lat="33.576039" lon="-111.713456"><ele>485.0</ele></trkpt>
    <trkpt lat="33.575796" lon="-111.712668"><ele>479.0</ele></trkpt>
    <trkpt lat="33.575669" lon="-111.712428"><ele>477.5</ele></trkpt>
    <trkpt lat="33.575387" lon="-111.712052"><ele>476.0</ele></trkpt>
    <trkpt lat="33.575339" lon="-111.711985"><ele>476.0</ele></trkpt>
    <trkpt lat="33.575295" lon="-111.711933"><ele>475.8</ele></trkpt>
    <trkpt lat="33.575188" lon="-111.711806"><ele>475.8</ele></trkpt>
    <trkpt lat="33.57512" lon="-111.711725"><ele>475.8</ele></trkpt>
    <trkpt lat="33.575039" lon="-111.711618"><ele>475.5</ele></trkpt>
    <trkpt lat="33.574864" lon="-111.711466"><ele>475.5</ele></trkpt>
    <trkpt lat="33.57479" lon="-111.711415"><ele>475.5</ele></trkpt>
    <trkpt lat="33.574142" lon="-111.711148"><ele>476.8</ele></trkpt>
    <trkpt lat="33.573438" lon="-111.710849"><ele>476.0</ele></trkpt>
    <trkpt lat="33.573231" lon="-111.710806"><ele>475.8</ele></trkpt>
    <trkpt lat="33.573001" lon="-111.71078"><ele>475.0</ele></trkpt>
    <trkpt lat="33.572669" lon="-111.710764"><ele>474.2</ele></trkpt>
    <trkpt lat="33.572355" lon="-111.710868"><ele>473.8</ele></trkpt>
    <trkpt lat="33.572202" lon="-111.710966"><ele>473.8</ele></trkpt>
    <trkpt lat="33.572049" lon="-111.711114"><ele>474.0</ele></trkpt>
    <trkpt lat="33.571893" lon="-111.711327"><ele>474.2</ele></trkpt>
    <trkpt lat="33.571786" lon="-111.711468"><ele>474.5</ele></trkpt>
    <trkpt lat="33.571378" lon="-111.712065"><ele>473.8</ele></trkpt>
    <trkpt lat="33.571276" lon="-111.712214"><ele>473.8</ele></trkpt>
    <trkpt lat="33.570763" lon="-111.711728"><ele>472.0</ele></trkpt>
    <trkpt lat="33.570258" lon="-111.711288"><ele>472.0</ele></trkpt>
    <trkpt lat="33.570081" lon="-111.711138"><ele>472.0</ele></trkpt>
    <trkpt lat="33.56965" lon="-111.710794"><ele>471.2</ele></trkpt>
    <trkpt lat="33.569476" lon="-111.710664"><ele>471.0</ele></trkpt>
    <trkpt lat="33.569224" lon="-111.71048"><ele>470.5</ele></trkpt>
    <trkpt lat="33.569183" lon="-111.710451"><ele>470.5</ele></trkpt>
    <trkpt lat="33.568563" lon="-111.709997"><ele>471.2</ele></trkpt>
    <trkpt lat="33.568163" lon="-111.709727"><ele>471.2</ele></trkpt>
    <trkpt lat="33.56793" lon="-111.709557"><ele>470.5</ele></trkpt>
    <trkpt lat="33.567794" lon="-111.709464"><ele>470.2</ele></trkpt>
    <trkpt lat="33.567679" lon="-111.709356"><ele>469.8</ele></trkpt>
    <trkpt lat="33.567641" lon="-111.709318"><ele>469.5</ele></trkpt>
    <trkpt lat="33.567274" lon="-111.709068"><ele>468.5</ele></trkpt>
    <trkpt lat="33.566883" lon="-111.708774"><ele>468.5</ele></trkpt>
    <trkpt lat="33.566504" lon="-111.708513"><ele>469.2</ele></trkpt>
    <trkpt lat="33.566481" lon="-111.708498"><ele>469.2</ele></trkpt>
    <trkpt lat="33.566323" lon="-111.708403"><ele>469.8</ele></trkpt>
    <trkpt lat="33.566166" lon="-111.708223"><ele>470.0</ele></trkpt>
    <trkpt lat="33.566723" lon="-111.706793"><ele>465.0</ele></trkpt>
    <trkpt lat="33.566987" lon="-111.706119"><ele>464.2</ele></trkpt>
    <trkpt lat="33.567128" lon="-111.705775"><ele>463.0</ele></trkpt>
    <trkpt lat="33.567285" lon="-111.705418"><ele>462.0</ele></trkpt>
    <trkpt lat="33.567552" lon="-111.704861"><ele>461.2</ele></trkpt>
    <trkpt lat="33.567807" lon="-111.704347"><ele>462.0</ele></trkpt>
    <trkpt lat="33.567534" lon="-111.704141"><ele>462.8</ele></trkpt>
    <trkpt lat="33.567465" lon="-111.703981"><ele>462.8</ele></trkpt>
    <trkpt lat="33.56741" lon="-111.703775"><ele>462.8</ele></trkpt>
    <trkpt lat="33.567336" lon="-111.703342"><ele>462.2</ele></trkpt>
    <trkpt lat="33.567261" lon="-111.702995"><ele>463.0</ele></trkpt>
    <trkpt lat="33.567076" lon="-111.702338"><ele>465.0</ele></trkpt>
    <trkpt lat="33.566938" lon="-111.701958"><ele>466.5</ele></trkpt>
    <trkpt lat="33.566757" lon="-111.701572"><ele>467.5</ele></trkpt>
    <trkpt lat="33.566563" lon="-111.701245"><ele>467.8</ele></trkpt>
    <trkpt lat="33.566422" lon="-111.701007"><ele>468.0</ele></trkpt>
    <trkpt lat="33.566093" lon="-111.700784"><ele>468.8</ele></trkpt>
    <trkpt lat="33.565956" lon="-111.700717"><ele>469.0</ele></trkpt>
    <trkpt lat="33.565774" lon="-111.700627"><ele>469.0</ele></trkpt>
    <trkpt lat="33.56575" lon="-111.700262"><ele>467.8</ele></trkpt>
    <trkpt lat="33.565777" lon="-111.699827"><ele>467.0</ele></trkpt>
    <trkpt lat="33.565802" lon="-111.699693"><ele>467.2</ele></trkpt>
    <trkpt lat="33.565914" lon="-111.699107"><ele>468.0</ele></trkpt>
    <trkpt lat="33.565968" lon="-111.698783"><ele>466.8</ele></trkpt>
    <trkpt lat="33.565974" lon="-111.698325"><ele>465.2</ele></trkpt>
    <trkpt lat="33.565992" lon="-111.697902"><ele>465.0</ele></trkpt>
    <trkpt lat="33.56605" lon="-111.697387"><ele>465.0</ele></trkpt>
    <trkpt lat="33.566202" lon="-111.696764"><ele>464.8</ele></trkpt>
    <trkpt lat="33.566537" lon="-111.695488"><ele>465.8</ele></trkpt>
    <trkpt lat="33.56634" lon="-111.695305"><ele>466.8</ele></trkpt>
    <trkpt lat="33.566233" lon="-111.695048"><ele>467.0</ele></trkpt>
    <trkpt lat="33.566242" lon="-111.694683"><ele>466.8</ele></trkpt>
    <trkpt lat="33.566322" lon="-111.694297"><ele>466.2</ele></trkpt>
    <trkpt lat="33.566385" lon="-111.693728"><ele>465.2</ele></trkpt>
    <trkpt lat="33.566465" lon="-111.693235"><ele>464.2</ele></trkpt>
    <trkpt lat="33.566604" lon="-111.692736"><ele>463.2</ele></trkpt>
    <trkpt lat="33.566729" lon="-111.692226"><ele>461.2</ele></trkpt>
    <trkpt lat="33.566904" lon="-111.691663"><ele>458.8</ele></trkpt>
    <trkpt lat="33.567149" lon="-111.691116"><ele>456.8</ele></trkpt>
    <trkpt lat="33.56731" lon="-111.690552"><ele>455.0</ele></trkpt>
    <trkpt lat="33.567641" lon="-111.689796"><ele>453.2</ele></trkpt>
    <trkpt lat="33.567757" lon="-111.689469"><ele>453.0</ele></trkpt>
    <trkpt lat="33.567815" lon="-111.689082"><ele>452.8</ele></trkpt>
    <trkpt lat="33.567793" lon="-111.6886"><ele>451.8</ele></trkpt>
    <trkpt lat="33.567561" lon="-111.686443"><ele>447.2</ele></trkpt>
    <trkpt lat="33.567543" lon="-111.686164"><ele>447.0</ele></trkpt>
    <trkpt lat="33.567587" lon="-111.685858"><ele>447.0</ele></trkpt>
    <trkpt lat="33.567735" lon="-111.685504"><ele>446.0</ele></trkpt>
    <trkpt lat="33.567833" lon="-111.685193"><ele>444.5</ele></trkpt>
    <trkpt lat="33.56786" lon="-111.684769"><ele>442.8</ele></trkpt>
    <trkpt lat="33.567851" lon="-111.683949"><ele>440.2</ele></trkpt>
    <trkpt lat="33.567856" lon="-111.683638"><ele>440.0</ele></trkpt>
    <trkpt lat="33.5679" lon="-111.683176"><ele>439.5</ele></trkpt>
    <trkpt lat="33.568222" lon="-111.681116"><ele>434.5</ele></trkpt>
    <trkpt lat="33.568736" lon="-111.677426"><ele>426.2</ele></trkpt>
    <trkpt lat="33.568812" lon="-111.67698"><ele>424.8</ele></trkpt>
    <trkpt lat="33.568897" lon="-111.676734"><ele>424.0</ele></trkpt>
    <trkpt lat="33.569031" lon="-111.676546"><ele>423.5</ele></trkpt>
    <trkpt lat="33.569939" lon="-111.675859"><ele>422.8</ele></trkpt>
    <trkpt lat="33.570064" lon="-111.675693"><ele>422.5</ele></trkpt>
    <trkpt lat="33.570113" lon="-111.675511"><ele>422.2</ele></trkpt>
    <trkpt lat="33.570126" lon="-111.67536"><ele>422.0</ele></trkpt>
    <trkpt lat="33.57009" lon="-111.675221"><ele>421.8</ele></trkpt>
    <trkpt lat="33.569934" lon="-111.674883"><ele>421.8</ele></trkpt>
    <trkpt lat="33.569903" lon="-111.674641"><ele>421.2</ele></trkpt>
    <trkpt lat="33.569889" lon="-111.674405"><ele>420.8</ele></trkpt>
    <trkpt lat="33.569912" lon="-111.674224"><ele>420.2</ele></trkpt>
    <trkpt lat="33.569992" lon="-111.67389"><ele>419.5</ele></trkpt>
    <trkpt lat="33.569256" lon="-111.673641"><ele>420.8</ele></trkpt>
    <trkpt lat="33.568765" lon="-111.673482"><ele>420.5</ele></trkpt>
    <trkpt lat="33.56761" lon="-111.673283"><ele>418.8</ele></trkpt>
    <trkpt lat="33.566237" lon="-111.673027"><ele>416.0</ele></trkpt>
    <trkpt lat="33.565893" lon="-111.673022"><ele>415.2</ele></trkpt>
    <trkpt lat="33.565583" lon="-111.673085"><ele>415.2</ele></trkpt>
    <trkpt lat="33.565261" lon="-111.673183"><ele>415.5</ele></trkpt>
    <trkpt lat="33.564823" lon="-111.673377"><ele>415.8</ele></trkpt>
    <trkpt lat="33.564561" lon="-111.673448"><ele>416.0</ele></trkpt>
    <trkpt lat="33.564296" lon="-111.673477"><ele>415.8</ele></trkpt>
    <trkpt lat="33.563941" lon="-111.673479"><ele>415.8</ele></trkpt>
    <trkpt lat="33.563725" lon="-111.673439"><ele>415.5</ele></trkpt>
    <trkpt lat="33.563462" lon="-111.673333"><ele>414.0</ele></trkpt>
    <trkpt lat="33.563022" lon="-111.673131"><ele>416.8</ele></trkpt>
    <trkpt lat="33.562668" lon="-111.672936"><ele>418.2</ele></trkpt>
    <trkpt lat="33.562371" lon="-111.672739"><ele>418.2</ele></trkpt>
    <trkpt lat="33.562042" lon="-111.672495"><ele>416.5</ele></trkpt>
    <trkpt lat="33.56112" lon="-111.671988"><ele>421.5</ele></trkpt>
    <trkpt lat="33.56082" lon="-111.671806"><ele>421.2</ele></trkpt>
    <trkpt lat="33.560567" lon="-111.671577"><ele>422.5</ele></trkpt>
    <trkpt lat="33.5603" lon="-111.671305"><ele>423.5</ele></trkpt>
    <trkpt lat="33.56008" lon="-111.671033"><ele>422.0</ele></trkpt>
    <trkpt lat="33.559769" lon="-111.670407"><ele>417.5</ele></trkpt>
    <trkpt lat="33.559586" lon="-111.670139"><ele>416.2</ele></trkpt>
    <trkpt lat="33.559335" lon="-111.66989"><ele>416.0</ele></trkpt>
    <trkpt lat="33.559069" lon="-111.669649"><ele>416.2</ele></trkpt>
    <trkpt lat="33.558918" lon="-111.669503"><ele>416.2</ele></trkpt>
    <trkpt lat="33.558848" lon="-111.669419"><ele>415.8</ele></trkpt>
    <trkpt lat="33.55862" lon="-111.669106"><ele>413.0</ele></trkpt>
    <trkpt lat="33.558445" lon="-111.668947"><ele>413.2</ele></trkpt>
    <trkpt lat="33.558286" lon="-111.668842"><ele>413.5</ele></trkpt>
    <trkpt lat="33.558157" lon="-111.66879"><ele>414.0</ele></trkpt>
    <trkpt lat="33.557673" lon="-111.668627"><ele>416.2</ele></trkpt>
    <trkpt lat="33.557573" lon="-111.668565"><ele>416.2</ele></trkpt>
    <trkpt lat="33.557457" lon="-111.668474"><ele>415.5</ele></trkpt>
    <trkpt lat="33.556948" lon="-111.667981"><ele>413.8</ele></trkpt>
    <trkpt lat="33.556513" lon="-111.66773"><ele>413.2</ele></trkpt>
    <trkpt lat="33.556315" lon="-111.667668"><ele>413.2</ele></trkpt>
    <trkpt lat="33.556001" lon="-111.667543"><ele>412.8</ele></trkpt>
    <trkpt lat="33.554724" lon="-111.667003"><ele>412.2</ele></trkpt>
    <trkpt lat="33.553873" lon="-111.666691"><ele>410.8</ele></trkpt>
    <trkpt lat="33.553499" lon="-111.666547"><ele>410.8</ele></trkpt>
    <trkpt lat="33.552952" lon="-111.666297"><ele>409.8</ele></trkpt>
    <trkpt lat="33.552227" lon="-111.665915"><ele>408.2</ele></trkpt>
    <trkpt lat="33.551338" lon="-111.665428"><ele>408.5</ele></trkpt>
    <trkpt lat="33.551112" lon="-111.665319"><ele>409.2</ele></trkpt>
    <trkpt lat="33.550977" lon="-111.665304"><ele>409.8</ele></trkpt>
    <trkpt lat="33.550873" lon="-111.66532"><ele>410.0</ele></trkpt>
    <trkpt lat="33.550749" lon="-111.665384"><ele>410.5</ele></trkpt>
    <trkpt lat="33.550675" lon="-111.665471"><ele>411.0</ele></trkpt>
    <trkpt lat="33.550461" lon="-111.66582"><ele>413.0</ele></trkpt>
    <trkpt lat="33.550222" lon="-111.666134"><ele>415.0</ele></trkpt>
    <trkpt lat="33.550124" lon="-111.666254"><ele>415.8</ele></trkpt>
    <trkpt lat="33.550017" lon="-111.666345"><ele>416.5</ele></trkpt>
    <trkpt lat="33.549869" lon="-111.666406"><ele>416.5</ele></trkpt>
    <trkpt lat="33.549701" lon="-111.666391"><ele>416.8</ele></trkpt>
    <trkpt lat="33.549496" lon="-111.666358"><ele>416.8</ele></trkpt>
    <trkpt lat="33.549233" lon="-111.666337"><ele>416.8</ele></trkpt>
    <trkpt lat="33.548898" lon="-111.666323"><ele>416.5</ele></trkpt>
    <trkpt lat="33.548604" lon="-111.666333"><ele>416.0</ele></trkpt>
    <trkpt lat="33.548306" lon="-111.666383"><ele>415.2</ele></trkpt>
    <trkpt lat="33.54804" lon="-111.666456"><ele>413.5</ele></trkpt>
    <trkpt lat="33.547817" lon="-111.66657"><ele>412.0</ele></trkpt>
    <trkpt lat="33.547601" lon="-111.666711"><ele>410.8</ele></trkpt>
    <trkpt lat="33.547435" lon="-111.666843"><ele>409.8</ele></trkpt>
    <trkpt lat="33.547271" lon="-111.666995"><ele>409.2</ele></trkpt>
    <trkpt lat="33.54706" lon="-111.667227"><ele>407.8</ele></trkpt>
    <trkpt lat="33.546918" lon="-111.667401"><ele>406.2</ele></trkpt>
    <trkpt lat="33.546822" lon="-111.667548"><ele>405.5</ele></trkpt>
    <trkpt lat="33.54669" lon="-111.667771"><ele>405.2</ele></trkpt>
    <trkpt lat="33.546566" lon="-111.667916"><ele>405.8</ele></trkpt>
    <trkpt lat="33.546042" lon="-111.668415"><ele>406.8</ele></trkpt>
    <trkpt lat="33.54532" lon="-111.669159"><ele>406.5</ele></trkpt>
    <trkpt lat="33.544936" lon="-111.669471"><ele>407.8</ele></trkpt>
    <trkpt lat="33.544623" lon="-111.669825"><ele>409.0</ele></trkpt>
    <trkpt lat="33.543577" lon="-111.67123"><ele>409.2</ele></trkpt>
    <trkpt lat="33.54329" lon="-111.671595"><ele>407.5</ele></trkpt>
    <trkpt lat="33.542995" lon="-111.671842"><ele>407.2</ele></trkpt>
    <trkpt lat="33.540438" lon="-111.673387"><ele>406.5</ele></trkpt>
    <trkpt lat="33.539897" lon="-111.673639"><ele>406.5</ele></trkpt>
    <trkpt lat="33.53937" lon="-111.6738"><ele>407.0</ele></trkpt>
    <trkpt lat="33.537657" lon="-111.67403"><ele>406.8</ele></trkpt>
    <trkpt lat="33.536342" lon="-111.674181"><ele>406.2</ele></trkpt>
    <trkpt lat="33.535922" lon="-111.674299"><ele>407.0</ele></trkpt>
    <trkpt lat="33.535759" lon="-111.674375"><ele>407.2</ele></trkpt>
    <trkpt lat="33.535497" lon="-111.674497"><ele>407.2</ele></trkpt>
    <trkpt lat="33.535176" lon="-111.674712"><ele>407.2</ele></trkpt>
    <trkpt lat="33.534813" lon="-111.675017"><ele>407.5</ele></trkpt>
    <trkpt lat="33.532771" lon="-111.677277"><ele>412.2</ele></trkpt>
    <trkpt lat="33.53052" lon="-111.67977"><ele>410.8</ele></trkpt>
    <trkpt lat="33.527067" lon="-111.683577"><ele>406.2</ele></trkpt>
    <trkpt lat="33.526433" lon="-111.684276"><ele>407.2</ele></trkpt>
    <trkpt lat="33.524635" lon="-111.686422"><ele>404.8</ele></trkpt>
    <trkpt lat="33.522465" lon="-111.689075"><ele>404.0</ele></trkpt>
    <trkpt lat="33.519926" lon="-111.692178"><ele>401.8</ele></trkpt>
    <trkpt lat="33.519707" lon="-111.69243"><ele>403.8</ele></trkpt>
    <trkpt lat="33.519573" lon="-111.692516"><ele>405.2</ele></trkpt>
    <trkpt lat="33.518955" lon="-111.692484"><ele>407.8</ele></trkpt>
    <trkpt lat="33.518289" lon="-111.69235"><ele>406.2</ele></trkpt>
    <trkpt lat="33.518111" lon="-111.692425"><ele>405.0</ele></trkpt>
    <trkpt lat="33.517801" lon="-111.692656"><ele>404.2</ele></trkpt>
    <trkpt lat="33.517685" lon="-111.692827"><ele>404.8</ele></trkpt>
    <trkpt lat="33.517569" lon="-111.693128"><ele>406.2</ele></trkpt>
    <trkpt lat="33.517426" lon="-111.693707"><ele>410.2</ele></trkpt>
    <trkpt lat="33.51688" lon="-111.695434"><ele>408.5</ele></trkpt>
    <trkpt lat="33.516719" lon="-111.695917"><ele>407.5</ele></trkpt>
    <trkpt lat="33.516549" lon="-111.696539"><ele>407.0</ele></trkpt>
    <trkpt lat="33.516317" lon="-111.697913"><ele>407.8</ele></trkpt>
    <trkpt lat="33.516174" lon="-111.698406"><ele>406.2</ele></trkpt>
    <trkpt lat="33.515955" lon="-111.69898"><ele>405.0</ele></trkpt>
    <trkpt lat="33.51518" lon="-111.700191"><ele>400.0</ele></trkpt>
    <trkpt lat="33.514894" lon="-111.699962"><ele>397.0</ele></trkpt>
    <trkpt lat="33.515547" lon="-111.698674"><ele>399.2</ele></trkpt>
    <trkpt lat="33.515735" lon="-111.698363"><ele>399.2</ele></trkpt>
    <trkpt lat="33.515807" lon="-111.698106"><ele>399.0</ele></trkpt>
    <trkpt lat="33.515798" lon="-111.697859"><ele>398.5</ele></trkpt>
    <trkpt lat="33.515735" lon="-111.697516"><ele>397.0</ele></trkpt>
    <trkpt lat="33.515637" lon="-111.697248"><ele>395.0</ele></trkpt>
    <trkpt lat="33.515538" lon="-111.697054"><ele>393.5</ele></trkpt>
    <trkpt lat="33.515458" lon="-111.696936"><ele>392.5</ele></trkpt>
    <trkpt lat="33.515296" lon="-111.696812"><ele>391.0</ele></trkpt>
    <trkpt lat="33.51519" lon="-111.696733"><ele>390.2</ele></trkpt>
    <trkpt lat="33.512831" lon="-111.695392"><ele>396.5</ele></trkpt>
    <trkpt lat="33.512783" lon="-111.695364"><ele>396.8</ele></trkpt>
    <trkpt lat="33.512512" lon="-111.69519"><ele>397.5</ele></trkpt>
    <trkpt lat="33.512265" lon="-111.695005"><ele>398.8</ele></trkpt>
    <trkpt lat="33.51213" lon="-111.694823"><ele>399.8</ele></trkpt>
    <trkpt lat="33.51205" lon="-111.694458"><ele>400.8</ele></trkpt>
    <trkpt lat="33.512041" lon="-111.694104"><ele>401.5</ele></trkpt>
    <trkpt lat="33.512091" lon="-111.693702"><ele>402.0</ele></trkpt>
    <trkpt lat="33.512506" lon="-111.691947"><ele>402.2</ele></trkpt>
    <trkpt lat="33.512565" lon="-111.691427"><ele>403.0</ele></trkpt>
    <trkpt lat="33.51273" lon="-111.689619"><ele>404.2</ele></trkpt>
    <trkpt lat="33.512757" lon="-111.689276"><ele>403.2</ele></trkpt>
    <trkpt lat="33.512667" lon="-111.68889"><ele>403.0</ele></trkpt>
    <trkpt lat="33.512533" lon="-111.688557"><ele>403.0</ele></trkpt>
    <trkpt lat="33.512479" lon="-111.688353"><ele>403.0</ele></trkpt>
    <trkpt lat="33.512497" lon="-111.688192"><ele>403.0</ele></trkpt>
    <trkpt lat="33.512566" lon="-111.688053"><ele>403.0</ele></trkpt>
    <trkpt lat="33.512711" lon="-111.687926"><ele>403.0</ele></trkpt>
    <trkpt lat="33.512774" lon="-111.687871"><ele>403.0</ele></trkpt>
    <trkpt lat="33.513005" lon="-111.687765"><ele>402.5</ele></trkpt>
    <trkpt lat="33.512847" lon="-111.687396"><ele>403.0</ele></trkpt>
    <trkpt lat="33.512477" lon="-111.686618"><ele>404.8</ele></trkpt>
    <trkpt lat="33.511762" lon="-111.685577"><ele>409.2</ele></trkpt>
    <trkpt lat="33.511553" lon="-111.68517"><ele>410.5</ele></trkpt>
    <trkpt lat="33.511451" lon="-111.685086"><ele>411.0</ele></trkpt>
    <trkpt lat="33.510549" lon="-111.684664"><ele>416.2</ele></trkpt>
    <trkpt lat="33.510397" lon="-111.684583"><ele>417.2</ele></trkpt>
    <trkpt lat="33.510096" lon="-111.684415"><ele>419.5</ele></trkpt>
    <trkpt lat="33.510055" lon="-111.684378"><ele>419.8</ele></trkpt>
    <trkpt lat="33.510006" lon="-111.684261"><ele>420.0</ele></trkpt>
    <trkpt lat="33.510181" lon="-111.684243"><ele>418.8</ele></trkpt>
    <trkpt lat="33.510477" lon="-111.684196"><ele>416.5</ele></trkpt>
    <trkpt lat="33.510745" lon="-111.684142"><ele>414.5</ele></trkpt>
    <trkpt lat="33.511029" lon="-111.684058"><ele>412.5</ele></trkpt>
    <trkpt lat="33.511237" lon="-111.683999"><ele>411.2</ele></trkpt>
    <trkpt lat="33.511427" lon="-111.683926"><ele>410.5</ele></trkpt>
    <trkpt lat="33.511621" lon="-111.683845"><ele>409.8</ele></trkpt>
    <trkpt lat="33.511804" lon="-111.683755"><ele>409.2</ele></trkpt>
    <trkpt lat="33.511994" lon="-111.683654"><ele>408.5</ele></trkpt>
    <trkpt lat="33.512514" lon="-111.683333"><ele>405.8</ele></trkpt>
    <trkpt lat="33.512812" lon="-111.683078"><ele>406.0</ele></trkpt>
    <trkpt lat="33.51303" lon="-111.682905"><ele>406.0</ele></trkpt>
    <trkpt lat="33.513299" lon="-111.682655"><ele>405.8</ele></trkpt>
    <trkpt lat="33.513642" lon="-111.682266"><ele>405.5</ele></trkpt>
    <trkpt lat="33.513889" lon="-111.681959"><ele>404.8</ele></trkpt>
    <trkpt lat="33.514115" lon="-111.681612"><ele>403.8</ele></trkpt>
    <trkpt lat="33.514464" lon="-111.681008"><ele>404.8</ele></trkpt>
    <trkpt lat="33.51463" lon="-111.680643"><ele>404.2</ele></trkpt>
    <trkpt lat="33.514813" lon="-111.680132"><ele>405.5</ele></trkpt>
    <trkpt lat="33.515431" lon="-111.678313"><ele>406.2</ele></trkpt>
    <trkpt lat="33.515774" lon="-111.677383"><ele>405.0</ele></trkpt>
    <trkpt lat="33.516225" lon="-111.676294"><ele>404.5</ele></trkpt>
    <trkpt lat="33.516276" lon="-111.676169"><ele>404.2</ele></trkpt>
    <trkpt lat="33.516559" lon="-111.675499"><ele>404.0</ele></trkpt>
    <trkpt lat="33.516688" lon="-111.675194"><ele>404.2</ele></trkpt>
    <trkpt lat="33.516852" lon="-111.674811"><ele>404.0</ele></trkpt>
    <trkpt lat="33.517156" lon="-111.674082"><ele>402.8</ele></trkpt>
    <trkpt lat="33.518081" lon="-111.671889"><ele>405.8</ele></trkpt>
    <trkpt lat="33.518262" lon="-111.671509"><ele>406.0</ele></trkpt>
    <trkpt lat="33.51845" lon="-111.671148"><ele>407.5</ele></trkpt>
    <trkpt lat="33.518613" lon="-111.670859"><ele>408.2</ele></trkpt>
    <trkpt lat="33.518797" lon="-111.670558"><ele>408.8</ele></trkpt>
    <trkpt lat="33.519058" lon="-111.67019"><ele>407.5</ele></trkpt>
    <trkpt lat="33.519456" lon="-111.66968"><ele>407.5</ele></trkpt>
    <trkpt lat="33.519645" lon="-111.669471"><ele>407.0</ele></trkpt>
    <trkpt lat="33.520132" lon="-111.668968"><ele>405.2</ele></trkpt>
    <trkpt lat="33.520412" lon="-111.668726"><ele>406.0</ele></trkpt>
    <trkpt lat="33.520656" lon="-111.668528"><ele>406.5</ele></trkpt>
    <trkpt lat="33.52098" lon="-111.668286"><ele>406.8</ele></trkpt>
    <trkpt lat="33.521264" lon="-111.6681"><ele>407.0</ele></trkpt>
    <trkpt lat="33.521776" lon="-111.667813"><ele>407.0</ele></trkpt>
    <trkpt lat="33.522312" lon="-111.66756"><ele>408.0</ele></trkpt>
    <trkpt lat="33.522627" lon="-111.66744"><ele>408.0</ele></trkpt>
    <trkpt lat="33.522917" lon="-111.667312"><ele>408.0</ele></trkpt>
    <trkpt lat="33.523093" lon="-111.667217"><ele>408.0</ele></trkpt>
    <trkpt lat="33.523423" lon="-111.666959"><ele>408.5</ele></trkpt>
    <trkpt lat="33.52354" lon="-111.666845"><ele>408.8</ele></trkpt>
    <trkpt lat="33.52364" lon="-111.666737"><ele>409.0</ele></trkpt>
    <trkpt lat="33.523813" lon="-111.666529"><ele>409.8</ele></trkpt>
    <trkpt lat="33.523912" lon="-111.666395"><ele>410.5</ele></trkpt>
    <trkpt lat="33.524009" lon="-111.666249"><ele>411.5</ele></trkpt>
    <trkpt lat="33.524187" lon="-111.665872"><ele>414.5</ele></trkpt>
    <trkpt lat="33.524296" lon="-111.665567"><ele>416.0</ele></trkpt>
    <trkpt lat="33.524351" lon="-111.665386"><ele>417.0</ele></trkpt>
    <trkpt lat="33.524425" lon="-111.66505"><ele>419.0</ele></trkpt>
    <trkpt lat="33.524451" lon="-111.664784"><ele>420.2</ele></trkpt>
    <trkpt lat="33.524466" lon="-111.664555"><ele>421.5</ele></trkpt>
    <trkpt lat="33.524501" lon="-111.662769"><ele>429.2</ele></trkpt>
    <trkpt lat="33.524514" lon="-111.662492"><ele>430.0</ele></trkpt>
    <trkpt lat="33.524566" lon="-111.66212"><ele>432.0</ele></trkpt>
    <trkpt lat="33.524611" lon="-111.661907"><ele>433.0</ele></trkpt>
    <trkpt lat="33.524672" lon="-111.661715"><ele>433.8</ele></trkpt>
    <trkpt lat="33.524754" lon="-111.661484"><ele>434.8</ele></trkpt>
    <trkpt lat="33.524828" lon="-111.661309"><ele>435.2</ele></trkpt>
    <trkpt lat="33.524935" lon="-111.661101"><ele>435.8</ele></trkpt>
    <trkpt lat="33.525104" lon="-111.660835"><ele>436.5</ele></trkpt>
    <trkpt lat="33.525349" lon="-111.660485"><ele>436.2</ele></trkpt>
    <trkpt lat="33.525269" lon="-111.660442"><ele>436.5</ele></trkpt>
    <trkpt lat="33.525092" lon="-111.660582"><ele>437.0</ele></trkpt>
    <trkpt lat="33.525051" lon="-111.660556"><ele>437.0</ele></trkpt>
    <trkpt lat="33.524924" lon="-111.660474"><ele>437.8</ele></trkpt>
    <trkpt lat="33.524768" lon="-111.660473"><ele>438.5</ele></trkpt>
    <trkpt lat="33.524707" lon="-111.660487"><ele>438.8</ele></trkpt>
    <trkpt lat="33.524617" lon="-111.660376"><ele>439.5</ele></trkpt>
    <trkpt lat="33.524478" lon="-111.660075"><ele>441.2</ele></trkpt>
    <trkpt lat="33.524379" lon="-111.659993"><ele>442.2</ele></trkpt>
    <trkpt lat="33.524241" lon="-111.65988"><ele>443.2</ele></trkpt>
    <trkpt lat="33.523902" lon="-111.659745"><ele>444.5</ele></trkpt>
    <trkpt lat="33.523431" lon="-111.659482"><ele>445.8</ele></trkpt>
    <trkpt lat="33.523207" lon="-111.659419"><ele>446.2</ele></trkpt>
    <trkpt lat="33.523126" lon="-111.659351"><ele>446.8</ele></trkpt>
    <trkpt lat="33.522886" lon="-111.659305"><ele>447.8</ele></trkpt>
    <trkpt lat="33.522762" lon="-111.659407"><ele>448.0</ele></trkpt>
    <trkpt lat="33.522665" lon="-111.659418"><ele>448.2</ele></trkpt>
    <trkpt lat="33.522581" lon="-111.659382"><ele>448.8</ele></trkpt>
    <trkpt lat="33.522284" lon="-111.659255"><ele>450.0</ele></trkpt>
    <trkpt lat="33.521962" lon="-111.659033"><ele>451.5</ele></trkpt>
    <trkpt lat="33.521703" lon="-111.65877"><ele>453.2</ele></trkpt>
    <trkpt lat="33.521475" lon="-111.658733"><ele>454.2</ele></trkpt>
    <trkpt lat="33.521297" lon="-111.658762"><ele>455.0</ele></trkpt>
    <trkpt lat="33.521209" lon="-111.658912"><ele>455.0</ele></trkpt>
    <trkpt lat="33.521191" lon="-111.659009"><ele>454.8</ele></trkpt>
    <trkpt lat="33.521008" lon="-111.658974"><ele>455.8</ele></trkpt>
    <trkpt lat="33.52084" lon="-111.659004"><ele>456.5</ele></trkpt>
    <trkpt lat="33.520682" lon="-111.658841"><ele>458.2</ele></trkpt>
    <trkpt lat="33.520546" lon="-111.658656"><ele>460.0</ele></trkpt>
    <trkpt lat="33.520532" lon="-111.658388"><ele>461.2</ele></trkpt>
    <trkpt lat="33.52042" lon="-111.658324"><ele>462.5</ele></trkpt>
    <trkpt lat="33.5203" lon="-111.658141"><ele>464.2</ele></trkpt>
    <trkpt lat="33.520362" lon="-111.658071"><ele>464.0</ele></trkpt>
    <trkpt lat="33.520228" lon="-111.657932"><ele>465.5</ele></trkpt>
    <trkpt lat="33.519978" lon="-111.657889"><ele>467.8</ele></trkpt>
    <trkpt lat="33.519803" lon="-111.657599"><ele>470.0</ele></trkpt>
    <trkpt lat="33.519709" lon="-111.657642"><ele>470.5</ele></trkpt>
    <trkpt lat="33.519521" lon="-111.657497"><ele>472.2</ele></trkpt>
    <trkpt lat="33.519334" lon="-111.65739"><ele>473.8</ele></trkpt>
    <trkpt lat="33.519092" lon="-111.657433"><ele>475.2</ele></trkpt>
    <trkpt lat="33.518877" lon="-111.65746"><ele>476.0</ele></trkpt>
    <trkpt lat="33.518622" lon="-111.657626"><ele>476.5</ele></trkpt>
    <trkpt lat="33.518533" lon="-111.657674"><ele>476.8</ele></trkpt>
    <trkpt lat="33.518394" lon="-111.657417"><ele>478.0</ele></trkpt>
    <trkpt lat="33.518377" lon="-111.657283"><ele>478.5</ele></trkpt>
    <trkpt lat="33.518265" lon="-111.657283"><ele>479.0</ele></trkpt>
    <trkpt lat="33.518148" lon="-111.657122"><ele>480.0</ele></trkpt>
    <trkpt lat="33.518023" lon="-111.657197"><ele>480.2</ele></trkpt>
    <trkpt lat="33.5178" lon="-111.657208"><ele>481.0</ele></trkpt>
    <trkpt lat="33.517688" lon="-111.656929"><ele>482.8</ele></trkpt>
    <trkpt lat="33.517585" lon="-111.65687"><ele>483.5</ele></trkpt>
    <trkpt lat="33.517299" lon="-111.656757"><ele>486.0</ele></trkpt>
    <trkpt lat="33.516968" lon="-111.656612"><ele>489.0</ele></trkpt>
    <trkpt lat="33.516892" lon="-111.656816"><ele>488.8</ele></trkpt>
    <trkpt lat="33.516579" lon="-111.656966"><ele>490.5</ele></trkpt>
    <trkpt lat="33.516382" lon="-111.656929"><ele>491.8</ele></trkpt>
    <trkpt lat="33.516319" lon="-111.656961"><ele>492.0</ele></trkpt>
    <trkpt lat="33.516239" lon="-111.656886"><ele>492.8</ele></trkpt>
    <trkpt lat="33.516109" lon="-111.656972"><ele>493.0</ele></trkpt>
    <trkpt lat="33.515917" lon="-111.656897"><ele>494.2</ele></trkpt>
    <trkpt lat="33.515796" lon="-111.656816"><ele>495.2</ele></trkpt>
    <trkpt lat="33.51559" lon="-111.656628"><ele>496.8</ele></trkpt>
    <trkpt lat="33.515398" lon="-111.656532"><ele>498.0</ele></trkpt>
    <trkpt lat="33.515223" lon="-111.656344"><ele>499.5</ele></trkpt>
    <trkpt lat="33.515036" lon="-111.656382"><ele>500.0</ele></trkpt>
    <trkpt lat="33.51487" lon="-111.656285"><ele>502.0</ele></trkpt>
    <trkpt lat="33.514736" lon="-111.656301"><ele>503.0</ele></trkpt>
    <trkpt lat="33.514584" lon="-111.65636"><ele>504.2</ele></trkpt>
    <trkpt lat="33.51462" lon="-111.656484"><ele>503.2</ele></trkpt>
    <trkpt lat="33.514539" lon="-111.656591"><ele>503.5</ele></trkpt>
    <trkpt lat="33.514436" lon="-111.65658"><ele>504.8</ele></trkpt>
    <trkpt lat="33.514378" lon="-111.656661"><ele>504.8</ele></trkpt>
    <trkpt lat="33.514208" lon="-111.65665"><ele>506.5</ele></trkpt>
    <trkpt lat="33.514146" lon="-111.656408"><ele>508.0</ele></trkpt>
    <trkpt lat="33.514038" lon="-111.656317"><ele>509.2</ele></trkpt>
    <trkpt lat="33.513967" lon="-111.656151"><ele>510.5</ele></trkpt>
    <trkpt lat="33.513792" lon="-111.656065"><ele>512.0</ele></trkpt>
    <trkpt lat="33.513475" lon="-111.655727"><ele>514.5</ele></trkpt>
    <trkpt lat="33.513412" lon="-111.655534"><ele>516.0</ele></trkpt>
    <trkpt lat="33.513314" lon="-111.655593"><ele>516.5</ele></trkpt>
    <trkpt lat="33.513224" lon="-111.65555"><ele>518.0</ele></trkpt>
    <trkpt lat="33.513242" lon="-111.655421"><ele>518.5</ele></trkpt>
    <trkpt lat="33.513162" lon="-111.655303"><ele>520.0</ele></trkpt>
    <trkpt lat="33.512965" lon="-111.655303"><ele>522.0</ele></trkpt>
    <trkpt lat="33.512759" lon="-111.655164"><ele>524.8</ele></trkpt>
    <trkpt lat="33.512598" lon="-111.655132"><ele>526.5</ele></trkpt>
    <trkpt lat="33.512356" lon="-111.655035"><ele>529.0</ele></trkpt>
    <trkpt lat="33.512303" lon="-111.655062"><ele>529.2</ele></trkpt>
    <trkpt lat="33.512119" lon="-111.654998"><ele>530.5</ele></trkpt>
    <trkpt lat="33.51203" lon="-111.655057"><ele>531.5</ele></trkpt>
    <trkpt lat="33.511811" lon="-111.655083"><ele>533.2</ele></trkpt>
    <trkpt lat="33.511681" lon="-111.65503"><ele>534.0</ele></trkpt>
    <trkpt lat="33.511551" lon="-111.654906"><ele>536.0</ele></trkpt>
    <trkpt lat="33.511466" lon="-111.654928"><ele>537.2</ele></trkpt>
    <trkpt lat="33.511337" lon="-111.654912"><ele>539.2</ele></trkpt>
    <trkpt lat="33.511211" lon="-111.654976"><ele>541.0</ele></trkpt>
    <trkpt lat="33.511189" lon="-111.655089"><ele>542.0</ele></trkpt>
    <trkpt lat="33.511113" lon="-111.655035"><ele>542.8</ele></trkpt>
    <trkpt lat="33.511095" lon="-111.655105"><ele>543.8</ele></trkpt>
    <trkpt lat="33.511028" lon="-111.655116"><ele>545.0</ele></trkpt>
    <trkpt lat="33.510907" lon="-111.654987"><ele>545.8</ele></trkpt>
    <trkpt lat="33.510795" lon="-111.654899"><ele>548.2</ele></trkpt>
    <trkpt lat="33.5107" lon="-111.654917"><ele>550.5</ele></trkpt>
    <trkpt lat="33.510644" lon="-111.654976"><ele>551.5</ele></trkpt>
  </trkseg></trk>
</gpx>
