<?xml version="1.0" encoding="UTF-8"?>
<gpx xmlns="http://www.topografix.com/GPX/1/1" version="1.1" creator="az-planning">
  <metadata><name>Oracle B1: Patio Market -&gt; E Mt Lemmon Hwy</name></metadata>
  <trk><name>Oracle B1: Patio Market -&gt; E Mt Lemmon Hwy</name><trkseg>
    <trkpt lat="32.6320337" lon="-110.7397861"></trkpt>
    <trkpt lat="32.6320303" lon="-110.7398472"></trkpt>
    <trkpt lat="32.6320559" lon="-110.739896"></trkpt>
    <trkpt lat="32.6320884" lon="-110.7398961"></trkpt>
    <trkpt lat="32.6321087" lon="-110.739876"></trkpt>
    <trkpt lat="32.6321657" lon="-110.739743"></trkpt>
    <trkpt lat="32.6323943" lon="-110.739593"></trkpt>
    <trkpt lat="32.6323095" lon="-110.7395216"></trkpt>
    <trkpt lat="32.6321916" lon="-110.7394001"></trkpt>
    <trkpt lat="32.6318992" lon="-110.7397287"></trkpt>
    <trkpt lat="32.6316652" lon="-110.7399647"></trkpt>
    <trkpt lat="32.631321" lon="-110.7402566"></trkpt>
    <trkpt lat="32.6307176" lon="-110.7407345"></trkpt>
    <trkpt lat="32.6301477" lon="-110.7411447"></trkpt>
    <trkpt lat="32.6299615" lon="-110.7412829"></trkpt>
    <trkpt lat="32.6287499" lon="-110.742187"></trkpt>
    <trkpt lat="32.6282804" lon="-110.7425371"></trkpt>
    <trkpt lat="32.6281479" lon="-110.7426411"></trkpt>
    <trkpt lat="32.6277535" lon="-110.7429515"></trkpt>
    <trkpt lat="32.627358" lon="-110.743338"></trkpt>
    <trkpt lat="32.62667" lon="-110.744068"></trkpt>
    <trkpt lat="32.6259124" lon="-110.7451529"></trkpt>
    <trkpt lat="32.6254897" lon="-110.7459209"></trkpt>
    <trkpt lat="32.6253037" lon="-110.7463284"></trkpt>
    <trkpt lat="32.6251237" lon="-110.7467439"></trkpt>
    <trkpt lat="32.6249095" lon="-110.7474234"></trkpt>
    <trkpt lat="32.6247192" lon="-110.7481595"></trkpt>
    <trkpt lat="32.6245787" lon="-110.7488788"></trkpt>
    <trkpt lat="32.6244972" lon="-110.7495904"></trkpt>
    <trkpt lat="32.6243055" lon="-110.7495832"></trkpt>
    <trkpt lat="32.6232725" lon="-110.7495174"></trkpt>
    <trkpt lat="32.6229249" lon="-110.749527"></trkpt>
    <trkpt lat="32.6226052" lon="-110.7495775"></trkpt>
    <trkpt lat="32.6222636" lon="-110.7496585"></trkpt>
    <trkpt lat="32.6219414" lon="-110.749778"></trkpt>
    <trkpt lat="32.621528" lon="-110.7500221"></trkpt>
    <trkpt lat="32.6208875" lon="-110.7505033"></trkpt>
    <trkpt lat="32.6204436" lon="-110.750867"></trkpt>
    <trkpt lat="32.62006" lon="-110.7511813"></trkpt>
    <trkpt lat="32.619672" lon="-110.7515073"></trkpt>
    <trkpt lat="32.6195149" lon="-110.7516451"></trkpt>
    <trkpt lat="32.6187338" lon="-110.7522972"></trkpt>
    <trkpt lat="32.617959" lon="-110.752983"></trkpt>
    <trkpt lat="32.6172078" lon="-110.7537243"></trkpt>
    <trkpt lat="32.6167021" lon="-110.7542448"></trkpt>
    <trkpt lat="32.6163372" lon="-110.7546405"></trkpt>
    <trkpt lat="32.6159815" lon="-110.7550451"></trkpt>
    <trkpt lat="32.615437" lon="-110.7557431"></trkpt>
    <trkpt lat="32.6149029" lon="-110.7564601"></trkpt>
    <trkpt lat="32.6145616" lon="-110.7569489"></trkpt>
    <trkpt lat="32.614401" lon="-110.7571784"></trkpt>
    <trkpt lat="32.6142291" lon="-110.757432"></trkpt>
    <trkpt lat="32.6141414" lon="-110.7575698"></trkpt>
    <trkpt lat="32.6140282" lon="-110.7577476"></trkpt>
    <trkpt lat="32.6138426" lon="-110.7580487"></trkpt>
    <trkpt lat="32.6137411" lon="-110.7582133"></trkpt>
    <trkpt lat="32.6133383" lon="-110.7589111"></trkpt>
    <trkpt lat="32.6132429" lon="-110.759077"></trkpt>
    <trkpt lat="32.6131699" lon="-110.7592152"></trkpt>
    <trkpt lat="32.6127198" lon="-110.7600913"></trkpt>
    <trkpt lat="32.612416" lon="-110.7607259"></trkpt>
    <trkpt lat="32.6123598" lon="-110.7608433"></trkpt>
    <trkpt lat="32.6115442" lon="-110.7624277"></trkpt>
    <trkpt lat="32.6113364" lon="-110.762859"></trkpt>
    <trkpt lat="32.611234" lon="-110.7630551"></trkpt>
    <trkpt lat="32.6111103" lon="-110.7633032"></trkpt>
    <trkpt lat="32.6110466" lon="-110.7634296"></trkpt>
    <trkpt lat="32.6108635" lon="-110.7637928"></trkpt>
    <trkpt lat="32.6106213" lon="-110.7642708"></trkpt>
    <trkpt lat="32.6103483" lon="-110.764832"></trkpt>
    <trkpt lat="32.6101509" lon="-110.7652862"></trkpt>
    <trkpt lat="32.6100799" lon="-110.7655896"></trkpt>
    <trkpt lat="32.6100694" lon="-110.7658975"></trkpt>
    <trkpt lat="32.61009" lon="-110.7661058"></trkpt>
    <trkpt lat="32.6101161" lon="-110.7662072"></trkpt>
    <trkpt lat="32.610252" lon="-110.7665875"></trkpt>
    <trkpt lat="32.6102913" lon="-110.7666975"></trkpt>
    <trkpt lat="32.6103566" lon="-110.7668748"></trkpt>
    <trkpt lat="32.6105855" lon="-110.7674815"></trkpt>
    <trkpt lat="32.6106303" lon="-110.7676082"></trkpt>
    <trkpt lat="32.6107031" lon="-110.767818"></trkpt>
    <trkpt lat="32.6108452" lon="-110.7682797"></trkpt>
    <trkpt lat="32.6109147" lon="-110.7685296"></trkpt>
    <trkpt lat="32.6110989" lon="-110.7691729"></trkpt>
    <trkpt lat="32.6113183" lon="-110.7700401"></trkpt>
    <trkpt lat="32.6115886" lon="-110.7709884"></trkpt>
    <trkpt lat="32.6113183" lon="-110.7700401"></trkpt>
    <trkpt lat="32.6110989" lon="-110.7691729"></trkpt>
    <trkpt lat="32.6109147" lon="-110.7685296"></trkpt>
    <trkpt lat="32.6108452" lon="-110.7682797"></trkpt>
    <trkpt lat="32.6107031" lon="-110.767818"></trkpt>
    <trkpt lat="32.6106303" lon="-110.7676082"></trkpt>
    <trkpt lat="32.6105855" lon="-110.7674815"></trkpt>
    <trkpt lat="32.6103566" lon="-110.7668748"></trkpt>
    <trkpt lat="32.6102913" lon="-110.7666975"></trkpt>
    <trkpt lat="32.610252" lon="-110.7665875"></trkpt>
    <trkpt lat="32.6101161" lon="-110.7662072"></trkpt>
    <trkpt lat="32.61009" lon="-110.7661058"></trkpt>
    <trkpt lat="32.6100694" lon="-110.7658975"></trkpt>
    <trkpt lat="32.6100799" lon="-110.7655896"></trkpt>
    <trkpt lat="32.6100004" lon="-110.765567"></trkpt>
    <trkpt lat="32.6099056" lon="-110.7654965"></trkpt>
    <trkpt lat="32.6098654" lon="-110.7654181"></trkpt>
    <trkpt lat="32.6098078" lon="-110.7652438"></trkpt>
    <trkpt lat="32.6097524" lon="-110.7650359"></trkpt>
    <trkpt lat="32.6094774" lon="-110.7637174"></trkpt>
    <trkpt lat="32.6094623" lon="-110.763644"></trkpt>
    <trkpt lat="32.6091648" lon="-110.7623811"></trkpt>
    <trkpt lat="32.6090386" lon="-110.7618495"></trkpt>
    <trkpt lat="32.6089956" lon="-110.7616686"></trkpt>
    <trkpt lat="32.6089724" lon="-110.7615708"></trkpt>
    <trkpt lat="32.6089504" lon="-110.7614856"></trkpt>
    <trkpt lat="32.6089181" lon="-110.7613499"></trkpt>
    <trkpt lat="32.6088922" lon="-110.7611938"></trkpt>
    <trkpt lat="32.60888" lon="-110.7610869"></trkpt>
    <trkpt lat="32.6088704" lon="-110.7609151"></trkpt>
    <trkpt lat="32.6088858" lon="-110.760711"></trkpt>
    <trkpt lat="32.6088916" lon="-110.7606344"></trkpt>
    <trkpt lat="32.6089899" lon="-110.7601446"></trkpt>
    <trkpt lat="32.6091184" lon="-110.7597285"></trkpt>
    <trkpt lat="32.6091799" lon="-110.7594438"></trkpt>
    <trkpt lat="32.6091989" lon="-110.7591462"></trkpt>
    <trkpt lat="32.6091765" lon="-110.7587733"></trkpt>
    <trkpt lat="32.6091001" lon="-110.7583809"></trkpt>
    <trkpt lat="32.6090134" lon="-110.7577192"></trkpt>
    <trkpt lat="32.6090116" lon="-110.7576999"></trkpt>
    <trkpt lat="32.6089609" lon="-110.7571713"></trkpt>
    <trkpt lat="32.6089302" lon="-110.7569538"></trkpt>
    <trkpt lat="32.6089246" lon="-110.7569199"></trkpt>
    <trkpt lat="32.6089222" lon="-110.756905"></trkpt>
    <trkpt lat="32.6088896" lon="-110.7567064"></trkpt>
    <trkpt lat="32.6086799" lon="-110.7555727"></trkpt>
    <trkpt lat="32.6084845" lon="-110.7546892"></trkpt>
    <trkpt lat="32.6081969" lon="-110.7533885"></trkpt>
    <trkpt lat="32.6081006" lon="-110.7529293"></trkpt>
    <trkpt lat="32.6080608" lon="-110.7527587"></trkpt>
    <trkpt lat="32.6078916" lon="-110.7520491"></trkpt>
    <trkpt lat="32.6077906" lon="-110.7515692"></trkpt>
    <trkpt lat="32.607699" lon="-110.7511905"></trkpt>
    <trkpt lat="32.6076032" lon="-110.7508954"></trkpt>
    <trkpt lat="32.6073964" lon="-110.7504074"></trkpt>
    <trkpt lat="32.607206" lon="-110.7495127"></trkpt>
    <trkpt lat="32.6071209" lon="-110.7492182"></trkpt>
    <trkpt lat="32.6070643" lon="-110.7490624"></trkpt>
    <trkpt lat="32.6069897" lon="-110.7489398"></trkpt>
    <trkpt lat="32.6066461" lon="-110.7485594"></trkpt>
    <trkpt lat="32.6061508" lon="-110.7480566"></trkpt>
    <trkpt lat="32.6059652" lon="-110.7478682"></trkpt>
    <trkpt lat="32.6056192" lon="-110.7475914"></trkpt>
    <trkpt lat="32.605447" lon="-110.7474232"></trkpt>
    <trkpt lat="32.6053054" lon="-110.7472489"></trkpt>
    <trkpt lat="32.6051946" lon="-110.7470767"></trkpt>
    <trkpt lat="32.6050369" lon="-110.7467669"></trkpt>
    <trkpt lat="32.6047282" lon="-110.7459055"></trkpt>
    <trkpt lat="32.604654" lon="-110.7457317"></trkpt>
    <trkpt lat="32.6045574" lon="-110.7455844"></trkpt>
    <trkpt lat="32.6043531" lon="-110.7454055"></trkpt>
    <trkpt lat="32.6040965" lon="-110.7453214"></trkpt>
    <trkpt lat="32.602959" lon="-110.7451912"></trkpt>
    <trkpt lat="32.6027363" lon="-110.7451224"></trkpt>
    <trkpt lat="32.6025117" lon="-110.7450126"></trkpt>
    <trkpt lat="32.6023106" lon="-110.7448523"></trkpt>
    <trkpt lat="32.601879" lon="-110.7443215"></trkpt>
    <trkpt lat="32.6013561" lon="-110.74367"></trkpt>
    <trkpt lat="32.6011998" lon="-110.7434577"></trkpt>
    <trkpt lat="32.6010845" lon="-110.7432186"></trkpt>
    <trkpt lat="32.6008788" lon="-110.7427672"></trkpt>
    <trkpt lat="32.6006681" lon="-110.7423954"></trkpt>
    <trkpt lat="32.6003018" lon="-110.7418686"></trkpt>
    <trkpt lat="32.5996903" lon="-110.7410948"></trkpt>
    <trkpt lat="32.5993905" lon="-110.7407341"></trkpt>
    <trkpt lat="32.5987144" lon="-110.7400217"></trkpt>
    <trkpt lat="32.598271" lon="-110.7396431"></trkpt>
    <trkpt lat="32.5979658" lon="-110.7393276"></trkpt>
    <trkpt lat="32.5971161" lon="-110.7379894"></trkpt>
    <trkpt lat="32.5968588" lon="-110.7376596"></trkpt>
    <trkpt lat="32.5965925" lon="-110.7373633"></trkpt>
    <trkpt lat="32.5963492" lon="-110.7371286"></trkpt>
    <trkpt lat="32.5960381" lon="-110.7369266"></trkpt>
    <trkpt lat="32.5955843" lon="-110.736705"></trkpt>
    <trkpt lat="32.5953128" lon="-110.7365391"></trkpt>
    <trkpt lat="32.5946982" lon="-110.7360285"></trkpt>
    <trkpt lat="32.5943812" lon="-110.7358309"></trkpt>
    <trkpt lat="32.5940184" lon="-110.7356513"></trkpt>
    <trkpt lat="32.5938376" lon="-110.7354285"></trkpt>
    <trkpt lat="32.5936951" lon="-110.735056"></trkpt>
    <trkpt lat="32.5936249" lon="-110.7347713"></trkpt>
    <trkpt lat="32.5935755" lon="-110.7344872"></trkpt>
    <trkpt lat="32.5935656" lon="-110.734366"></trkpt>
    <trkpt lat="32.5935366" lon="-110.7340117"></trkpt>
    <trkpt lat="32.5935449" lon="-110.7335028"></trkpt>
    <trkpt lat="32.5935797" lon="-110.7326716"></trkpt>
    <trkpt lat="32.5936049" lon="-110.7321472"></trkpt>
    <trkpt lat="32.5936342" lon="-110.7314885"></trkpt>
    <trkpt lat="32.5936428" lon="-110.7312901"></trkpt>
    <trkpt lat="32.593695" lon="-110.7303287"></trkpt>
    <trkpt lat="32.5937407" lon="-110.7293932"></trkpt>
    <trkpt lat="32.5937552" lon="-110.7291862"></trkpt>
    <trkpt lat="32.5937788" lon="-110.7289322"></trkpt>
    <trkpt lat="32.5938338" lon="-110.7286726"></trkpt>
    <trkpt lat="32.5942301" lon="-110.7270656"></trkpt>
    <trkpt lat="32.5943126" lon="-110.7267553"></trkpt>
    <trkpt lat="32.5944108" lon="-110.7264745"></trkpt>
    <trkpt lat="32.5945933" lon="-110.7259502"></trkpt>
    <trkpt lat="32.5946428" lon="-110.7257592"></trkpt>
    <trkpt lat="32.594669" lon="-110.7255697"></trkpt>
    <trkpt lat="32.5948261" lon="-110.724138"></trkpt>
    <trkpt lat="32.5948496" lon="-110.723123"></trkpt>
    <trkpt lat="32.5948722" lon="-110.7226354"></trkpt>
    <trkpt lat="32.5948653" lon="-110.7223872"></trkpt>
    <trkpt lat="32.5948343" lon="-110.7221617"></trkpt>
    <trkpt lat="32.594635" lon="-110.7217146"></trkpt>
    <trkpt lat="32.59444" lon="-110.7213312"></trkpt>
    <trkpt lat="32.5942325" lon="-110.7210079"></trkpt>
    <trkpt lat="32.5940683" lon="-110.7208231"></trkpt>
    <trkpt lat="32.5938891" lon="-110.720641"></trkpt>
    <trkpt lat="32.5937483" lon="-110.7205136"></trkpt>
    <trkpt lat="32.5936246" lon="-110.7204145"></trkpt>
    <trkpt lat="32.5933475" lon="-110.7201829"></trkpt>
    <trkpt lat="32.5927877" lon="-110.7199671"></trkpt>
    <trkpt lat="32.5921504" lon="-110.7198158"></trkpt>
    <trkpt lat="32.5915377" lon="-110.7196646"></trkpt>
    <trkpt lat="32.59092" lon="-110.7196704"></trkpt>
    <trkpt lat="32.5896871" lon="-110.7196471"></trkpt>
    <trkpt lat="32.5890473" lon="-110.7195395"></trkpt>
    <trkpt lat="32.5884549" lon="-110.7192735"></trkpt>
    <trkpt lat="32.587033" lon="-110.718709"></trkpt>
    <trkpt lat="32.5860822" lon="-110.7183987"></trkpt>
    <trkpt lat="32.5858376" lon="-110.7183445"></trkpt>
    <trkpt lat="32.5855891" lon="-110.7182868"></trkpt>
    <trkpt lat="32.5841123" lon="-110.7178633"></trkpt>
    <trkpt lat="32.5829032" lon="-110.7175124"></trkpt>
    <trkpt lat="32.5828985" lon="-110.7173325"></trkpt>
  </trkseg></trk>
</gpx>
