<?xml version="1.0" encoding="UTF-8"?>
<gpx xmlns="http://www.topografix.com/GPX/1/1" version="1.1" creator="az-planning">
  <metadata><name>Temporal Gulch Rd (FR 72) via Little Casa Trail</name></metadata>
  <trk><name>Temporal Gulch Rd (FR 72) via Little Casa Trail</name><trkseg>
    <trkpt lat="31.6399368" lon="-110.7822404"></trkpt>
    <trkpt lat="31.6402217" lon="-110.78228"></trkpt>
    <trkpt lat="31.6403493" lon="-110.7823777"></trkpt>
    <trkpt lat="31.6404684" lon="-110.7823906"></trkpt>
    <trkpt lat="31.6405419" lon="-110.7824241"></trkpt>
    <trkpt lat="31.6407753" lon="-110.7826735"></trkpt>
    <trkpt lat="31.6408495" lon="-110.7828412"></trkpt>
    <trkpt lat="31.6409909" lon="-110.7830258"></trkpt>
    <trkpt lat="31.640894" lon="-110.7835073"></trkpt>
    <trkpt lat="31.6407736" lon="-110.7836124"></trkpt>
    <trkpt lat="31.6406672" lon="-110.7834804"></trkpt>
    <trkpt lat="31.6405327" lon="-110.7834588"></trkpt>
    <trkpt lat="31.6403693" lon="-110.7832345"></trkpt>
    <trkpt lat="31.6401447" lon="-110.7831554"></trkpt>
    <trkpt lat="31.6401031" lon="-110.7830306"></trkpt>
    <trkpt lat="31.6400157" lon="-110.7830382"></trkpt>
    <trkpt lat="31.6398979" lon="-110.7831968"></trkpt>
    <trkpt lat="31.6397954" lon="-110.7830818"></trkpt>
    <trkpt lat="31.6396861" lon="-110.7830205"></trkpt>
    <trkpt lat="31.6394535" lon="-110.783021"></trkpt>
    <trkpt lat="31.6393589" lon="-110.7829798"></trkpt>
    <trkpt lat="31.6392242" lon="-110.7830592"></trkpt>
    <trkpt lat="31.6390877" lon="-110.7829968"></trkpt>
    <trkpt lat="31.6389822" lon="-110.7830612"></trkpt>
    <trkpt lat="31.6389892" lon="-110.7831932"></trkpt>
    <trkpt lat="31.6388877" lon="-110.7832161"></trkpt>
    <trkpt lat="31.6386262" lon="-110.7831472"></trkpt>
    <trkpt lat="31.6385136" lon="-110.7833646"></trkpt>
    <trkpt lat="31.6384634" lon="-110.7834014"></trkpt>
    <trkpt lat="31.6383983" lon="-110.7833559"></trkpt>
    <trkpt lat="31.6383298" lon="-110.7833673"></trkpt>
    <trkpt lat="31.6381352" lon="-110.7832674"></trkpt>
    <trkpt lat="31.6380499" lon="-110.7835149"></trkpt>
    <trkpt lat="31.6379631" lon="-110.7835159"></trkpt>
    <trkpt lat="31.6378745" lon="-110.7834339"></trkpt>
    <trkpt lat="31.6378516" lon="-110.7833163"></trkpt>
    <trkpt lat="31.6376034" lon="-110.7832122"></trkpt>
    <trkpt lat="31.6373864" lon="-110.7833069"></trkpt>
    <trkpt lat="31.637308" lon="-110.7832711"></trkpt>
    <trkpt lat="31.6373615" lon="-110.7832023"></trkpt>
    <trkpt lat="31.6372725" lon="-110.7831315"></trkpt>
    <trkpt lat="31.6372299" lon="-110.7830979"></trkpt>
    <trkpt lat="31.63705" lon="-110.7830967"></trkpt>
    <trkpt lat="31.636954" lon="-110.7830443"></trkpt>
    <trkpt lat="31.6368519" lon="-110.7831339"></trkpt>
    <trkpt lat="31.6367576" lon="-110.7831944"></trkpt>
    <trkpt lat="31.6366933" lon="-110.7832222"></trkpt>
    <trkpt lat="31.6365665" lon="-110.7830785"></trkpt>
    <trkpt lat="31.6363774" lon="-110.7830708"></trkpt>
    <trkpt lat="31.6362275" lon="-110.7829845"></trkpt>
    <trkpt lat="31.6359842" lon="-110.7828838"></trkpt>
    <trkpt lat="31.6358683" lon="-110.782838"></trkpt>
    <trkpt lat="31.6356882" lon="-110.7829013"></trkpt>
    <trkpt lat="31.6353283" lon="-110.7827756"></trkpt>
    <trkpt lat="31.6352632" lon="-110.7826667"></trkpt>
    <trkpt lat="31.6353985" lon="-110.7824676"></trkpt>
    <trkpt lat="31.6354585" lon="-110.7822189"></trkpt>
    <trkpt lat="31.6357212" lon="-110.7820693"></trkpt>
    <trkpt lat="31.6358213" lon="-110.7819293"></trkpt>
    <trkpt lat="31.6357632" lon="-110.781877"></trkpt>
    <trkpt lat="31.6356338" lon="-110.7819079"></trkpt>
    <trkpt lat="31.635421" lon="-110.7818977"></trkpt>
    <trkpt lat="31.6352037" lon="-110.7822467"></trkpt>
    <trkpt lat="31.6350601" lon="-110.7823025"></trkpt>
    <trkpt lat="31.6349606" lon="-110.7823801"></trkpt>
    <trkpt lat="31.6348603" lon="-110.7825526"></trkpt>
    <trkpt lat="31.6347215" lon="-110.782572"></trkpt>
    <trkpt lat="31.634562" lon="-110.7828152"></trkpt>
    <trkpt lat="31.6344147" lon="-110.7828052"></trkpt>
    <trkpt lat="31.634222" lon="-110.7829418"></trkpt>
    <trkpt lat="31.6339279" lon="-110.7830287"></trkpt>
    <trkpt lat="31.6336755" lon="-110.7830333"></trkpt>
    <trkpt lat="31.6334912" lon="-110.7828908"></trkpt>
    <trkpt lat="31.6330882" lon="-110.7828753"></trkpt>
    <trkpt lat="31.6329114" lon="-110.7828153"></trkpt>
    <trkpt lat="31.6326378" lon="-110.7828991"></trkpt>
    <trkpt lat="31.6324897" lon="-110.7828727"></trkpt>
    <trkpt lat="31.6324113" lon="-110.7828677"></trkpt>
    <trkpt lat="31.6321621" lon="-110.7827763"></trkpt>
    <trkpt lat="31.6319969" lon="-110.7827514"></trkpt>
    <trkpt lat="31.6317326" lon="-110.7828573"></trkpt>
    <trkpt lat="31.631496" lon="-110.7831758"></trkpt>
    <trkpt lat="31.6313691" lon="-110.7833954"></trkpt>
    <trkpt lat="31.6313027" lon="-110.783402"></trkpt>
    <trkpt lat="31.6312602" lon="-110.7833132"></trkpt>
    <trkpt lat="31.6313639" lon="-110.7828665"></trkpt>
    <trkpt lat="31.6313493" lon="-110.7826003"></trkpt>
    <trkpt lat="31.6311945" lon="-110.7824088"></trkpt>
    <trkpt lat="31.6307488" lon="-110.7822896"></trkpt>
    <trkpt lat="31.6307462" lon="-110.7820846"></trkpt>
    <trkpt lat="31.6305438" lon="-110.7817551"></trkpt>
    <trkpt lat="31.6303324" lon="-110.7816389"></trkpt>
    <trkpt lat="31.6300946" lon="-110.7816271"></trkpt>
    <trkpt lat="31.6300297" lon="-110.7813108"></trkpt>
    <trkpt lat="31.6298502" lon="-110.7810953"></trkpt>
    <trkpt lat="31.6297942" lon="-110.7809423"></trkpt>
    <trkpt lat="31.6296339" lon="-110.7808788"></trkpt>
    <trkpt lat="31.629526" lon="-110.7807747"></trkpt>
    <trkpt lat="31.6293925" lon="-110.7807892"></trkpt>
    <trkpt lat="31.6293275" lon="-110.7807488"></trkpt>
    <trkpt lat="31.6291542" lon="-110.7808772"></trkpt>
    <trkpt lat="31.6290382" lon="-110.7812279"></trkpt>
    <trkpt lat="31.6288964" lon="-110.7812339"></trkpt>
    <trkpt lat="31.6287536" lon="-110.7811441"></trkpt>
    <trkpt lat="31.6283497" lon="-110.7812237"></trkpt>
    <trkpt lat="31.6282433" lon="-110.7807997"></trkpt>
    <trkpt lat="31.6283193" lon="-110.7806938"></trkpt>
    <trkpt lat="31.6286767" lon="-110.780619"></trkpt>
    <trkpt lat="31.6287061" lon="-110.7803906"></trkpt>
    <trkpt lat="31.6286449" lon="-110.7802907"></trkpt>
    <trkpt lat="31.6287737" lon="-110.7800378"></trkpt>
    <trkpt lat="31.6286937" lon="-110.7798724"></trkpt>
    <trkpt lat="31.628512" lon="-110.77974"></trkpt>
    <trkpt lat="31.6284787" lon="-110.7795445"></trkpt>
    <trkpt lat="31.628168" lon="-110.7793118"></trkpt>
    <trkpt lat="31.628033" lon="-110.7793227"></trkpt>
    <trkpt lat="31.6279125" lon="-110.7792315"></trkpt>
    <trkpt lat="31.627792" lon="-110.7792308"></trkpt>
    <trkpt lat="31.6276488" lon="-110.7790776"></trkpt>
    <trkpt lat="31.6273589" lon="-110.7791618"></trkpt>
    <trkpt lat="31.6269995" lon="-110.7790772"></trkpt>
    <trkpt lat="31.6270192" lon="-110.7788023"></trkpt>
    <trkpt lat="31.627118" lon="-110.7786428"></trkpt>
    <trkpt lat="31.6270147" lon="-110.7784053"></trkpt>
    <trkpt lat="31.6269904" lon="-110.7780931"></trkpt>
    <trkpt lat="31.6267167" lon="-110.7775843"></trkpt>
    <trkpt lat="31.6263153" lon="-110.7773454"></trkpt>
    <trkpt lat="31.6261872" lon="-110.7773276"></trkpt>
    <trkpt lat="31.6259564" lon="-110.7775023"></trkpt>
    <trkpt lat="31.6258369" lon="-110.7775016"></trkpt>
    <trkpt lat="31.6256187" lon="-110.7774682"></trkpt>
    <trkpt lat="31.6256847" lon="-110.7771234"></trkpt>
    <trkpt lat="31.6256081" lon="-110.7769305"></trkpt>
    <trkpt lat="31.6253447" lon="-110.7766147"></trkpt>
    <trkpt lat="31.6250912" lon="-110.7765934"></trkpt>
    <trkpt lat="31.6249695" lon="-110.7765394"></trkpt>
    <trkpt lat="31.6250062" lon="-110.7762272"></trkpt>
    <trkpt lat="31.6251634" lon="-110.7757912"></trkpt>
    <trkpt lat="31.6251709" lon="-110.7754907"></trkpt>
    <trkpt lat="31.6249241" lon="-110.7750635"></trkpt>
    <trkpt lat="31.6246034" lon="-110.7745537"></trkpt>
    <trkpt lat="31.6242869" lon="-110.7742462"></trkpt>
    <trkpt lat="31.6240659" lon="-110.7741769"></trkpt>
    <trkpt lat="31.6237034" lon="-110.7748446"></trkpt>
    <trkpt lat="31.6234674" lon="-110.7747346"></trkpt>
    <trkpt lat="31.6234202" lon="-110.7743738"></trkpt>
    <trkpt lat="31.6232782" lon="-110.7741573"></trkpt>
    <trkpt lat="31.6229124" lon="-110.7741017"></trkpt>
    <trkpt lat="31.6226283" lon="-110.7739458"></trkpt>
    <trkpt lat="31.6222292" lon="-110.7741547"></trkpt>
    <trkpt lat="31.6220272" lon="-110.7739835"></trkpt>
    <trkpt lat="31.6215876" lon="-110.7739717"></trkpt>
    <trkpt lat="31.6215001" lon="-110.7738449"></trkpt>
    <trkpt lat="31.6212052" lon="-110.7739072"></trkpt>
    <trkpt lat="31.6210169" lon="-110.7742835"></trkpt>
    <trkpt lat="31.6210778" lon="-110.7744063"></trkpt>
    <trkpt lat="31.6211032" lon="-110.7746869"></trkpt>
    <trkpt lat="31.620908" lon="-110.7748575"></trkpt>
    <trkpt lat="31.6207416" lon="-110.7748199"></trkpt>
    <trkpt lat="31.6204817" lon="-110.7752225"></trkpt>
    <trkpt lat="31.6201808" lon="-110.775264"></trkpt>
    <trkpt lat="31.6198121" lon="-110.7756808"></trkpt>
    <trkpt lat="31.6194045" lon="-110.7756412"></trkpt>
    <trkpt lat="31.6191488" lon="-110.7757756"></trkpt>
    <trkpt lat="31.6190562" lon="-110.7760108"></trkpt>
    <trkpt lat="31.6190121" lon="-110.7762733"></trkpt>
    <trkpt lat="31.619141" lon="-110.7768866"></trkpt>
    <trkpt lat="31.6190698" lon="-110.7769464"></trkpt>
    <trkpt lat="31.6186211" lon="-110.7765801"></trkpt>
    <trkpt lat="31.6184265" lon="-110.7767661"></trkpt>
    <trkpt lat="31.6183098" lon="-110.7771137"></trkpt>
    <trkpt lat="31.6180175" lon="-110.7772915"></trkpt>
    <trkpt lat="31.6179005" lon="-110.7776515"></trkpt>
    <trkpt lat="31.6176787" lon="-110.7775877"></trkpt>
    <trkpt lat="31.6174126" lon="-110.7775937"></trkpt>
    <trkpt lat="31.6170831" lon="-110.7775607"></trkpt>
    <trkpt lat="31.6167869" lon="-110.7778859"></trkpt>
    <trkpt lat="31.6162275" lon="-110.7774557"></trkpt>
    <trkpt lat="31.6156842" lon="-110.7773824"></trkpt>
    <trkpt lat="31.6154597" lon="-110.777849"></trkpt>
    <trkpt lat="31.6150491" lon="-110.7784226"></trkpt>
    <trkpt lat="31.6148761" lon="-110.7784067"></trkpt>
    <trkpt lat="31.6146071" lon="-110.7781565"></trkpt>
    <trkpt lat="31.6147319" lon="-110.7776573"></trkpt>
    <trkpt lat="31.6146874" lon="-110.777314"></trkpt>
    <trkpt lat="31.6144909" lon="-110.7772515"></trkpt>
    <trkpt lat="31.614126" lon="-110.7774705"></trkpt>
    <trkpt lat="31.6139545" lon="-110.7773363"></trkpt>
    <trkpt lat="31.6138301" lon="-110.7769882"></trkpt>
    <trkpt lat="31.6135635" lon="-110.7767939"></trkpt>
    <trkpt lat="31.6132925" lon="-110.7765588"></trkpt>
    <trkpt lat="31.6132375" lon="-110.7766151"></trkpt>
    <trkpt lat="31.6134075" lon="-110.7772335"></trkpt>
    <trkpt lat="31.6133915" lon="-110.777501"></trkpt>
    <trkpt lat="31.6133286" lon="-110.7775653"></trkpt>
    <trkpt lat="31.6132238" lon="-110.7775113"></trkpt>
    <trkpt lat="31.6131654" lon="-110.777616"></trkpt>
    <trkpt lat="31.6132511" lon="-110.7777854"></trkpt>
    <trkpt lat="31.6135092" lon="-110.7779896"></trkpt>
    <trkpt lat="31.6135103" lon="-110.7784212"></trkpt>
    <trkpt lat="31.6136169" lon="-110.7785507"></trkpt>
    <trkpt lat="31.6134313" lon="-110.7789755"></trkpt>
    <trkpt lat="31.613496" lon="-110.7792148"></trkpt>
    <trkpt lat="31.6132899" lon="-110.7794826"></trkpt>
    <trkpt lat="31.6133258" lon="-110.7798394"></trkpt>
    <trkpt lat="31.6132435" lon="-110.7801423"></trkpt>
    <trkpt lat="31.6130885" lon="-110.7802139"></trkpt>
    <trkpt lat="31.6130978" lon="-110.7804374"></trkpt>
    <trkpt lat="31.6129082" lon="-110.7807001"></trkpt>
    <trkpt lat="31.6127068" lon="-110.7807677"></trkpt>
    <trkpt lat="31.6127521" lon="-110.7809931"></trkpt>
    <trkpt lat="31.6126721" lon="-110.7813064"></trkpt>
    <trkpt lat="31.6124396" lon="-110.7813008"></trkpt>
    <trkpt lat="31.6123445" lon="-110.781637"></trkpt>
    <trkpt lat="31.6123708" lon="-110.7819018"></trkpt>
    <trkpt lat="31.6122042" lon="-110.782089"></trkpt>
    <trkpt lat="31.6121429" lon="-110.7822067"></trkpt>
    <trkpt lat="31.6119371" lon="-110.7822686"></trkpt>
    <trkpt lat="31.6117043" lon="-110.7822086"></trkpt>
    <trkpt lat="31.611565" lon="-110.7820955"></trkpt>
    <trkpt lat="31.6113869" lon="-110.7816189"></trkpt>
    <trkpt lat="31.6112984" lon="-110.7816116"></trkpt>
    <trkpt lat="31.6111288" lon="-110.7818728"></trkpt>
    <trkpt lat="31.610975" lon="-110.7820331"></trkpt>
    <trkpt lat="31.6107627" lon="-110.7820034"></trkpt>
    <trkpt lat="31.6106006" lon="-110.7821868"></trkpt>
    <trkpt lat="31.6105004" lon="-110.7820992"></trkpt>
    <trkpt lat="31.6105889" lon="-110.7818917"></trkpt>
    <trkpt lat="31.6105632" lon="-110.7816588"></trkpt>
    <trkpt lat="31.6102897" lon="-110.7815431"></trkpt>
    <trkpt lat="31.6102363" lon="-110.7813317"></trkpt>
    <trkpt lat="31.6101324" lon="-110.7812631"></trkpt>
    <trkpt lat="31.6100906" lon="-110.7812419"></trkpt>
    <trkpt lat="31.6096995" lon="-110.7811489"></trkpt>
    <trkpt lat="31.6094407" lon="-110.7814409"></trkpt>
    <trkpt lat="31.6093673" lon="-110.7816405"></trkpt>
    <trkpt lat="31.6091488" lon="-110.7818055"></trkpt>
    <trkpt lat="31.6091709" lon="-110.7821242"></trkpt>
    <trkpt lat="31.6090994" lon="-110.7823173"></trkpt>
    <trkpt lat="31.608859" lon="-110.7823553"></trkpt>
    <trkpt lat="31.6089245" lon="-110.7827302"></trkpt>
    <trkpt lat="31.6088341" lon="-110.7827794"></trkpt>
    <trkpt lat="31.6087146" lon="-110.7826588"></trkpt>
    <trkpt lat="31.6087053" lon="-110.7828587"></trkpt>
    <trkpt lat="31.6085923" lon="-110.7830199"></trkpt>
    <trkpt lat="31.6084038" lon="-110.7830314"></trkpt>
    <trkpt lat="31.6084086" lon="-110.7832664"></trkpt>
    <trkpt lat="31.6083909" lon="-110.7837142"></trkpt>
    <trkpt lat="31.6084987" lon="-110.7841207"></trkpt>
    <trkpt lat="31.6086688" lon="-110.7842684"></trkpt>
    <trkpt lat="31.608657" lon="-110.7843874"></trkpt>
    <trkpt lat="31.6084538" lon="-110.7845067"></trkpt>
    <trkpt lat="31.608252" lon="-110.7847105"></trkpt>
    <trkpt lat="31.6081458" lon="-110.784861"></trkpt>
    <trkpt lat="31.6079476" lon="-110.7849682"></trkpt>
    <trkpt lat="31.6078292" lon="-110.7853938"></trkpt>
    <trkpt lat="31.6074981" lon="-110.7855853"></trkpt>
    <trkpt lat="31.607358" lon="-110.7856171"></trkpt>
    <trkpt lat="31.6071097" lon="-110.7856319"></trkpt>
    <trkpt lat="31.6068619" lon="-110.7854979"></trkpt>
    <trkpt lat="31.6068405" lon="-110.7851651"></trkpt>
    <trkpt lat="31.6067005" lon="-110.7850766"></trkpt>
    <trkpt lat="31.6065819" lon="-110.7849945"></trkpt>
    <trkpt lat="31.6064031" lon="-110.7850647"></trkpt>
    <trkpt lat="31.606033" lon="-110.7854021"></trkpt>
    <trkpt lat="31.6061222" lon="-110.7857379"></trkpt>
    <trkpt lat="31.6060981" lon="-110.7857641"></trkpt>
    <trkpt lat="31.6058123" lon="-110.7859606"></trkpt>
    <trkpt lat="31.6055713" lon="-110.7860898"></trkpt>
    <trkpt lat="31.6055329" lon="-110.7861873"></trkpt>
    <trkpt lat="31.6055112" lon="-110.7862737"></trkpt>
    <trkpt lat="31.6053911" lon="-110.7862251"></trkpt>
    <trkpt lat="31.6053675" lon="-110.7860914"></trkpt>
    <trkpt lat="31.6050939" lon="-110.7860694"></trkpt>
    <trkpt lat="31.6047342" lon="-110.7863595"></trkpt>
    <trkpt lat="31.6046511" lon="-110.7866109"></trkpt>
    <trkpt lat="31.604327" lon="-110.7868681"></trkpt>
    <trkpt lat="31.6042399" lon="-110.7869185"></trkpt>
    <trkpt lat="31.6041944" lon="-110.7870401"></trkpt>
    <trkpt lat="31.6038904" lon="-110.7870767"></trkpt>
    <trkpt lat="31.6038224" lon="-110.7870305"></trkpt>
    <trkpt lat="31.6035895" lon="-110.7869675"></trkpt>
    <trkpt lat="31.603555" lon="-110.787152"></trkpt>
    <trkpt lat="31.6034109" lon="-110.787297"></trkpt>
    <trkpt lat="31.6034138" lon="-110.7873902"></trkpt>
    <trkpt lat="31.6034396" lon="-110.7874794"></trkpt>
    <trkpt lat="31.6034912" lon="-110.7875586"></trkpt>
    <trkpt lat="31.6035486" lon="-110.7875906"></trkpt>
    <trkpt lat="31.6035472" lon="-110.7876293"></trkpt>
    <trkpt lat="31.6035041" lon="-110.7876478"></trkpt>
    <trkpt lat="31.6034166" lon="-110.787642"></trkpt>
    <trkpt lat="31.6032838" lon="-110.787712"></trkpt>
    <trkpt lat="31.6031525" lon="-110.78762"></trkpt>
    <trkpt lat="31.60307" lon="-110.7875653"></trkpt>
    <trkpt lat="31.6029408" lon="-110.7874659"></trkpt>
    <trkpt lat="31.6028343" lon="-110.7873561"></trkpt>
    <trkpt lat="31.6028084" lon="-110.787303"></trkpt>
    <trkpt lat="31.6026767" lon="-110.787151"></trkpt>
    <trkpt lat="31.6024844" lon="-110.7869776"></trkpt>
    <trkpt lat="31.6023588" lon="-110.7868862"></trkpt>
    <trkpt lat="31.6021633" lon="-110.7867553"></trkpt>
    <trkpt lat="31.6020629" lon="-110.7866885"></trkpt>
    <trkpt lat="31.6019866" lon="-110.7865988"></trkpt>
    <trkpt lat="31.6019207" lon="-110.7864687"></trkpt>
    <trkpt lat="31.6018698" lon="-110.7862947"></trkpt>
    <trkpt lat="31.6018593" lon="-110.7861312"></trkpt>
    <trkpt lat="31.6018623" lon="-110.7859466"></trkpt>
    <trkpt lat="31.6019237" lon="-110.7856424"></trkpt>
    <trkpt lat="31.6019926" lon="-110.785398"></trkpt>
    <trkpt lat="31.6020285" lon="-110.7852785"></trkpt>
    <trkpt lat="31.6020375" lon="-110.7851431"></trkpt>
    <trkpt lat="31.602039" lon="-110.7849392"></trkpt>
    <trkpt lat="31.602039" lon="-110.7847774"></trkpt>
    <trkpt lat="31.6020539" lon="-110.7845805"></trkpt>
    <trkpt lat="31.6020854" lon="-110.7844469"></trkpt>
    <trkpt lat="31.6021737" lon="-110.7842148"></trkpt>
    <trkpt lat="31.602295" lon="-110.7839986"></trkpt>
    <trkpt lat="31.6024897" lon="-110.7837279"></trkpt>
    <trkpt lat="31.6026978" lon="-110.7834993"></trkpt>
    <trkpt lat="31.6028625" lon="-110.7833288"></trkpt>
    <trkpt lat="31.6030153" lon="-110.783153"></trkpt>
    <trkpt lat="31.6031545" lon="-110.7830176"></trkpt>
    <trkpt lat="31.6033117" lon="-110.7829033"></trkpt>
    <trkpt lat="31.6035034" lon="-110.7827908"></trkpt>
    <trkpt lat="31.6036995" lon="-110.7826994"></trkpt>
    <trkpt lat="31.6039571" lon="-110.7826115"></trkpt>
    <trkpt lat="31.6041637" lon="-110.7825376"></trkpt>
    <trkpt lat="31.6043135" lon="-110.7824743"></trkpt>
    <trkpt lat="31.6044707" lon="-110.7823812"></trkpt>
    <trkpt lat="31.6046189" lon="-110.7822458"></trkpt>
    <trkpt lat="31.60483" lon="-110.7820489"></trkpt>
    <trkpt lat="31.6050037" lon="-110.7819012"></trkpt>
    <trkpt lat="31.6051609" lon="-110.7817799"></trkpt>
    <trkpt lat="31.6052583" lon="-110.7816691"></trkpt>
    <trkpt lat="31.6053556" lon="-110.7815004"></trkpt>
    <trkpt lat="31.6054634" lon="-110.7812665"></trkpt>
    <trkpt lat="31.6055428" lon="-110.7811013"></trkpt>
    <trkpt lat="31.6056461" lon="-110.7809589"></trkpt>
    <trkpt lat="31.6057958" lon="-110.7808094"></trkpt>
    <trkpt lat="31.6059515" lon="-110.7806582"></trkpt>
    <trkpt lat="31.6060354" lon="-110.7805492"></trkpt>
    <trkpt lat="31.6060878" lon="-110.7804367"></trkpt>
    <trkpt lat="31.6061042" lon="-110.7803559"></trkpt>
    <trkpt lat="31.6060998" lon="-110.7802592"></trkpt>
    <trkpt lat="31.6060653" lon="-110.7801519"></trkpt>
    <trkpt lat="31.6060159" lon="-110.7800464"></trkpt>
    <trkpt lat="31.6059949" lon="-110.779962"></trkpt>
    <trkpt lat="31.605989" lon="-110.7798214"></trkpt>
    <trkpt lat="31.6060024" lon="-110.779672"></trkpt>
    <trkpt lat="31.6060084" lon="-110.7795841"></trkpt>
    <trkpt lat="31.6059875" lon="-110.7795137"></trkpt>
    <trkpt lat="31.6059425" lon="-110.7794733"></trkpt>
    <trkpt lat="31.6058811" lon="-110.7794698"></trkpt>
    <trkpt lat="31.6057164" lon="-110.7795384"></trkpt>
    <trkpt lat="31.6055862" lon="-110.7796263"></trkpt>
    <trkpt lat="31.6054619" lon="-110.7797071"></trkpt>
    <trkpt lat="31.6053736" lon="-110.7797405"></trkpt>
    <trkpt lat="31.6052807" lon="-110.7797142"></trkpt>
    <trkpt lat="31.6051864" lon="-110.7796474"></trkpt>
    <trkpt lat="31.6051055" lon="-110.779563"></trkpt>
    <trkpt lat="31.6049932" lon="-110.7794715"></trkpt>
    <trkpt lat="31.6048959" lon="-110.77941"></trkpt>
    <trkpt lat="31.6047941" lon="-110.7793784"></trkpt>
    <trkpt lat="31.6047117" lon="-110.7793309"></trkpt>
    <trkpt lat="31.6046533" lon="-110.7792711"></trkpt>
    <trkpt lat="31.6046099" lon="-110.7791797"></trkpt>
    <trkpt lat="31.6045665" lon="-110.7790426"></trkpt>
    <trkpt lat="31.604541" lon="-110.7788896"></trkpt>
    <trkpt lat="31.6045605" lon="-110.7786611"></trkpt>
    <trkpt lat="31.6045875" lon="-110.778436"></trkpt>
    <trkpt lat="31.6045935" lon="-110.7782444"></trkpt>
    <trkpt lat="31.604577" lon="-110.7781266"></trkpt>
    <trkpt lat="31.6045366" lon="-110.7780334"></trkpt>
    <trkpt lat="31.6044871" lon="-110.7779912"></trkpt>
    <trkpt lat="31.6044228" lon="-110.7779789"></trkpt>
    <trkpt lat="31.6043599" lon="-110.7779948"></trkpt>
    <trkpt lat="31.6042835" lon="-110.778058"></trkpt>
    <trkpt lat="31.6041428" lon="-110.7781389"></trkpt>
    <trkpt lat="31.6040484" lon="-110.7781776"></trkpt>
    <trkpt lat="31.6039271" lon="-110.7781881"></trkpt>
    <trkpt lat="31.6038268" lon="-110.7781547"></trkpt>
    <trkpt lat="31.603722" lon="-110.7781055"></trkpt>
    <trkpt lat="31.6036666" lon="-110.7780334"></trkpt>
    <trkpt lat="31.6036352" lon="-110.7779297"></trkpt>
    <trkpt lat="31.6036277" lon="-110.7777926"></trkpt>
    <trkpt lat="31.6036516" lon="-110.7775271"></trkpt>
    <trkpt lat="31.6036591" lon="-110.7773126"></trkpt>
    <trkpt lat="31.6036292" lon="-110.7771298"></trkpt>
    <trkpt lat="31.6035813" lon="-110.7769628"></trkpt>
    <trkpt lat="31.6035004" lon="-110.7767922"></trkpt>
    <trkpt lat="31.603433" lon="-110.7767008"></trkpt>
    <trkpt lat="31.6033387" lon="-110.7766111"></trkpt>
    <trkpt lat="31.6032414" lon="-110.7765566"></trkpt>
    <trkpt lat="31.603159" lon="-110.7765197"></trkpt>
    <trkpt lat="31.6031051" lon="-110.7764846"></trkpt>
    <trkpt lat="31.6030617" lon="-110.7764424"></trkpt>
    <trkpt lat="31.6030437" lon="-110.7763896"></trkpt>
    <trkpt lat="31.6030557" lon="-110.7763193"></trkpt>
    <trkpt lat="31.6030945" lon="-110.7762554"></trkpt>
    <trkpt lat="31.6031545" lon="-110.7762033"></trkpt>
    <trkpt lat="31.6032996" lon="-110.7761288"></trkpt>
    <trkpt lat="31.6034913" lon="-110.7760603"></trkpt>
    <trkpt lat="31.6037638" lon="-110.776004"></trkpt>
    <trkpt lat="31.6040049" lon="-110.7759706"></trkpt>
    <trkpt lat="31.6041486" lon="-110.7759917"></trkpt>
    <trkpt lat="31.6043253" lon="-110.7760444"></trkpt>
    <trkpt lat="31.6044795" lon="-110.7760796"></trkpt>
    <trkpt lat="31.6046128" lon="-110.7760726"></trkpt>
    <trkpt lat="31.6047296" lon="-110.7760286"></trkpt>
    <trkpt lat="31.6049227" lon="-110.7759337"></trkpt>
    <trkpt lat="31.6049781" lon="-110.7758897"></trkpt>
    <trkpt lat="31.6050141" lon="-110.7758317"></trkpt>
    <trkpt lat="31.6050156" lon="-110.7757684"></trkpt>
    <trkpt lat="31.6049916" lon="-110.7757086"></trkpt>
    <trkpt lat="31.6049482" lon="-110.7756524"></trkpt>
    <trkpt lat="31.6048613" lon="-110.7756313"></trkpt>
    <trkpt lat="31.6046622" lon="-110.7755944"></trkpt>
    <trkpt lat="31.6044301" lon="-110.7755416"></trkpt>
    <trkpt lat="31.6042938" lon="-110.7754572"></trkpt>
    <trkpt lat="31.6042025" lon="-110.7753711"></trkpt>
    <trkpt lat="31.6041052" lon="-110.7753254"></trkpt>
    <trkpt lat="31.6039599" lon="-110.775306"></trkpt>
    <trkpt lat="31.6037563" lon="-110.7752849"></trkpt>
    <trkpt lat="31.6033161" lon="-110.775183"></trkpt>
    <trkpt lat="31.6028534" lon="-110.7750476"></trkpt>
    <trkpt lat="31.6025464" lon="-110.7749368"></trkpt>
    <trkpt lat="31.6023039" lon="-110.7748331"></trkpt>
    <trkpt lat="31.6021287" lon="-110.7747558"></trkpt>
    <trkpt lat="31.6019325" lon="-110.774689"></trkpt>
    <trkpt lat="31.6017274" lon="-110.7746327"></trkpt>
    <trkpt lat="31.6012871" lon="-110.774529"></trkpt>
    <trkpt lat="31.6008844" lon="-110.7744657"></trkpt>
    <trkpt lat="31.6005774" lon="-110.7743936"></trkpt>
    <trkpt lat="31.6002884" lon="-110.7743268"></trkpt>
    <trkpt lat="31.5999051" lon="-110.7742653"></trkpt>
    <trkpt lat="31.5995442" lon="-110.7742037"></trkpt>
    <trkpt lat="31.5992836" lon="-110.7741615"></trkpt>
    <trkpt lat="31.5988599" lon="-110.774107"></trkpt>
    <trkpt lat="31.5985229" lon="-110.7740701"></trkpt>
    <trkpt lat="31.5982968" lon="-110.7740543"></trkpt>
    <trkpt lat="31.5981725" lon="-110.7740297"></trkpt>
    <trkpt lat="31.5980483" lon="-110.7739787"></trkpt>
    <trkpt lat="31.5978891" lon="-110.7738928"></trkpt>
    <trkpt lat="31.5976053" lon="-110.7737461"></trkpt>
    <trkpt lat="31.5974401" lon="-110.7736467"></trkpt>
    <trkpt lat="31.5971627" lon="-110.7734553"></trkpt>
    <trkpt lat="31.597006" lon="-110.7733583"></trkpt>
    <trkpt lat="31.5967413" lon="-110.7732713"></trkpt>
    <trkpt lat="31.5960403" lon="-110.773055"></trkpt>
    <trkpt lat="31.5956146" lon="-110.7729306"></trkpt>
    <trkpt lat="31.5954028" lon="-110.7728362"></trkpt>
    <trkpt lat="31.5951212" lon="-110.7726721"></trkpt>
    <trkpt lat="31.594759" lon="-110.7724284"></trkpt>
    <trkpt lat="31.5944414" lon="-110.7722096"></trkpt>
    <trkpt lat="31.5942402" lon="-110.7721002"></trkpt>
    <trkpt lat="31.5940729" lon="-110.7720281"></trkpt>
    <trkpt lat="31.5938971" lon="-110.7719709"></trkpt>
    <trkpt lat="31.5937849" lon="-110.7719212"></trkpt>
    <trkpt lat="31.593626" lon="-110.7718019"></trkpt>
    <trkpt lat="31.5934058" lon="-110.7716228"></trkpt>
    <trkpt lat="31.5928086" lon="-110.7712648"></trkpt>
    <trkpt lat="31.5923003" lon="-110.7709789"></trkpt>
    <trkpt lat="31.591648" lon="-110.7706159"></trkpt>
    <trkpt lat="31.5913303" lon="-110.7704468"></trkpt>
    <trkpt lat="31.591163" lon="-110.7703822"></trkpt>
    <trkpt lat="31.5910381" lon="-110.7703523"></trkpt>
    <trkpt lat="31.5908157" lon="-110.7703349"></trkpt>
    <trkpt lat="31.5905912" lon="-110.7703126"></trkpt>
    <trkpt lat="31.5904429" lon="-110.7702653"></trkpt>
    <trkpt lat="31.590265" lon="-110.7701584"></trkpt>
    <trkpt lat="31.5900617" lon="-110.7700018"></trkpt>
    <trkpt lat="31.5899749" lon="-110.7699595"></trkpt>
    <trkpt lat="31.5898351" lon="-110.7699347"></trkpt>
    <trkpt lat="31.5895704" lon="-110.7698998"></trkpt>
    <trkpt lat="31.5892527" lon="-110.7698128"></trkpt>
    <trkpt lat="31.5889625" lon="-110.7697283"></trkpt>
    <trkpt lat="31.5887677" lon="-110.7696438"></trkpt>
    <trkpt lat="31.5885489" lon="-110.7695018"></trkpt>
    <trkpt lat="31.5883526" lon="-110.7693752"></trkpt>
    <trkpt lat="31.5879353" lon="-110.7690818"></trkpt>
    <trkpt lat="31.5878295" lon="-110.7690073"></trkpt>
    <trkpt lat="31.5877341" lon="-110.7689526"></trkpt>
    <trkpt lat="31.5876346" lon="-110.7689352"></trkpt>
    <trkpt lat="31.5875605" lon="-110.7689476"></trkpt>
    <trkpt lat="31.5874567" lon="-110.7689675"></trkpt>
    <trkpt lat="31.5873826" lon="-110.76896"></trkpt>
    <trkpt lat="31.5873021" lon="-110.7689252"></trkpt>
    <trkpt lat="31.5871687" lon="-110.7688382"></trkpt>
    <trkpt lat="31.58651" lon="-110.7684652"></trkpt>
    <trkpt lat="31.5864083" lon="-110.768413"></trkpt>
    <trkpt lat="31.5863299" lon="-110.7683434"></trkpt>
    <trkpt lat="31.5862579" lon="-110.7682315"></trkpt>
    <trkpt lat="31.5860546" lon="-110.767866"></trkpt>
    <trkpt lat="31.5858958" lon="-110.767595"></trkpt>
    <trkpt lat="31.5858195" lon="-110.7674906"></trkpt>
    <trkpt lat="31.585756" lon="-110.7674334"></trkpt>
    <trkpt lat="31.5856776" lon="-110.7674061"></trkpt>
    <trkpt lat="31.5856056" lon="-110.7674285"></trkpt>
    <trkpt lat="31.5855463" lon="-110.7674807"></trkpt>
    <trkpt lat="31.5854997" lon="-110.7675801"></trkpt>
    <trkpt lat="31.5854468" lon="-110.7677293"></trkpt>
    <trkpt lat="31.5853345" lon="-110.7679232"></trkpt>
    <trkpt lat="31.5852117" lon="-110.7680426"></trkpt>
    <trkpt lat="31.5850698" lon="-110.768152"></trkpt>
    <trkpt lat="31.5849808" lon="-110.7682042"></trkpt>
    <trkpt lat="31.584913" lon="-110.7682166"></trkpt>
    <trkpt lat="31.5848643" lon="-110.7681992"></trkpt>
    <trkpt lat="31.5847709" lon="-110.7681813"></trkpt>
    <trkpt lat="31.5846626" lon="-110.7681405"></trkpt>
    <trkpt lat="31.5845551" lon="-110.7680948"></trkpt>
    <trkpt lat="31.5844767" lon="-110.7680724"></trkpt>
    <trkpt lat="31.5844386" lon="-110.7680227"></trkpt>
    <trkpt lat="31.5843962" lon="-110.767958"></trkpt>
    <trkpt lat="31.5842734" lon="-110.7678636"></trkpt>
    <trkpt lat="31.584176" lon="-110.7677964"></trkpt>
    <trkpt lat="31.5840912" lon="-110.7677243"></trkpt>
    <trkpt lat="31.5839938" lon="-110.7675801"></trkpt>
    <trkpt lat="31.5839409" lon="-110.7674757"></trkpt>
    <trkpt lat="31.5839303" lon="-110.7673738"></trkpt>
    <trkpt lat="31.5839599" lon="-110.7672693"></trkpt>
    <trkpt lat="31.5840235" lon="-110.7671649"></trkpt>
    <trkpt lat="31.5841527" lon="-110.7670754"></trkpt>
    <trkpt lat="31.5843094" lon="-110.7669735"></trkpt>
    <trkpt lat="31.5844365" lon="-110.7668342"></trkpt>
    <trkpt lat="31.5845699" lon="-110.7666726"></trkpt>
    <trkpt lat="31.5846144" lon="-110.7665583"></trkpt>
    <trkpt lat="31.5846292" lon="-110.7664364"></trkpt>
    <trkpt lat="31.5846165" lon="-110.7662972"></trkpt>
    <trkpt lat="31.584589" lon="-110.7661928"></trkpt>
    <trkpt lat="31.5845318" lon="-110.7661256"></trkpt>
    <trkpt lat="31.5844534" lon="-110.7660883"></trkpt>
    <trkpt lat="31.5843518" lon="-110.7660734"></trkpt>
    <trkpt lat="31.584248" lon="-110.7660859"></trkpt>
    <trkpt lat="31.5841484" lon="-110.7660908"></trkpt>
    <trkpt lat="31.5840785" lon="-110.7660635"></trkpt>
    <trkpt lat="31.5840256" lon="-110.7659914"></trkpt>
    <trkpt lat="31.5840002" lon="-110.7659044"></trkpt>
    <trkpt lat="31.5840065" lon="-110.7658024"></trkpt>
    <trkpt lat="31.5840446" lon="-110.7656607"></trkpt>
    <trkpt lat="31.5841167" lon="-110.7655289"></trkpt>
    <trkpt lat="31.5842014" lon="-110.7654344"></trkpt>
    <trkpt lat="31.5843094" lon="-110.7653698"></trkpt>
    <trkpt lat="31.5844089" lon="-110.76533"></trkpt>
    <trkpt lat="31.5844979" lon="-110.7652554"></trkpt>
    <trkpt lat="31.5845657" lon="-110.7651734"></trkpt>
    <trkpt lat="31.5846123" lon="-110.7650491"></trkpt>
    <trkpt lat="31.5846313" lon="-110.7649297"></trkpt>
    <trkpt lat="31.5846292" lon="-110.764793"></trkpt>
    <trkpt lat="31.5845932" lon="-110.7646861"></trkpt>
    <trkpt lat="31.584517" lon="-110.7644897"></trkpt>
    <trkpt lat="31.5844492" lon="-110.7642535"></trkpt>
    <trkpt lat="31.5843666" lon="-110.7640645"></trkpt>
    <trkpt lat="31.5842755" lon="-110.7639501"></trkpt>
    <trkpt lat="31.5840362" lon="-110.7637761"></trkpt>
    <trkpt lat="31.5838885" lon="-110.7636998"></trkpt>
    <trkpt lat="31.5837693" lon="-110.7636219"></trkpt>
    <trkpt lat="31.5835037" lon="-110.763424"></trkpt>
    <trkpt lat="31.5833216" lon="-110.7632574"></trkpt>
    <trkpt lat="31.583131" lon="-110.7630858"></trkpt>
    <trkpt lat="31.5830039" lon="-110.7629814"></trkpt>
    <trkpt lat="31.5828704" lon="-110.7629217"></trkpt>
    <trkpt lat="31.5826459" lon="-110.7628049"></trkpt>
    <trkpt lat="31.5823875" lon="-110.7626209"></trkpt>
    <trkpt lat="31.5822626" lon="-110.7625438"></trkpt>
    <trkpt lat="31.5821503" lon="-110.7624841"></trkpt>
    <trkpt lat="31.5820613" lon="-110.7624667"></trkpt>
    <trkpt lat="31.5818961" lon="-110.7624717"></trkpt>
    <trkpt lat="31.5815954" lon="-110.7624742"></trkpt>
    <trkpt lat="31.5814026" lon="-110.7624742"></trkpt>
    <trkpt lat="31.5812649" lon="-110.7624916"></trkpt>
    <trkpt lat="31.5811357" lon="-110.7624941"></trkpt>
    <trkpt lat="31.5810235" lon="-110.7624344"></trkpt>
    <trkpt lat="31.5809472" lon="-110.7623225"></trkpt>
    <trkpt lat="31.58089" lon="-110.7622007"></trkpt>
    <trkpt lat="31.5808265" lon="-110.7621112"></trkpt>
    <trkpt lat="31.5807503" lon="-110.7620416"></trkpt>
    <trkpt lat="31.5806571" lon="-110.7619794"></trkpt>
    <trkpt lat="31.5805384" lon="-110.7619546"></trkpt>
    <trkpt lat="31.5804029" lon="-110.7619222"></trkpt>
    <trkpt lat="31.5802949" lon="-110.7618775"></trkpt>
    <trkpt lat="31.5802334" lon="-110.7618029"></trkpt>
    <trkpt lat="31.5801847" lon="-110.7616885"></trkpt>
    <trkpt lat="31.5801085" lon="-110.7614896"></trkpt>
    <trkpt lat="31.5800555" lon="-110.7613628"></trkpt>
    <trkpt lat="31.5799793" lon="-110.7612783"></trkpt>
    <trkpt lat="31.5799178" lon="-110.7612509"></trkpt>
    <trkpt lat="31.5798141" lon="-110.7612484"></trkpt>
    <trkpt lat="31.579598" lon="-110.7612982"></trkpt>
    <trkpt lat="31.5794222" lon="-110.7613404"></trkpt>
    <trkpt lat="31.5792316" lon="-110.7613653"></trkpt>
    <trkpt lat="31.5791045" lon="-110.7613728"></trkpt>
    <trkpt lat="31.5790155" lon="-110.7614001"></trkpt>
    <trkpt lat="31.5789372" lon="-110.7614648"></trkpt>
    <trkpt lat="31.5788715" lon="-110.7615891"></trkpt>
    <trkpt lat="31.578827" lon="-110.7617358"></trkpt>
    <trkpt lat="31.5787635" lon="-110.7619595"></trkpt>
    <trkpt lat="31.5787126" lon="-110.7620689"></trkpt>
    <trkpt lat="31.5786131" lon="-110.7622454"></trkpt>
    <trkpt lat="31.5784606" lon="-110.7624618"></trkpt>
    <trkpt lat="31.578325" lon="-110.7627228"></trkpt>
    <trkpt lat="31.5782064" lon="-110.7629913"></trkpt>
    <trkpt lat="31.5781063" lon="-110.7632058"></trkpt>
    <trkpt lat="31.5780004" lon="-110.7633748"></trkpt>
    <trkpt lat="31.5778606" lon="-110.7634942"></trkpt>
    <trkpt lat="31.5776827" lon="-110.7635588"></trkpt>
    <trkpt lat="31.5775471" lon="-110.7635638"></trkpt>
    <trkpt lat="31.5773014" lon="-110.7634693"></trkpt>
    <trkpt lat="31.5770557" lon="-110.7633002"></trkpt>
    <trkpt lat="31.5766956" lon="-110.7629969"></trkpt>
    <trkpt lat="31.5764372" lon="-110.7628477"></trkpt>
    <trkpt lat="31.5761491" lon="-110.7627234"></trkpt>
    <trkpt lat="31.5758102" lon="-110.7625295"></trkpt>
    <trkpt lat="31.5753273" lon="-110.762261"></trkpt>
    <trkpt lat="31.5751875" lon="-110.7622162"></trkpt>
    <trkpt lat="31.5750265" lon="-110.7621963"></trkpt>
    <trkpt lat="31.5747554" lon="-110.7622013"></trkpt>
    <trkpt lat="31.5745732" lon="-110.7621665"></trkpt>
    <trkpt lat="31.5744122" lon="-110.7620969"></trkpt>
    <trkpt lat="31.5742639" lon="-110.7619875"></trkpt>
    <trkpt lat="31.574086" lon="-110.7618085"></trkpt>
    <trkpt lat="31.5739589" lon="-110.7616991"></trkpt>
    <trkpt lat="31.5737894" lon="-110.7615996"></trkpt>
    <trkpt lat="31.5735522" lon="-110.7615201"></trkpt>
    <trkpt lat="31.5733234" lon="-110.7614604"></trkpt>
    <trkpt lat="31.5730947" lon="-110.7614305"></trkpt>
    <trkpt lat="31.5729676" lon="-110.7614504"></trkpt>
    <trkpt lat="31.5728405" lon="-110.7614852"></trkpt>
    <trkpt lat="31.5727134" lon="-110.7615698"></trkpt>
    <trkpt lat="31.5725998" lon="-110.7616874"></trkpt>
    <trkpt lat="31.572495" lon="-110.7618301"></trkpt>
    <trkpt lat="31.5723919" lon="-110.7619427"></trkpt>
    <trkpt lat="31.5722571" lon="-110.7620604"></trkpt>
    <trkpt lat="31.572029" lon="-110.762233"></trkpt>
    <trkpt lat="31.5719511" lon="-110.7622006"></trkpt>
    <trkpt lat="31.5718989" lon="-110.7622159"></trkpt>
    <trkpt lat="31.5718446" lon="-110.7622542"></trkpt>
    <trkpt lat="31.571714" lon="-110.7623078"></trkpt>
    <trkpt lat="31.5715661" lon="-110.7623563"></trkpt>
    <trkpt lat="31.5714595" lon="-110.7624048"></trkpt>
    <trkpt lat="31.5713116" lon="-110.7625274"></trkpt>
    <trkpt lat="31.5711963" lon="-110.7626959"></trkpt>
    <trkpt lat="31.5711006" lon="-110.762798"></trkpt>
    <trkpt lat="31.5710093" lon="-110.7628516"></trkpt>
    <trkpt lat="31.5709027" lon="-110.762867"></trkpt>
    <trkpt lat="31.5707047" lon="-110.7628618"></trkpt>
    <trkpt lat="31.5706155" lon="-110.7628797"></trkpt>
    <trkpt lat="31.5705764" lon="-110.762941"></trkpt>
    <trkpt lat="31.5703915" lon="-110.7629078"></trkpt>
    <trkpt lat="31.5701696" lon="-110.7628414"></trkpt>
    <trkpt lat="31.5699999" lon="-110.7627699"></trkpt>
    <trkpt lat="31.5697672" lon="-110.7626831"></trkpt>
    <trkpt lat="31.5695845" lon="-110.7626397"></trkpt>
    <trkpt lat="31.5691255" lon="-110.7626218"></trkpt>
    <trkpt lat="31.5688073" lon="-110.7626152"></trkpt>
    <trkpt lat="31.5686951" lon="-110.7626261"></trkpt>
    <trkpt lat="31.5685674" lon="-110.7626604"></trkpt>
    <trkpt lat="31.5683843" lon="-110.7627326"></trkpt>
    <trkpt lat="31.5681901" lon="-110.7628123"></trkpt>
    <trkpt lat="31.5681834" lon="-110.7628142"></trkpt>
    <trkpt lat="31.5680886" lon="-110.7628412"></trkpt>
    <trkpt lat="31.5679471" lon="-110.7628628"></trkpt>
    <trkpt lat="31.5677994" lon="-110.7628502"></trkpt>
    <trkpt lat="31.5676579" lon="-110.7628087"></trkpt>
    <trkpt lat="31.5675318" lon="-110.7627292"></trkpt>
    <trkpt lat="31.5674195" lon="-110.7626155"></trkpt>
    <trkpt lat="31.5673364" lon="-110.7624711"></trkpt>
    <trkpt lat="31.5672518" lon="-110.7623302"></trkpt>
    <trkpt lat="31.5671518" lon="-110.76224"></trkpt>
    <trkpt lat="31.5670365" lon="-110.762184"></trkpt>
    <trkpt lat="31.5668965" lon="-110.7621262"></trkpt>
    <trkpt lat="31.5667703" lon="-110.7620432"></trkpt>
    <trkpt lat="31.5666381" lon="-110.7619222"></trkpt>
    <trkpt lat="31.5665883" lon="-110.7618364"></trkpt>
    <trkpt lat="31.5665073" lon="-110.7616973"></trkpt>
    <trkpt lat="31.5664196" lon="-110.7614337"></trkpt>
    <trkpt lat="31.5663289" lon="-110.7611069"></trkpt>
    <trkpt lat="31.566255" lon="-110.7608614"></trkpt>
    <trkpt lat="31.5661781" lon="-110.7607079"></trkpt>
    <trkpt lat="31.5660874" lon="-110.7605779"></trkpt>
    <trkpt lat="31.5659535" lon="-110.7604552"></trkpt>
    <trkpt lat="31.5657013" lon="-110.7602765"></trkpt>
    <trkpt lat="31.5655028" lon="-110.7601176"></trkpt>
    <trkpt lat="31.5653721" lon="-110.7599713"></trkpt>
    <trkpt lat="31.5652521" lon="-110.7597836"></trkpt>
    <trkpt lat="31.5651798" lon="-110.7596121"></trkpt>
    <trkpt lat="31.5651352" lon="-110.7594334"></trkpt>
    <trkpt lat="31.5650644" lon="-110.7590795"></trkpt>
    <trkpt lat="31.5650091" lon="-110.7588502"></trkpt>
    <trkpt lat="31.5649414" lon="-110.758695"></trkpt>
    <trkpt lat="31.5648491" lon="-110.7585794"></trkpt>
    <trkpt lat="31.5646768" lon="-110.7584675"></trkpt>
    <trkpt lat="31.5643968" lon="-110.7583664"></trkpt>
    <trkpt lat="31.5642015" lon="-110.7582924"></trkpt>
    <trkpt lat="31.5640764" lon="-110.7582273"></trkpt>
    <trkpt lat="31.5639915" lon="-110.7581622"></trkpt>
    <trkpt lat="31.5638871" lon="-110.7580549"></trkpt>
    <trkpt lat="31.5637762" lon="-110.7578864"></trkpt>
    <trkpt lat="31.5636283" lon="-110.7576388"></trkpt>
    <trkpt lat="31.563526" lon="-110.7574754"></trkpt>
    <trkpt lat="31.5634085" lon="-110.7573171"></trkpt>
    <trkpt lat="31.5632824" lon="-110.7571843"></trkpt>
    <trkpt lat="31.5632019" lon="-110.7570694"></trkpt>
    <trkpt lat="31.5631192" lon="-110.7568958"></trkpt>
    <trkpt lat="31.5630815" lon="-110.7567951"></trkpt>
    <trkpt lat="31.5630365" lon="-110.7566762"></trkpt>
    <trkpt lat="31.562943" lon="-110.7564618"></trkpt>
    <trkpt lat="31.5628866" lon="-110.7563635"></trkpt>
    <trkpt lat="31.5627015" lon="-110.7560431"></trkpt>
    <trkpt lat="31.5625431" lon="-110.7557488"></trkpt>
    <trkpt lat="31.5624123" lon="-110.755561"></trkpt>
    <trkpt lat="31.562097" lon="-110.7552325"></trkpt>
    <trkpt lat="31.5617539" lon="-110.754866"></trkpt>
    <trkpt lat="31.5614586" lon="-110.7545771"></trkpt>
    <trkpt lat="31.5613201" lon="-110.7544327"></trkpt>
    <trkpt lat="31.561174" lon="-110.7542521"></trkpt>
    <trkpt lat="31.5609556" lon="-110.7538947"></trkpt>
    <trkpt lat="31.5605354" lon="-110.7531897"></trkpt>
    <trkpt lat="31.5596682" lon="-110.7518218"></trkpt>
    <trkpt lat="31.5595616" lon="-110.751666"></trkpt>
    <trkpt lat="31.5594397" lon="-110.7515256"></trkpt>
    <trkpt lat="31.5592613" lon="-110.7513494"></trkpt>
    <trkpt lat="31.559096" lon="-110.7512218"></trkpt>
    <trkpt lat="31.558972" lon="-110.7511477"></trkpt>
    <trkpt lat="31.5588502" lon="-110.7510839"></trkpt>
    <trkpt lat="31.5584586" lon="-110.7509231"></trkpt>
    <trkpt lat="31.5580648" lon="-110.7507546"></trkpt>
    <trkpt lat="31.5578457" lon="-110.7506391"></trkpt>
    <trkpt lat="31.5576477" lon="-110.7505319"></trkpt>
    <trkpt lat="31.5574628" lon="-110.750371"></trkpt>
    <trkpt lat="31.5573083" lon="-110.7501897"></trkpt>
    <trkpt lat="31.5572104" lon="-110.7500468"></trkpt>
    <trkpt lat="31.557133" lon="-110.7499154"></trkpt>
    <trkpt lat="31.5570712" lon="-110.7498119"></trkpt>
    <trkpt lat="31.5569791" lon="-110.749658"></trkpt>
    <trkpt lat="31.5569114" lon="-110.7495497"></trkpt>
    <trkpt lat="31.5568468" lon="-110.7494865"></trkpt>
    <trkpt lat="31.556756" lon="-110.7494342"></trkpt>
    <trkpt lat="31.5566607" lon="-110.7494161"></trkpt>
    <trkpt lat="31.5565222" lon="-110.7494089"></trkpt>
    <trkpt lat="31.5563961" lon="-110.7494143"></trkpt>
    <trkpt lat="31.5562807" lon="-110.7493872"></trkpt>
    <trkpt lat="31.5561222" lon="-110.749315"></trkpt>
    <trkpt lat="31.5559222" lon="-110.7491995"></trkpt>
    <trkpt lat="31.5556161" lon="-110.7489937"></trkpt>
    <trkpt lat="31.5554269" lon="-110.7488619"></trkpt>
    <trkpt lat="31.5553218" lon="-110.7487963"></trkpt>
    <trkpt lat="31.5552253" lon="-110.7487373"></trkpt>
    <trkpt lat="31.5550915" lon="-110.7486669"></trkpt>
    <trkpt lat="31.5549838" lon="-110.7486308"></trkpt>
    <trkpt lat="31.5548854" lon="-110.7486434"></trkpt>
    <trkpt lat="31.5546515" lon="-110.7487102"></trkpt>
    <trkpt lat="31.5545115" lon="-110.7487716"></trkpt>
    <trkpt lat="31.5543792" lon="-110.7487879"></trkpt>
    <trkpt lat="31.55425" lon="-110.748777"></trkpt>
    <trkpt lat="31.5541115" lon="-110.7487193"></trkpt>
    <trkpt lat="31.5539608" lon="-110.7486362"></trkpt>
    <trkpt lat="31.5538546" lon="-110.7485802"></trkpt>
    <trkpt lat="31.5537423" lon="-110.7485387"></trkpt>
    <trkpt lat="31.5536131" lon="-110.7485243"></trkpt>
    <trkpt lat="31.5534946" lon="-110.7485279"></trkpt>
    <trkpt lat="31.5534008" lon="-110.7485459"></trkpt>
    <trkpt lat="31.5532792" lon="-110.7485947"></trkpt>
    <trkpt lat="31.5527669" lon="-110.7488601"></trkpt>
    <trkpt lat="31.5526331" lon="-110.7489142"></trkpt>
    <trkpt lat="31.5524531" lon="-110.7489666"></trkpt>
    <trkpt lat="31.5520311" lon="-110.7490889"></trkpt>
    <trkpt lat="31.551671" lon="-110.7491926"></trkpt>
    <trkpt lat="31.5513857" lon="-110.7493034"></trkpt>
    <trkpt lat="31.551217" lon="-110.7493842"></trkpt>
    <trkpt lat="31.5509741" lon="-110.749597"></trkpt>
    <trkpt lat="31.5507727" lon="-110.7497554"></trkpt>
    <trkpt lat="31.550671" lon="-110.7497902"></trkpt>
    <trkpt lat="31.5506427" lon="-110.7497953"></trkpt>
    <trkpt lat="31.5505704" lon="-110.749809"></trkpt>
    <trkpt lat="31.5504431" lon="-110.7498208"></trkpt>
    <trkpt lat="31.5500007" lon="-110.7498737"></trkpt>
    <trkpt lat="31.54979" lon="-110.7498918"></trkpt>
    <trkpt lat="31.5486091" lon="-110.7500581"></trkpt>
    <trkpt lat="31.548427" lon="-110.7500708"></trkpt>
    <trkpt lat="31.5478797" lon="-110.7501498"></trkpt>
    <trkpt lat="31.5474427" lon="-110.7502"></trkpt>
    <trkpt lat="31.5471718" lon="-110.750241"></trkpt>
    <trkpt lat="31.5469661" lon="-110.7502643"></trkpt>
    <trkpt lat="31.54688" lon="-110.7502607"></trkpt>
    <trkpt lat="31.5467813" lon="-110.7502305"></trkpt>
    <trkpt lat="31.5466709" lon="-110.750176"></trkpt>
    <trkpt lat="31.5463516" lon="-110.7499538"></trkpt>
    <trkpt lat="31.5459322" lon="-110.7496429"></trkpt>
    <trkpt lat="31.5457865" lon="-110.7499173"></trkpt>
    <trkpt lat="31.5455646" lon="-110.750295"></trkpt>
    <trkpt lat="31.5454298" lon="-110.7505068"></trkpt>
    <trkpt lat="31.5453199" lon="-110.7507135"></trkpt>
    <trkpt lat="31.5452821" lon="-110.7507869"></trkpt>
    <trkpt lat="31.5452416" lon="-110.7508667"></trkpt>
    <trkpt lat="31.5450971" lon="-110.7511421"></trkpt>
    <trkpt lat="31.544762" lon="-110.7517331"></trkpt>
    <trkpt lat="31.5446579" lon="-110.7519094"></trkpt>
    <trkpt lat="31.5445152" lon="-110.7521274"></trkpt>
    <trkpt lat="31.544392" lon="-110.7523148"></trkpt>
    <trkpt lat="31.5440228" lon="-110.7520013"></trkpt>
    <trkpt lat="31.5439361" lon="-110.7519362"></trkpt>
    <trkpt lat="31.5437281" lon="-110.7517807"></trkpt>
    <trkpt lat="31.5435611" lon="-110.7516562"></trkpt>
    <trkpt lat="31.5433123" lon="-110.7515071"></trkpt>
    <trkpt lat="31.5431818" lon="-110.7514019"></trkpt>
    <trkpt lat="31.542821" lon="-110.7511105"></trkpt>
    <trkpt lat="31.5424889" lon="-110.7508342"></trkpt>
    <trkpt lat="31.5424089" lon="-110.7508113"></trkpt>
    <trkpt lat="31.5423695" lon="-110.7507041"></trkpt>
    <trkpt lat="31.5421417" lon="-110.7511149"></trkpt>
    <trkpt lat="31.5416769" lon="-110.751961"></trkpt>
    <trkpt lat="31.5415866" lon="-110.75189"></trkpt>
  </trkseg></trk>
</gpx>
