<?xml version="1.0" encoding="UTF-8"?>
<gpx xmlns="http://www.topografix.com/GPX/1/1" version="1.1" creator="az-planning">
  <metadata><name>Catalina Highway: Summerhaven General Store -&gt; below Soldier Camp (OSM, DEM elevations)</name></metadata>
  <trk><name>Catalina Highway: Summerhaven General Store -&gt; below Soldier Camp (OSM, DEM elevations)</name><trkseg>
    <trkpt lat="32.445114" lon="-110.760492"><ele>2378.6</ele></trkpt>
    <trkpt lat="32.445159" lon="-110.760473"><ele>2379.5</ele></trkpt>
    <trkpt lat="32.445255" lon="-110.760440"><ele>2381.1</ele></trkpt>
    <trkpt lat="32.445352" lon="-110.760392"><ele>2382.6</ele></trkpt>
    <trkpt lat="32.445448" lon="-110.760337"><ele>2384.0</ele></trkpt>
    <trkpt lat="32.445566" lon="-110.760247"><ele>2386.1</ele></trkpt>
    <trkpt lat="32.445662" lon="-110.760152"><ele>2387.3</ele></trkpt>
    <trkpt lat="32.445744" lon="-110.760068"><ele>2387.9</ele></trkpt>
    <trkpt lat="32.445825" lon="-110.759967"><ele>2389.1</ele></trkpt>
    <trkpt lat="32.445916" lon="-110.759823"><ele>2390.5</ele></trkpt>
    <trkpt lat="32.445992" lon="-110.759669"><ele>2391.2</ele></trkpt>
    <trkpt lat="32.446037" lon="-110.759536"><ele>2391.3</ele></trkpt>
    <trkpt lat="32.446120" lon="-110.759287"><ele>2393.2</ele></trkpt>
    <trkpt lat="32.446280" lon="-110.758798"><ele>2396.1</ele></trkpt>
    <trkpt lat="32.446355" lon="-110.758585"><ele>2396.6</ele></trkpt>
    <trkpt lat="32.446437" lon="-110.758402"><ele>2397.4</ele></trkpt>
    <trkpt lat="32.446484" lon="-110.758305"><ele>2397.4</ele></trkpt>
    <trkpt lat="32.446618" lon="-110.758004"><ele>2396.6</ele></trkpt>
    <trkpt lat="32.446813" lon="-110.757661"><ele>2399.3</ele></trkpt>
    <trkpt lat="32.447068" lon="-110.757278"><ele>2402.6</ele></trkpt>
    <trkpt lat="32.447524" lon="-110.756630"><ele>2403.7</ele></trkpt>
    <trkpt lat="32.447857" lon="-110.756150"><ele>2404.6</ele></trkpt>
    <trkpt lat="32.447927" lon="-110.756033"><ele>2404.4</ele></trkpt>
    <trkpt lat="32.448000" lon="-110.755888"><ele>2404.3</ele></trkpt>
    <trkpt lat="32.448064" lon="-110.755714"><ele>2404.8</ele></trkpt>
    <trkpt lat="32.448129" lon="-110.755452"><ele>2407.4</ele></trkpt>
    <trkpt lat="32.448147" lon="-110.755308"><ele>2409.7</ele></trkpt>
    <trkpt lat="32.448160" lon="-110.755105"><ele>2410.7</ele></trkpt>
    <trkpt lat="32.448140" lon="-110.754889"><ele>2411.2</ele></trkpt>
    <trkpt lat="32.448105" lon="-110.754697"><ele>2411.9</ele></trkpt>
    <trkpt lat="32.448036" lon="-110.754472"><ele>2411.7</ele></trkpt>
    <trkpt lat="32.447958" lon="-110.754265"><ele>2409.3</ele></trkpt>
    <trkpt lat="32.447805" lon="-110.754041"><ele>2409.4</ele></trkpt>
    <trkpt lat="32.447696" lon="-110.753909"><ele>2409.6</ele></trkpt>
    <trkpt lat="32.447505" lon="-110.753715"><ele>2409.5</ele></trkpt>
    <trkpt lat="32.447367" lon="-110.753614"><ele>2409.7</ele></trkpt>
    <trkpt lat="32.447142" lon="-110.753522"><ele>2410.8</ele></trkpt>
    <trkpt lat="32.446988" lon="-110.753460"><ele>2410.8</ele></trkpt>
    <trkpt lat="32.445898" lon="-110.753108"><ele>2416.1</ele></trkpt>
    <trkpt lat="32.445733" lon="-110.753080"><ele>2417.2</ele></trkpt>
    <trkpt lat="32.445580" lon="-110.753064"><ele>2418.4</ele></trkpt>
    <trkpt lat="32.445411" lon="-110.753062"><ele>2419.2</ele></trkpt>
    <trkpt lat="32.445203" lon="-110.753092"><ele>2418.3</ele></trkpt>
    <trkpt lat="32.444991" lon="-110.753128"><ele>2417.6</ele></trkpt>
    <trkpt lat="32.444643" lon="-110.753190"><ele>2416.4</ele></trkpt>
    <trkpt lat="32.444100" lon="-110.753294"><ele>2418.3</ele></trkpt>
    <trkpt lat="32.443926" lon="-110.753324"><ele>2420.1</ele></trkpt>
    <trkpt lat="32.443732" lon="-110.753342"><ele>2421.5</ele></trkpt>
    <trkpt lat="32.443586" lon="-110.753343"><ele>2424.6</ele></trkpt>
    <trkpt lat="32.443194" lon="-110.753312"><ele>2431.8</ele></trkpt>
    <trkpt lat="32.442963" lon="-110.753285"><ele>2434.3</ele></trkpt>
    <trkpt lat="32.442752" lon="-110.753264"><ele>2436.7</ele></trkpt>
    <trkpt lat="32.442515" lon="-110.753226"><ele>2439.0</ele></trkpt>
    <trkpt lat="32.442392" lon="-110.753185"><ele>2439.4</ele></trkpt>
    <trkpt lat="32.442221" lon="-110.753125"><ele>2440.6</ele></trkpt>
    <trkpt lat="32.441889" lon="-110.752854"><ele>2439.5</ele></trkpt>
    <trkpt lat="32.441545" lon="-110.752711"><ele>2440.5</ele></trkpt>
    <trkpt lat="32.441349" lon="-110.752598"><ele>2441.2</ele></trkpt>
    <trkpt lat="32.441069" lon="-110.752481"><ele>2441.4</ele></trkpt>
    <trkpt lat="32.440966" lon="-110.752469"><ele>2441.6</ele></trkpt>
    <trkpt lat="32.440642" lon="-110.752423"><ele>2440.4</ele></trkpt>
    <trkpt lat="32.440281" lon="-110.752414"><ele>2438.2</ele></trkpt>
    <trkpt lat="32.437145" lon="-110.752347"><ele>2427.9</ele></trkpt>
    <trkpt lat="32.435661" lon="-110.752318"><ele>2430.1</ele></trkpt>
    <trkpt lat="32.435425" lon="-110.752313"><ele>2430.0</ele></trkpt>
    <trkpt lat="32.435315" lon="-110.752301"><ele>2429.7</ele></trkpt>
    <trkpt lat="32.435011" lon="-110.752265"><ele>2428.6</ele></trkpt>
    <trkpt lat="32.434709" lon="-110.752167"><ele>2427.9</ele></trkpt>
    <trkpt lat="32.434100" lon="-110.751913"><ele>2429.0</ele></trkpt>
    <trkpt lat="32.433508" lon="-110.751450"><ele>2423.6</ele></trkpt>
    <trkpt lat="32.433122" lon="-110.750951"><ele>2418.6</ele></trkpt>
    <trkpt lat="32.432858" lon="-110.750463"><ele>2426.3</ele></trkpt>
    <trkpt lat="32.432341" lon="-110.749010"><ele>2430.8</ele></trkpt>
    <trkpt lat="32.431720" lon="-110.747857"><ele>2413.6</ele></trkpt>
    <trkpt lat="32.431551" lon="-110.747236"><ele>2407.5</ele></trkpt>
    <trkpt lat="32.431349" lon="-110.746103"><ele>2404.8</ele></trkpt>
    <trkpt lat="32.431270" lon="-110.745854"><ele>2403.6</ele></trkpt>
    <trkpt lat="32.431030" lon="-110.745423"><ele>2400.7</ele></trkpt>
    <trkpt lat="32.430566" lon="-110.744900"><ele>2396.7</ele></trkpt>
    <trkpt lat="32.429948" lon="-110.744372"><ele>2394.7</ele></trkpt>
    <trkpt lat="32.429548" lon="-110.743908"><ele>2387.7</ele></trkpt>
    <trkpt lat="32.428260" lon="-110.742019"><ele>2361.5</ele></trkpt>
    <trkpt lat="32.427785" lon="-110.741535"><ele>2353.6</ele></trkpt>
    <trkpt lat="32.427143" lon="-110.741045"><ele>2354.4</ele></trkpt>
    <trkpt lat="32.426864" lon="-110.740869"><ele>2353.8</ele></trkpt>
    <trkpt lat="32.426567" lon="-110.740681"><ele>2359.6</ele></trkpt>
    <trkpt lat="32.426146" lon="-110.740263"><ele>2368.1</ele></trkpt>
    <trkpt lat="32.425668" lon="-110.739605"><ele>2367.9</ele></trkpt>
    <trkpt lat="32.424948" lon="-110.738602"><ele>2385.8</ele></trkpt>
    <trkpt lat="32.424479" lon="-110.737733"><ele>2390.9</ele></trkpt>
    <trkpt lat="32.424306" lon="-110.737165"><ele>2392.1</ele></trkpt>
    <trkpt lat="32.424210" lon="-110.736684"><ele>2392.4</ele></trkpt>
    <trkpt lat="32.424154" lon="-110.736208"><ele>2389.1</ele></trkpt>
    <trkpt lat="32.424153" lon="-110.735675"><ele>2388.3</ele></trkpt>
    <trkpt lat="32.424146" lon="-110.735498"><ele>2388.9</ele></trkpt>
    <trkpt lat="32.424124" lon="-110.735317"><ele>2389.4</ele></trkpt>
    <trkpt lat="32.424078" lon="-110.735200"><ele>2391.2</ele></trkpt>
    <trkpt lat="32.423941" lon="-110.734996"><ele>2394.6</ele></trkpt>
    <trkpt lat="32.423786" lon="-110.734873"><ele>2397.1</ele></trkpt>
    <trkpt lat="32.423654" lon="-110.734820"><ele>2398.0</ele></trkpt>
    <trkpt lat="32.423492" lon="-110.734803"><ele>2398.6</ele></trkpt>
    <trkpt lat="32.423333" lon="-110.734833"><ele>2403.4</ele></trkpt>
    <trkpt lat="32.423226" lon="-110.734885"><ele>2408.1</ele></trkpt>
    <trkpt lat="32.423100" lon="-110.734998"><ele>2413.8</ele></trkpt>
    <trkpt lat="32.422933" lon="-110.735251"><ele>2421.8</ele></trkpt>
    <trkpt lat="32.422888" lon="-110.735444"><ele>2421.0</ele></trkpt>
    <trkpt lat="32.422890" lon="-110.735668"><ele>2415.3</ele></trkpt>
    <trkpt lat="32.423193" lon="-110.736614"><ele>2421.3</ele></trkpt>
    <trkpt lat="32.423705" lon="-110.738089"><ele>2438.6</ele></trkpt>
    <trkpt lat="32.423746" lon="-110.738312"><ele>2438.9</ele></trkpt>
    <trkpt lat="32.423759" lon="-110.738497"><ele>2440.4</ele></trkpt>
    <trkpt lat="32.423739" lon="-110.738679"><ele>2443.4</ele></trkpt>
    <trkpt lat="32.423673" lon="-110.738878"><ele>2443.0</ele></trkpt>
    <trkpt lat="32.423576" lon="-110.739065"><ele>2439.6</ele></trkpt>
    <trkpt lat="32.423442" lon="-110.739242"><ele>2436.0</ele></trkpt>
    <trkpt lat="32.423309" lon="-110.739326"><ele>2433.8</ele></trkpt>
    <trkpt lat="32.423155" lon="-110.739390"><ele>2431.9</ele></trkpt>
    <trkpt lat="32.422971" lon="-110.739409"><ele>2432.1</ele></trkpt>
    <trkpt lat="32.422376" lon="-110.739406"><ele>2445.4</ele></trkpt>
    <trkpt lat="32.422118" lon="-110.739438"><ele>2451.9</ele></trkpt>
    <trkpt lat="32.421785" lon="-110.739540"><ele>2458.3</ele></trkpt>
    <trkpt lat="32.421271" lon="-110.739773"><ele>2455.9</ele></trkpt>
    <trkpt lat="32.420782" lon="-110.739981"><ele>2450.4</ele></trkpt>
    <trkpt lat="32.420540" lon="-110.740015"><ele>2450.6</ele></trkpt>
    <trkpt lat="32.420284" lon="-110.739983"><ele>2446.4</ele></trkpt>
    <trkpt lat="32.419971" lon="-110.739884"><ele>2441.3</ele></trkpt>
    <trkpt lat="32.419777" lon="-110.739787"><ele>2436.9</ele></trkpt>
    <trkpt lat="32.419591" lon="-110.739639"><ele>2433.9</ele></trkpt>
    <trkpt lat="32.419401" lon="-110.739429"><ele>2432.9</ele></trkpt>
    <trkpt lat="32.418633" lon="-110.738304"><ele>2438.6</ele></trkpt>
    <trkpt lat="32.418289" lon="-110.737724"><ele>2439.4</ele></trkpt>
    <trkpt lat="32.417977" lon="-110.737309"><ele>2445.4</ele></trkpt>
    <trkpt lat="32.417658" lon="-110.736985"><ele>2453.4</ele></trkpt>
    <trkpt lat="32.417274" lon="-110.736773"><ele>2456.4</ele></trkpt>
    <trkpt lat="32.416290" lon="-110.736464"><ele>2456.2</ele></trkpt>
    <trkpt lat="32.416061" lon="-110.736375"><ele>2454.9</ele></trkpt>
    <trkpt lat="32.415846" lon="-110.736236"><ele>2453.9</ele></trkpt>
    <trkpt lat="32.415684" lon="-110.736052"><ele>2453.5</ele></trkpt>
    <trkpt lat="32.415583" lon="-110.735880"><ele>2451.0</ele></trkpt>
    <trkpt lat="32.415510" lon="-110.735667"><ele>2447.5</ele></trkpt>
    <trkpt lat="32.415479" lon="-110.735502"><ele>2445.4</ele></trkpt>
    <trkpt lat="32.415475" lon="-110.735296"><ele>2443.5</ele></trkpt>
    <trkpt lat="32.415514" lon="-110.734893"><ele>2439.6</ele></trkpt>
    <trkpt lat="32.415701" lon="-110.733592"><ele>2449.9</ele></trkpt>
    <trkpt lat="32.415721" lon="-110.733368"><ele>2452.4</ele></trkpt>
    <trkpt lat="32.415729" lon="-110.733206"><ele>2454.7</ele></trkpt>
    <trkpt lat="32.415703" lon="-110.733020"><ele>2458.2</ele></trkpt>
    <trkpt lat="32.415639" lon="-110.732766"><ele>2462.7</ele></trkpt>
    <trkpt lat="32.415555" lon="-110.732564"><ele>2466.0</ele></trkpt>
    <trkpt lat="32.415437" lon="-110.732371"><ele>2471.0</ele></trkpt>
    <trkpt lat="32.415348" lon="-110.732262"><ele>2473.4</ele></trkpt>
    <trkpt lat="32.415164" lon="-110.732118"><ele>2479.2</ele></trkpt>
    <trkpt lat="32.415052" lon="-110.732035"><ele>2482.3</ele></trkpt>
    <trkpt lat="32.414903" lon="-110.731978"><ele>2484.3</ele></trkpt>
    <trkpt lat="32.414708" lon="-110.731927"><ele>2486.2</ele></trkpt>
    <trkpt lat="32.414243" lon="-110.731894"><ele>2491.2</ele></trkpt>
    <trkpt lat="32.414026" lon="-110.731860"><ele>2491.8</ele></trkpt>
    <trkpt lat="32.413731" lon="-110.731785"><ele>2490.8</ele></trkpt>
    <trkpt lat="32.413291" lon="-110.731613"><ele>2486.0</ele></trkpt>
    <trkpt lat="32.413054" lon="-110.731473"><ele>2483.6</ele></trkpt>
  </trkseg></trk>
</gpx>
