<?xml version="1.0" encoding="UTF-8"?>
<gpx xmlns="http://www.topografix.com/GPX/1/1" version="1.1" creator="az-planning">
  <metadata><name>Kelvin bridge / ADOT yard -&gt; Kearny (OSM)</name></metadata>
  <trk><name>Kelvin bridge / ADOT yard -&gt; Kearny (OSM)</name><trkseg>
    <trkpt lat="33.105896" lon="-110.973932"></trkpt>
    <trkpt lat="33.106116" lon="-110.973946"></trkpt>
    <trkpt lat="33.106593" lon="-110.974007"></trkpt>
    <trkpt lat="33.107242" lon="-110.974060"></trkpt>
    <trkpt lat="33.107236" lon="-110.973902"></trkpt>
    <trkpt lat="33.107230" lon="-110.973777"></trkpt>
    <trkpt lat="33.107038" lon="-110.973755"></trkpt>
    <trkpt lat="33.106859" lon="-110.973736"></trkpt>
    <trkpt lat="33.106663" lon="-110.973689"></trkpt>
    <trkpt lat="33.106469" lon="-110.973611"></trkpt>
    <trkpt lat="33.106249" lon="-110.973519"></trkpt>
    <trkpt lat="33.106047" lon="-110.973393"></trkpt>
    <trkpt lat="33.105882" lon="-110.973277"></trkpt>
    <trkpt lat="33.105731" lon="-110.973145"></trkpt>
    <trkpt lat="33.105587" lon="-110.972994"></trkpt>
    <trkpt lat="33.105414" lon="-110.972825"></trkpt>
    <trkpt lat="33.105284" lon="-110.972616"></trkpt>
    <trkpt lat="33.105194" lon="-110.972428"></trkpt>
    <trkpt lat="33.105154" lon="-110.972305"></trkpt>
    <trkpt lat="33.105122" lon="-110.972138"></trkpt>
    <trkpt lat="33.105118" lon="-110.972020"></trkpt>
    <trkpt lat="33.105149" lon="-110.971870"></trkpt>
    <trkpt lat="33.105190" lon="-110.971747"></trkpt>
    <trkpt lat="33.105230" lon="-110.971613"></trkpt>
    <trkpt lat="33.105458" lon="-110.971015"></trkpt>
    <trkpt lat="33.105540" lon="-110.970846"></trkpt>
    <trkpt lat="33.105634" lon="-110.970717"></trkpt>
    <trkpt lat="33.105706" lon="-110.970615"></trkpt>
    <trkpt lat="33.106002" lon="-110.970285"></trkpt>
    <trkpt lat="33.106379" lon="-110.969846"></trkpt>
    <trkpt lat="33.106482" lon="-110.969711"></trkpt>
    <trkpt lat="33.106545" lon="-110.969566"></trkpt>
    <trkpt lat="33.106595" lon="-110.969438"></trkpt>
    <trkpt lat="33.106635" lon="-110.969288"></trkpt>
    <trkpt lat="33.106951" lon="-110.967927"></trkpt>
    <trkpt lat="33.107035" lon="-110.967480"></trkpt>
    <trkpt lat="33.107103" lon="-110.967158"></trkpt>
    <trkpt lat="33.107158" lon="-110.966828"></trkpt>
    <trkpt lat="33.107188" lon="-110.966627"></trkpt>
    <trkpt lat="33.107194" lon="-110.966485"></trkpt>
    <trkpt lat="33.107189" lon="-110.966313"></trkpt>
    <trkpt lat="33.107153" lon="-110.966179"></trkpt>
    <trkpt lat="33.107108" lon="-110.966013"></trkpt>
    <trkpt lat="33.107032" lon="-110.965766"></trkpt>
    <trkpt lat="33.106987" lon="-110.965562"></trkpt>
    <trkpt lat="33.106969" lon="-110.965412"></trkpt>
    <trkpt lat="33.106955" lon="-110.965213"></trkpt>
    <trkpt lat="33.106969" lon="-110.965020"></trkpt>
    <trkpt lat="33.107027" lon="-110.964511"></trkpt>
    <trkpt lat="33.107203" lon="-110.963711"></trkpt>
    <trkpt lat="33.107364" lon="-110.963121"></trkpt>
    <trkpt lat="33.107476" lon="-110.962797"></trkpt>
    <trkpt lat="33.107624" lon="-110.962276"></trkpt>
    <trkpt lat="33.107796" lon="-110.961812"></trkpt>
    <trkpt lat="33.108259" lon="-110.960600"></trkpt>
    <trkpt lat="33.108407" lon="-110.960165"></trkpt>
    <trkpt lat="33.108515" lon="-110.959897"></trkpt>
    <trkpt lat="33.108626" lon="-110.959664"></trkpt>
    <trkpt lat="33.108689" lon="-110.959476"></trkpt>
    <trkpt lat="33.108720" lon="-110.959261"></trkpt>
    <trkpt lat="33.108753" lon="-110.959103"></trkpt>
    <trkpt lat="33.108801" lon="-110.958950"></trkpt>
    <trkpt lat="33.108861" lon="-110.958851"></trkpt>
    <trkpt lat="33.108928" lon="-110.958744"></trkpt>
    <trkpt lat="33.109027" lon="-110.958631"></trkpt>
    <trkpt lat="33.109112" lon="-110.958540"></trkpt>
    <trkpt lat="33.109211" lon="-110.958460"></trkpt>
    <trkpt lat="33.109281" lon="-110.958379"></trkpt>
    <trkpt lat="33.109305" lon="-110.958320"></trkpt>
    <trkpt lat="33.109319" lon="-110.958197"></trkpt>
    <trkpt lat="33.109301" lon="-110.958132"></trkpt>
    <trkpt lat="33.109252" lon="-110.958062"></trkpt>
    <trkpt lat="33.109175" lon="-110.958004"></trkpt>
    <trkpt lat="33.109072" lon="-110.957977"></trkpt>
    <trkpt lat="33.108955" lon="-110.957944"></trkpt>
    <trkpt lat="33.108820" lon="-110.957891"></trkpt>
    <trkpt lat="33.108726" lon="-110.957837"></trkpt>
    <trkpt lat="33.108681" lon="-110.957741"></trkpt>
    <trkpt lat="33.108632" lon="-110.957580"></trkpt>
    <trkpt lat="33.108308" lon="-110.956775"></trkpt>
    <trkpt lat="33.108254" lon="-110.956668"></trkpt>
    <trkpt lat="33.108227" lon="-110.956544"></trkpt>
    <trkpt lat="33.108200" lon="-110.956384"></trkpt>
    <trkpt lat="33.108160" lon="-110.956222"></trkpt>
    <trkpt lat="33.108097" lon="-110.956062"></trkpt>
    <trkpt lat="33.108007" lon="-110.955922"></trkpt>
    <trkpt lat="33.107904" lon="-110.955799"></trkpt>
    <trkpt lat="33.107796" lon="-110.955697"></trkpt>
    <trkpt lat="33.107701" lon="-110.955579"></trkpt>
    <trkpt lat="33.107621" lon="-110.955455"></trkpt>
    <trkpt lat="33.107594" lon="-110.955343"></trkpt>
    <trkpt lat="33.107585" lon="-110.955256"></trkpt>
    <trkpt lat="33.107577" lon="-110.955167"></trkpt>
    <trkpt lat="33.107578" lon="-110.954849"></trkpt>
    <trkpt lat="33.107567" lon="-110.954691"></trkpt>
    <trkpt lat="33.107525" lon="-110.954551"></trkpt>
    <trkpt lat="33.107468" lon="-110.954356"></trkpt>
    <trkpt lat="33.107451" lon="-110.954260"></trkpt>
    <trkpt lat="33.107454" lon="-110.954173"></trkpt>
    <trkpt lat="33.107463" lon="-110.954066"></trkpt>
    <trkpt lat="33.107498" lon="-110.953956"></trkpt>
    <trkpt lat="33.107571" lon="-110.953755"></trkpt>
    <trkpt lat="33.107728" lon="-110.953487"></trkpt>
    <trkpt lat="33.107832" lon="-110.953240"></trkpt>
    <trkpt lat="33.107880" lon="-110.953092"></trkpt>
    <trkpt lat="33.107895" lon="-110.952961"></trkpt>
    <trkpt lat="33.107895" lon="-110.952859"></trkpt>
    <trkpt lat="33.107886" lon="-110.952763"></trkpt>
    <trkpt lat="33.107827" lon="-110.952655"></trkpt>
    <trkpt lat="33.107751" lon="-110.952575"></trkpt>
    <trkpt lat="33.107305" lon="-110.952298"></trkpt>
    <trkpt lat="33.106825" lon="-110.952033"></trkpt>
    <trkpt lat="33.106645" lon="-110.951969"></trkpt>
    <trkpt lat="33.106515" lon="-110.951952"></trkpt>
    <trkpt lat="33.106402" lon="-110.951971"></trkpt>
    <trkpt lat="33.106289" lon="-110.951998"></trkpt>
    <trkpt lat="33.104956" lon="-110.952419"></trkpt>
    <trkpt lat="33.104871" lon="-110.952441"></trkpt>
    <trkpt lat="33.104754" lon="-110.952451"></trkpt>
    <trkpt lat="33.104588" lon="-110.952451"></trkpt>
    <trkpt lat="33.103891" lon="-110.952392"></trkpt>
    <trkpt lat="33.103716" lon="-110.952365"></trkpt>
    <trkpt lat="33.103594" lon="-110.952317"></trkpt>
    <trkpt lat="33.103451" lon="-110.952274"></trkpt>
    <trkpt lat="33.103356" lon="-110.952264"></trkpt>
    <trkpt lat="33.103199" lon="-110.952274"></trkpt>
    <trkpt lat="33.103069" lon="-110.952280"></trkpt>
    <trkpt lat="33.102947" lon="-110.952274"></trkpt>
    <trkpt lat="33.102795" lon="-110.952258"></trkpt>
    <trkpt lat="33.102763" lon="-110.952242"></trkpt>
    <trkpt lat="33.102674" lon="-110.952197"></trkpt>
    <trkpt lat="33.102592" lon="-110.952129"></trkpt>
    <trkpt lat="33.102556" lon="-110.952038"></trkpt>
    <trkpt lat="33.102554" lon="-110.951959"></trkpt>
    <trkpt lat="33.102560" lon="-110.951877"></trkpt>
    <trkpt lat="33.102608" lon="-110.951761"></trkpt>
    <trkpt lat="33.102901" lon="-110.951090"></trkpt>
    <trkpt lat="33.102913" lon="-110.950948"></trkpt>
    <trkpt lat="33.102890" lon="-110.950850"></trkpt>
    <trkpt lat="33.102851" lon="-110.950798"></trkpt>
    <trkpt lat="33.102817" lon="-110.950775"></trkpt>
    <trkpt lat="33.102763" lon="-110.950783"></trkpt>
    <trkpt lat="33.102723" lon="-110.950792"></trkpt>
    <trkpt lat="33.102652" lon="-110.950825"></trkpt>
    <trkpt lat="33.102600" lon="-110.950863"></trkpt>
    <trkpt lat="33.102502" lon="-110.950975"></trkpt>
    <trkpt lat="33.102397" lon="-110.951101"></trkpt>
    <trkpt lat="33.102332" lon="-110.951171"></trkpt>
    <trkpt lat="33.102246" lon="-110.951196"></trkpt>
    <trkpt lat="33.102174" lon="-110.951169"></trkpt>
    <trkpt lat="33.102131" lon="-110.951125"></trkpt>
    <trkpt lat="33.102094" lon="-110.951051"></trkpt>
    <trkpt lat="33.102074" lon="-110.950934"></trkpt>
    <trkpt lat="33.102093" lon="-110.950779"></trkpt>
    <trkpt lat="33.102139" lon="-110.950643"></trkpt>
    <trkpt lat="33.102184" lon="-110.950540"></trkpt>
    <trkpt lat="33.102496" lon="-110.949984"></trkpt>
    <trkpt lat="33.102524" lon="-110.949884"></trkpt>
    <trkpt lat="33.102543" lon="-110.949762"></trkpt>
    <trkpt lat="33.102520" lon="-110.949592"></trkpt>
    <trkpt lat="33.102485" lon="-110.949474"></trkpt>
    <trkpt lat="33.100723" lon="-110.942457"></trkpt>
    <trkpt lat="33.099734" lon="-110.938638"></trkpt>
    <trkpt lat="33.099644" lon="-110.938278"></trkpt>
    <trkpt lat="33.099609" lon="-110.938123"></trkpt>
    <trkpt lat="33.099598" lon="-110.937970"></trkpt>
    <trkpt lat="33.099573" lon="-110.936921"></trkpt>
    <trkpt lat="33.099566" lon="-110.936350"></trkpt>
    <trkpt lat="33.099514" lon="-110.935736"></trkpt>
    <trkpt lat="33.099492" lon="-110.935586"></trkpt>
    <trkpt lat="33.099447" lon="-110.935393"></trkpt>
    <trkpt lat="33.099393" lon="-110.935189"></trkpt>
    <trkpt lat="33.099348" lon="-110.935049"></trkpt>
    <trkpt lat="33.099307" lon="-110.934953"></trkpt>
    <trkpt lat="33.099283" lon="-110.934894"></trkpt>
    <trkpt lat="33.099280" lon="-110.934813"></trkpt>
    <trkpt lat="33.099289" lon="-110.934733"></trkpt>
    <trkpt lat="33.099326" lon="-110.934669"></trkpt>
    <trkpt lat="33.099227" lon="-110.934548"></trkpt>
    <trkpt lat="33.099047" lon="-110.934340"></trkpt>
    <trkpt lat="33.098620" lon="-110.933898"></trkpt>
    <trkpt lat="33.098222" lon="-110.933534"></trkpt>
    <trkpt lat="33.097901" lon="-110.933267"></trkpt>
    <trkpt lat="33.097458" lon="-110.932927"></trkpt>
    <trkpt lat="33.097227" lon="-110.932760"></trkpt>
    <trkpt lat="33.096944" lon="-110.932578"></trkpt>
    <trkpt lat="33.096512" lon="-110.932323"></trkpt>
    <trkpt lat="33.096099" lon="-110.932109"></trkpt>
    <trkpt lat="33.095568" lon="-110.931837"></trkpt>
    <trkpt lat="33.095435" lon="-110.931777"></trkpt>
    <trkpt lat="33.094288" lon="-110.931248"></trkpt>
    <trkpt lat="33.093069" lon="-110.930704"></trkpt>
    <trkpt lat="33.091549" lon="-110.929999"></trkpt>
    <trkpt lat="33.086840" lon="-110.927847"></trkpt>
    <trkpt lat="33.085981" lon="-110.927431"></trkpt>
    <trkpt lat="33.082878" lon="-110.926015"></trkpt>
    <trkpt lat="33.082587" lon="-110.925875"></trkpt>
    <trkpt lat="33.080975" lon="-110.925138"></trkpt>
    <trkpt lat="33.079821" lon="-110.924615"></trkpt>
    <trkpt lat="33.079701" lon="-110.924551"></trkpt>
    <trkpt lat="33.079317" lon="-110.924364"></trkpt>
    <trkpt lat="33.078821" lon="-110.924154"></trkpt>
    <trkpt lat="33.078526" lon="-110.924002"></trkpt>
    <trkpt lat="33.078043" lon="-110.923739"></trkpt>
    <trkpt lat="33.076945" lon="-110.923063"></trkpt>
    <trkpt lat="33.076721" lon="-110.922891"></trkpt>
    <trkpt lat="33.076255" lon="-110.922531"></trkpt>
    <trkpt lat="33.076027" lon="-110.922355"></trkpt>
    <trkpt lat="33.075159" lon="-110.921585"></trkpt>
    <trkpt lat="33.074314" lon="-110.920759"></trkpt>
    <trkpt lat="33.072691" lon="-110.918985"></trkpt>
    <trkpt lat="33.070442" lon="-110.916581"></trkpt>
    <trkpt lat="33.069838" lon="-110.915875"></trkpt>
    <trkpt lat="33.069355" lon="-110.915342"></trkpt>
    <trkpt lat="33.068862" lon="-110.914845"></trkpt>
    <trkpt lat="33.067712" lon="-110.913579"></trkpt>
    <trkpt lat="33.067615" lon="-110.913467"></trkpt>
    <trkpt lat="33.066831" lon="-110.912630"></trkpt>
    <trkpt lat="33.066690" lon="-110.912479"></trkpt>
    <trkpt lat="33.066218" lon="-110.911976"></trkpt>
    <trkpt lat="33.065497" lon="-110.911184"></trkpt>
    <trkpt lat="33.065200" lon="-110.911528"></trkpt>
    <trkpt lat="33.064644" lon="-110.910815"></trkpt>
    <trkpt lat="33.064476" lon="-110.910599"></trkpt>
    <trkpt lat="33.064104" lon="-110.910198"></trkpt>
    <trkpt lat="33.063099" lon="-110.909114"></trkpt>
    <trkpt lat="33.062134" lon="-110.909777"></trkpt>
    <trkpt lat="33.061973" lon="-110.909686"></trkpt>
    <trkpt lat="33.061845" lon="-110.909573"></trkpt>
    <trkpt lat="33.061503" lon="-110.909480"></trkpt>
    <trkpt lat="33.061067" lon="-110.909313"></trkpt>
    <trkpt lat="33.060274" lon="-110.909054"></trkpt>
    <trkpt lat="33.060134" lon="-110.908778"></trkpt>
    <trkpt lat="33.060233" lon="-110.908648"></trkpt>
    <trkpt lat="33.060694" lon="-110.907030"></trkpt>
    <trkpt lat="33.060424" lon="-110.906868"></trkpt>
    <trkpt lat="33.060068" lon="-110.906655"></trkpt>
    <trkpt lat="33.059744" lon="-110.906440"></trkpt>
    <trkpt lat="33.059283" lon="-110.905895"></trkpt>
    <trkpt lat="33.059008" lon="-110.906261"></trkpt>
    <trkpt lat="33.058683" lon="-110.905930"></trkpt>
    <trkpt lat="33.058809" lon="-110.905728"></trkpt>
  </trkseg></trk>
</gpx>
