<?xml version="1.0" encoding="UTF-8"?>
<gpx xmlns="http://www.topografix.com/GPX/1/1" version="1.1" creator="az-planning">
  <metadata><name>Hwy 77 -&gt; Oracle -&gt; Cody Loop Rd -&gt; South Wildcat Trail -&gt; Cody Trail (OSM)</name></metadata>
  <trk><name>Hwy 77 -&gt; Oracle -&gt; Cody Loop Rd -&gt; South Wildcat Trail -&gt; Cody Trail (OSM)</name><trkseg>
    <trkpt lat="32.631899" lon="-110.739729"></trkpt>
    <trkpt lat="32.632192" lon="-110.739400"></trkpt>
    <trkpt lat="32.632309" lon="-110.739522"></trkpt>
    <trkpt lat="32.632394" lon="-110.739593"></trkpt>
    <trkpt lat="32.632166" lon="-110.739743"></trkpt>
    <trkpt lat="32.632109" lon="-110.739876"></trkpt>
    <trkpt lat="32.632088" lon="-110.739896"></trkpt>
    <trkpt lat="32.632056" lon="-110.739896"></trkpt>
    <trkpt lat="32.632030" lon="-110.739847"></trkpt>
    <trkpt lat="32.632034" lon="-110.739786"></trkpt>
    <trkpt lat="32.631956" lon="-110.739543"></trkpt>
    <trkpt lat="32.631888" lon="-110.739334"></trkpt>
    <trkpt lat="32.631765" lon="-110.739437"></trkpt>
    <trkpt lat="32.631719" lon="-110.739477"></trkpt>
    <trkpt lat="32.631637" lon="-110.739563"></trkpt>
    <trkpt lat="32.631542" lon="-110.739600"></trkpt>
    <trkpt lat="32.631401" lon="-110.739686"></trkpt>
    <trkpt lat="32.631275" lon="-110.739783"></trkpt>
    <trkpt lat="32.631184" lon="-110.739815"></trkpt>
    <trkpt lat="32.631018" lon="-110.739841"></trkpt>
    <trkpt lat="32.630942" lon="-110.739874"></trkpt>
    <trkpt lat="32.630852" lon="-110.739908"></trkpt>
    <trkpt lat="32.630748" lon="-110.739956"></trkpt>
    <trkpt lat="32.630677" lon="-110.740010"></trkpt>
    <trkpt lat="32.630594" lon="-110.740124"></trkpt>
    <trkpt lat="32.630449" lon="-110.740260"></trkpt>
    <trkpt lat="32.630388" lon="-110.740318"></trkpt>
    <trkpt lat="32.630252" lon="-110.740423"></trkpt>
    <trkpt lat="32.630140" lon="-110.740510"></trkpt>
    <trkpt lat="32.630085" lon="-110.740542"></trkpt>
    <trkpt lat="32.630000" lon="-110.740599"></trkpt>
    <trkpt lat="32.629905" lon="-110.740678"></trkpt>
    <trkpt lat="32.629813" lon="-110.740728"></trkpt>
    <trkpt lat="32.629744" lon="-110.740750"></trkpt>
    <trkpt lat="32.629592" lon="-110.740814"></trkpt>
    <trkpt lat="32.629511" lon="-110.740815"></trkpt>
    <trkpt lat="32.629346" lon="-110.740776"></trkpt>
    <trkpt lat="32.629216" lon="-110.740828"></trkpt>
    <trkpt lat="32.629147" lon="-110.740814"></trkpt>
    <trkpt lat="32.629055" lon="-110.740729"></trkpt>
    <trkpt lat="32.628923" lon="-110.740682"></trkpt>
    <trkpt lat="32.628817" lon="-110.740630"></trkpt>
    <trkpt lat="32.628717" lon="-110.740689"></trkpt>
    <trkpt lat="32.628639" lon="-110.740772"></trkpt>
    <trkpt lat="32.628572" lon="-110.740806"></trkpt>
    <trkpt lat="32.628484" lon="-110.740814"></trkpt>
    <trkpt lat="32.628361" lon="-110.740864"></trkpt>
    <trkpt lat="32.628243" lon="-110.740907"></trkpt>
    <trkpt lat="32.628145" lon="-110.740970"></trkpt>
    <trkpt lat="32.628116" lon="-110.741009"></trkpt>
    <trkpt lat="32.628048" lon="-110.741120"></trkpt>
    <trkpt lat="32.627999" lon="-110.741206"></trkpt>
    <trkpt lat="32.627953" lon="-110.741247"></trkpt>
    <trkpt lat="32.627884" lon="-110.741289"></trkpt>
    <trkpt lat="32.627856" lon="-110.741311"></trkpt>
    <trkpt lat="32.627802" lon="-110.741340"></trkpt>
    <trkpt lat="32.627703" lon="-110.741408"></trkpt>
    <trkpt lat="32.627589" lon="-110.741458"></trkpt>
    <trkpt lat="32.627505" lon="-110.741472"></trkpt>
    <trkpt lat="32.627415" lon="-110.741475"></trkpt>
    <trkpt lat="32.627285" lon="-110.741482"></trkpt>
    <trkpt lat="32.627136" lon="-110.741489"></trkpt>
    <trkpt lat="32.627042" lon="-110.741505"></trkpt>
    <trkpt lat="32.626933" lon="-110.741475"></trkpt>
    <trkpt lat="32.626849" lon="-110.741487"></trkpt>
    <trkpt lat="32.626712" lon="-110.741530"></trkpt>
    <trkpt lat="32.626655" lon="-110.741554"></trkpt>
    <trkpt lat="32.626532" lon="-110.741626"></trkpt>
    <trkpt lat="32.626473" lon="-110.741707"></trkpt>
    <trkpt lat="32.626434" lon="-110.741787"></trkpt>
    <trkpt lat="32.626393" lon="-110.741882"></trkpt>
    <trkpt lat="32.626348" lon="-110.741996"></trkpt>
    <trkpt lat="32.626339" lon="-110.742075"></trkpt>
    <trkpt lat="32.626303" lon="-110.742133"></trkpt>
    <trkpt lat="32.626241" lon="-110.742183"></trkpt>
    <trkpt lat="32.626185" lon="-110.742197"></trkpt>
    <trkpt lat="32.626069" lon="-110.742256"></trkpt>
    <trkpt lat="32.626012" lon="-110.742380"></trkpt>
    <trkpt lat="32.625969" lon="-110.742482"></trkpt>
    <trkpt lat="32.625939" lon="-110.742551"></trkpt>
    <trkpt lat="32.625896" lon="-110.742729"></trkpt>
    <trkpt lat="32.625854" lon="-110.742787"></trkpt>
    <trkpt lat="32.625790" lon="-110.742809"></trkpt>
    <trkpt lat="32.625683" lon="-110.742816"></trkpt>
    <trkpt lat="32.625529" lon="-110.742774"></trkpt>
    <trkpt lat="32.625444" lon="-110.742778"></trkpt>
    <trkpt lat="32.625363" lon="-110.742777"></trkpt>
    <trkpt lat="32.625245" lon="-110.742747"></trkpt>
    <trkpt lat="32.625151" lon="-110.742744"></trkpt>
    <trkpt lat="32.625044" lon="-110.742762"></trkpt>
    <trkpt lat="32.624991" lon="-110.742858"></trkpt>
    <trkpt lat="32.625013" lon="-110.743003"></trkpt>
    <trkpt lat="32.625019" lon="-110.743126"></trkpt>
    <trkpt lat="32.624995" lon="-110.743213"></trkpt>
    <trkpt lat="32.625012" lon="-110.743360"></trkpt>
    <trkpt lat="32.624956" lon="-110.743534"></trkpt>
    <trkpt lat="32.624893" lon="-110.743632"></trkpt>
    <trkpt lat="32.624868" lon="-110.743711"></trkpt>
    <trkpt lat="32.624795" lon="-110.743883"></trkpt>
    <trkpt lat="32.624699" lon="-110.743980"></trkpt>
    <trkpt lat="32.624515" lon="-110.744075"></trkpt>
    <trkpt lat="32.624466" lon="-110.744140"></trkpt>
    <trkpt lat="32.624352" lon="-110.744164"></trkpt>
    <trkpt lat="32.624209" lon="-110.744165"></trkpt>
    <trkpt lat="32.624128" lon="-110.744232"></trkpt>
    <trkpt lat="32.624031" lon="-110.744314"></trkpt>
    <trkpt lat="32.623981" lon="-110.744382"></trkpt>
    <trkpt lat="32.623905" lon="-110.744494"></trkpt>
    <trkpt lat="32.623795" lon="-110.744628"></trkpt>
    <trkpt lat="32.623736" lon="-110.744686"></trkpt>
    <trkpt lat="32.623661" lon="-110.744761"></trkpt>
    <trkpt lat="32.623539" lon="-110.744804"></trkpt>
    <trkpt lat="32.623470" lon="-110.744953"></trkpt>
    <trkpt lat="32.623413" lon="-110.745068"></trkpt>
    <trkpt lat="32.623317" lon="-110.745147"></trkpt>
    <trkpt lat="32.623230" lon="-110.745132"></trkpt>
    <trkpt lat="32.623086" lon="-110.745036"></trkpt>
    <trkpt lat="32.623025" lon="-110.744984"></trkpt>
    <trkpt lat="32.622944" lon="-110.744927"></trkpt>
    <trkpt lat="32.622863" lon="-110.744833"></trkpt>
    <trkpt lat="32.622803" lon="-110.744792"></trkpt>
    <trkpt lat="32.622692" lon="-110.744788"></trkpt>
    <trkpt lat="32.622604" lon="-110.744791"></trkpt>
    <trkpt lat="32.622522" lon="-110.744824"></trkpt>
    <trkpt lat="32.622369" lon="-110.744874"></trkpt>
    <trkpt lat="32.622276" lon="-110.744914"></trkpt>
    <trkpt lat="32.622219" lon="-110.744966"></trkpt>
    <trkpt lat="32.622182" lon="-110.745158"></trkpt>
    <trkpt lat="32.622060" lon="-110.745250"></trkpt>
    <trkpt lat="32.622004" lon="-110.745317"></trkpt>
    <trkpt lat="32.621918" lon="-110.745356"></trkpt>
    <trkpt lat="32.621825" lon="-110.745381"></trkpt>
    <trkpt lat="32.621725" lon="-110.745393"></trkpt>
    <trkpt lat="32.621626" lon="-110.745270"></trkpt>
    <trkpt lat="32.621563" lon="-110.745211"></trkpt>
    <trkpt lat="32.621439" lon="-110.745251"></trkpt>
    <trkpt lat="32.621368" lon="-110.745322"></trkpt>
    <trkpt lat="32.621257" lon="-110.745466"></trkpt>
    <trkpt lat="32.621280" lon="-110.745639"></trkpt>
    <trkpt lat="32.621246" lon="-110.745739"></trkpt>
    <trkpt lat="32.621192" lon="-110.745924"></trkpt>
    <trkpt lat="32.621156" lon="-110.746123"></trkpt>
    <trkpt lat="32.621144" lon="-110.746243"></trkpt>
    <trkpt lat="32.621145" lon="-110.746284"></trkpt>
    <trkpt lat="32.621122" lon="-110.746498"></trkpt>
    <trkpt lat="32.621200" lon="-110.746600"></trkpt>
    <trkpt lat="32.621166" lon="-110.746718"></trkpt>
    <trkpt lat="32.621165" lon="-110.746907"></trkpt>
    <trkpt lat="32.621171" lon="-110.747337"></trkpt>
    <trkpt lat="32.621137" lon="-110.747595"></trkpt>
    <trkpt lat="32.621034" lon="-110.747846"></trkpt>
    <trkpt lat="32.620465" lon="-110.748681"></trkpt>
    <trkpt lat="32.620331" lon="-110.748889"></trkpt>
    <trkpt lat="32.620287" lon="-110.748958"></trkpt>
    <trkpt lat="32.620171" lon="-110.749316"></trkpt>
    <trkpt lat="32.620118" lon="-110.749657"></trkpt>
    <trkpt lat="32.620120" lon="-110.749969"></trkpt>
    <trkpt lat="32.620199" lon="-110.750312"></trkpt>
    <trkpt lat="32.620444" lon="-110.750867"></trkpt>
    <trkpt lat="32.620060" lon="-110.751181"></trkpt>
    <trkpt lat="32.619672" lon="-110.751507"></trkpt>
    <trkpt lat="32.619515" lon="-110.751645"></trkpt>
    <trkpt lat="32.618734" lon="-110.752297"></trkpt>
    <trkpt lat="32.617959" lon="-110.752983"></trkpt>
    <trkpt lat="32.617208" lon="-110.753724"></trkpt>
    <trkpt lat="32.616702" lon="-110.754245"></trkpt>
    <trkpt lat="32.616337" lon="-110.754640"></trkpt>
    <trkpt lat="32.615981" lon="-110.755045"></trkpt>
    <trkpt lat="32.615437" lon="-110.755743"></trkpt>
    <trkpt lat="32.614903" lon="-110.756460"></trkpt>
    <trkpt lat="32.614562" lon="-110.756949"></trkpt>
    <trkpt lat="32.614401" lon="-110.757178"></trkpt>
    <trkpt lat="32.614229" lon="-110.757432"></trkpt>
    <trkpt lat="32.614141" lon="-110.757570"></trkpt>
    <trkpt lat="32.614028" lon="-110.757748"></trkpt>
    <trkpt lat="32.613843" lon="-110.758049"></trkpt>
    <trkpt lat="32.613741" lon="-110.758213"></trkpt>
    <trkpt lat="32.613338" lon="-110.758911"></trkpt>
    <trkpt lat="32.613243" lon="-110.759077"></trkpt>
    <trkpt lat="32.613170" lon="-110.759215"></trkpt>
    <trkpt lat="32.612720" lon="-110.760091"></trkpt>
    <trkpt lat="32.612416" lon="-110.760726"></trkpt>
    <trkpt lat="32.612360" lon="-110.760843"></trkpt>
    <trkpt lat="32.611544" lon="-110.762428"></trkpt>
    <trkpt lat="32.611336" lon="-110.762859"></trkpt>
    <trkpt lat="32.611234" lon="-110.763055"></trkpt>
    <trkpt lat="32.611110" lon="-110.763303"></trkpt>
    <trkpt lat="32.611047" lon="-110.763430"></trkpt>
    <trkpt lat="32.610864" lon="-110.763793"></trkpt>
    <trkpt lat="32.610621" lon="-110.764271"></trkpt>
    <trkpt lat="32.610511" lon="-110.764168"></trkpt>
    <trkpt lat="32.610260" lon="-110.764255"></trkpt>
    <trkpt lat="32.610246" lon="-110.764457"></trkpt>
    <trkpt lat="32.610138" lon="-110.764957"></trkpt>
    <trkpt lat="32.610141" lon="-110.765028"></trkpt>
    <trkpt lat="32.610000" lon="-110.765567"></trkpt>
    <trkpt lat="32.609940" lon="-110.765806"></trkpt>
    <trkpt lat="32.609972" lon="-110.765913"></trkpt>
    <trkpt lat="32.609943" lon="-110.765996"></trkpt>
    <trkpt lat="32.610022" lon="-110.766225"></trkpt>
    <trkpt lat="32.610159" lon="-110.766635"></trkpt>
    <trkpt lat="32.610195" lon="-110.766742"></trkpt>
    <trkpt lat="32.610276" lon="-110.766899"></trkpt>
    <trkpt lat="32.610340" lon="-110.767094"></trkpt>
    <trkpt lat="32.610514" lon="-110.767543"></trkpt>
    <trkpt lat="32.610531" lon="-110.767646"></trkpt>
    <trkpt lat="32.610601" lon="-110.767853"></trkpt>
    <trkpt lat="32.610614" lon="-110.767894"></trkpt>
    <trkpt lat="32.610633" lon="-110.767910"></trkpt>
    <trkpt lat="32.610791" lon="-110.768366"></trkpt>
    <trkpt lat="32.610873" lon="-110.768655"></trkpt>
    <trkpt lat="32.610941" lon="-110.768910"></trkpt>
    <trkpt lat="32.610963" lon="-110.769023"></trkpt>
    <trkpt lat="32.610978" lon="-110.769099"></trkpt>
    <trkpt lat="32.611016" lon="-110.769197"></trkpt>
    <trkpt lat="32.611078" lon="-110.769385"></trkpt>
    <trkpt lat="32.611109" lon="-110.769514"></trkpt>
    <trkpt lat="32.611107" lon="-110.769639"></trkpt>
    <trkpt lat="32.611157" lon="-110.769885"></trkpt>
    <trkpt lat="32.611208" lon="-110.769990"></trkpt>
    <trkpt lat="32.611229" lon="-110.770060"></trkpt>
    <trkpt lat="32.611354" lon="-110.770558"></trkpt>
    <trkpt lat="32.611384" lon="-110.770604"></trkpt>
    <trkpt lat="32.611487" lon="-110.771033"></trkpt>
    <trkpt lat="32.611589" lon="-110.770988"></trkpt>
    <trkpt lat="32.611487" lon="-110.771033"></trkpt>
    <trkpt lat="32.611384" lon="-110.770604"></trkpt>
    <trkpt lat="32.611354" lon="-110.770558"></trkpt>
    <trkpt lat="32.611229" lon="-110.770060"></trkpt>
    <trkpt lat="32.611208" lon="-110.769990"></trkpt>
    <trkpt lat="32.611157" lon="-110.769885"></trkpt>
    <trkpt lat="32.611107" lon="-110.769639"></trkpt>
    <trkpt lat="32.611109" lon="-110.769514"></trkpt>
    <trkpt lat="32.611078" lon="-110.769385"></trkpt>
    <trkpt lat="32.611016" lon="-110.769197"></trkpt>
    <trkpt lat="32.610978" lon="-110.769099"></trkpt>
    <trkpt lat="32.610963" lon="-110.769023"></trkpt>
    <trkpt lat="32.610941" lon="-110.768910"></trkpt>
    <trkpt lat="32.610873" lon="-110.768655"></trkpt>
    <trkpt lat="32.610791" lon="-110.768366"></trkpt>
    <trkpt lat="32.610633" lon="-110.767910"></trkpt>
    <trkpt lat="32.610614" lon="-110.767894"></trkpt>
    <trkpt lat="32.610601" lon="-110.767853"></trkpt>
    <trkpt lat="32.610531" lon="-110.767646"></trkpt>
    <trkpt lat="32.610514" lon="-110.767543"></trkpt>
    <trkpt lat="32.610340" lon="-110.767094"></trkpt>
    <trkpt lat="32.610276" lon="-110.766899"></trkpt>
    <trkpt lat="32.610195" lon="-110.766742"></trkpt>
    <trkpt lat="32.610159" lon="-110.766635"></trkpt>
    <trkpt lat="32.610022" lon="-110.766225"></trkpt>
    <trkpt lat="32.609943" lon="-110.765996"></trkpt>
    <trkpt lat="32.609972" lon="-110.765913"></trkpt>
    <trkpt lat="32.609940" lon="-110.765806"></trkpt>
    <trkpt lat="32.609846" lon="-110.765525"></trkpt>
    <trkpt lat="32.609906" lon="-110.765496"></trkpt>
    <trkpt lat="32.609865" lon="-110.765418"></trkpt>
    <trkpt lat="32.609808" lon="-110.765244"></trkpt>
    <trkpt lat="32.609752" lon="-110.765036"></trkpt>
    <trkpt lat="32.609477" lon="-110.763717"></trkpt>
    <trkpt lat="32.609462" lon="-110.763644"></trkpt>
    <trkpt lat="32.609165" lon="-110.762381"></trkpt>
    <trkpt lat="32.609092" lon="-110.762388"></trkpt>
    <trkpt lat="32.608604" lon="-110.762452"></trkpt>
    <trkpt lat="32.608107" lon="-110.762486"></trkpt>
    <trkpt lat="32.607311" lon="-110.762472"></trkpt>
    <trkpt lat="32.607085" lon="-110.762468"></trkpt>
    <trkpt lat="32.606065" lon="-110.762531"></trkpt>
    <trkpt lat="32.605735" lon="-110.762490"></trkpt>
    <trkpt lat="32.605520" lon="-110.762443"></trkpt>
    <trkpt lat="32.605467" lon="-110.762424"></trkpt>
    <trkpt lat="32.605317" lon="-110.762373"></trkpt>
    <trkpt lat="32.605088" lon="-110.762255"></trkpt>
    <trkpt lat="32.604905" lon="-110.762151"></trkpt>
    <trkpt lat="32.604819" lon="-110.762097"></trkpt>
    <trkpt lat="32.604518" lon="-110.761908"></trkpt>
    <trkpt lat="32.604069" lon="-110.761697"></trkpt>
    <trkpt lat="32.603958" lon="-110.761645"></trkpt>
    <trkpt lat="32.603866" lon="-110.761611"></trkpt>
    <trkpt lat="32.603457" lon="-110.761461"></trkpt>
    <trkpt lat="32.603366" lon="-110.761445"></trkpt>
    <trkpt lat="32.603352" lon="-110.761394"></trkpt>
    <trkpt lat="32.603234" lon="-110.760921"></trkpt>
    <trkpt lat="32.603168" lon="-110.760585"></trkpt>
    <trkpt lat="32.603112" lon="-110.760310"></trkpt>
    <trkpt lat="32.603067" lon="-110.760040"></trkpt>
    <trkpt lat="32.603058" lon="-110.759975"></trkpt>
    <trkpt lat="32.603012" lon="-110.759961"></trkpt>
    <trkpt lat="32.602945" lon="-110.759936"></trkpt>
    <trkpt lat="32.602640" lon="-110.759735"></trkpt>
    <trkpt lat="32.602476" lon="-110.759624"></trkpt>
    <trkpt lat="32.602286" lon="-110.759496"></trkpt>
    <trkpt lat="32.602171" lon="-110.759420"></trkpt>
    <trkpt lat="32.601931" lon="-110.759276"></trkpt>
    <trkpt lat="32.601847" lon="-110.759242"></trkpt>
    <trkpt lat="32.601454" lon="-110.759071"></trkpt>
    <trkpt lat="32.601298" lon="-110.759006"></trkpt>
    <trkpt lat="32.601169" lon="-110.758932"></trkpt>
    <trkpt lat="32.601079" lon="-110.758880"></trkpt>
    <trkpt lat="32.600957" lon="-110.758785"></trkpt>
    <trkpt lat="32.600712" lon="-110.758611"></trkpt>
    <trkpt lat="32.600165" lon="-110.758257"></trkpt>
    <trkpt lat="32.599643" lon="-110.757834"></trkpt>
    <trkpt lat="32.599211" lon="-110.757575"></trkpt>
    <trkpt lat="32.598798" lon="-110.757271"></trkpt>
    <trkpt lat="32.598430" lon="-110.756945"></trkpt>
    <trkpt lat="32.598393" lon="-110.756917"></trkpt>
    <trkpt lat="32.597918" lon="-110.756551"></trkpt>
    <trkpt lat="32.597813" lon="-110.756473"></trkpt>
    <trkpt lat="32.597476" lon="-110.756222"></trkpt>
    <trkpt lat="32.596862" lon="-110.755794"></trkpt>
    <trkpt lat="32.596646" lon="-110.755637"></trkpt>
    <trkpt lat="32.596581" lon="-110.755573"></trkpt>
    <trkpt lat="32.596505" lon="-110.755500"></trkpt>
    <trkpt lat="32.596387" lon="-110.755360"></trkpt>
    <trkpt lat="32.596327" lon="-110.755275"></trkpt>
    <trkpt lat="32.596284" lon="-110.755213"></trkpt>
    <trkpt lat="32.596254" lon="-110.755170"></trkpt>
    <trkpt lat="32.596153" lon="-110.755036"></trkpt>
    <trkpt lat="32.596047" lon="-110.754870"></trkpt>
    <trkpt lat="32.595976" lon="-110.754760"></trkpt>
    <trkpt lat="32.595899" lon="-110.754608"></trkpt>
    <trkpt lat="32.595874" lon="-110.754498"></trkpt>
    <trkpt lat="32.595864" lon="-110.754435"></trkpt>
    <trkpt lat="32.595844" lon="-110.754306"></trkpt>
    <trkpt lat="32.595846" lon="-110.754220"></trkpt>
    <trkpt lat="32.595857" lon="-110.754096"></trkpt>
    <trkpt lat="32.595841" lon="-110.753824"></trkpt>
    <trkpt lat="32.595798" lon="-110.753590"></trkpt>
    <trkpt lat="32.595785" lon="-110.753518"></trkpt>
    <trkpt lat="32.595742" lon="-110.753326"></trkpt>
    <trkpt lat="32.595723" lon="-110.753249"></trkpt>
    <trkpt lat="32.595712" lon="-110.753195"></trkpt>
    <trkpt lat="32.595571" lon="-110.752748"></trkpt>
    <trkpt lat="32.595495" lon="-110.752540"></trkpt>
    <trkpt lat="32.595357" lon="-110.752183"></trkpt>
    <trkpt lat="32.595256" lon="-110.751904"></trkpt>
    <trkpt lat="32.595180" lon="-110.751704"></trkpt>
    <trkpt lat="32.595073" lon="-110.751546"></trkpt>
    <trkpt lat="32.595048" lon="-110.751509"></trkpt>
    <trkpt lat="32.595018" lon="-110.751466"></trkpt>
    <trkpt lat="32.595003" lon="-110.751445"></trkpt>
    <trkpt lat="32.594934" lon="-110.751388"></trkpt>
    <trkpt lat="32.594728" lon="-110.751213"></trkpt>
    <trkpt lat="32.594191" lon="-110.750859"></trkpt>
    <trkpt lat="32.594068" lon="-110.750722"></trkpt>
    <trkpt lat="32.593994" lon="-110.750616"></trkpt>
    <trkpt lat="32.593780" lon="-110.750353"></trkpt>
    <trkpt lat="32.593534" lon="-110.750205"></trkpt>
    <trkpt lat="32.593257" lon="-110.750085"></trkpt>
    <trkpt lat="32.593037" lon="-110.749924"></trkpt>
    <trkpt lat="32.592994" lon="-110.749892"></trkpt>
    <trkpt lat="32.592772" lon="-110.749658"></trkpt>
    <trkpt lat="32.592594" lon="-110.749511"></trkpt>
    <trkpt lat="32.592547" lon="-110.749473"></trkpt>
    <trkpt lat="32.591767" lon="-110.749153"></trkpt>
    <trkpt lat="32.591745" lon="-110.749144"></trkpt>
    <trkpt lat="32.591567" lon="-110.749049"></trkpt>
    <trkpt lat="32.591472" lon="-110.748973"></trkpt>
    <trkpt lat="32.591097" lon="-110.748616"></trkpt>
    <trkpt lat="32.590287" lon="-110.747755"></trkpt>
    <trkpt lat="32.589978" lon="-110.747459"></trkpt>
    <trkpt lat="32.589534" lon="-110.747181"></trkpt>
    <trkpt lat="32.589248" lon="-110.746965"></trkpt>
    <trkpt lat="32.589103" lon="-110.746792"></trkpt>
    <trkpt lat="32.588567" lon="-110.745766"></trkpt>
    <trkpt lat="32.588449" lon="-110.745534"></trkpt>
    <trkpt lat="32.588151" lon="-110.744944"></trkpt>
    <trkpt lat="32.587617" lon="-110.743919"></trkpt>
    <trkpt lat="32.587238" lon="-110.743152"></trkpt>
    <trkpt lat="32.586888" lon="-110.742446"></trkpt>
    <trkpt lat="32.586606" lon="-110.741803"></trkpt>
    <trkpt lat="32.585999" lon="-110.740749"></trkpt>
    <trkpt lat="32.585563" lon="-110.740282"></trkpt>
    <trkpt lat="32.585171" lon="-110.739813"></trkpt>
    <trkpt lat="32.584968" lon="-110.739782"></trkpt>
    <trkpt lat="32.584737" lon="-110.739553"></trkpt>
    <trkpt lat="32.584634" lon="-110.739452"></trkpt>
    <trkpt lat="32.584555" lon="-110.739420"></trkpt>
    <trkpt lat="32.584423" lon="-110.739410"></trkpt>
    <trkpt lat="32.584187" lon="-110.739350"></trkpt>
    <trkpt lat="32.583793" lon="-110.739334"></trkpt>
    <trkpt lat="32.583532" lon="-110.739294"></trkpt>
    <trkpt lat="32.583447" lon="-110.739281"></trkpt>
    <trkpt lat="32.583214" lon="-110.739243"></trkpt>
    <trkpt lat="32.583055" lon="-110.739143"></trkpt>
    <trkpt lat="32.582516" lon="-110.738437"></trkpt>
    <trkpt lat="32.582373" lon="-110.738319"></trkpt>
    <trkpt lat="32.582138" lon="-110.738215"></trkpt>
    <trkpt lat="32.581844" lon="-110.738083"></trkpt>
    <trkpt lat="32.581507" lon="-110.737826"></trkpt>
    <trkpt lat="32.581092" lon="-110.737434"></trkpt>
    <trkpt lat="32.580790" lon="-110.737278"></trkpt>
    <trkpt lat="32.580521" lon="-110.737056"></trkpt>
    <trkpt lat="32.580241" lon="-110.736559"></trkpt>
    <trkpt lat="32.580101" lon="-110.736437"></trkpt>
    <trkpt lat="32.579981" lon="-110.736426"></trkpt>
    <trkpt lat="32.579798" lon="-110.736455"></trkpt>
    <trkpt lat="32.579655" lon="-110.736400"></trkpt>
    <trkpt lat="32.579228" lon="-110.736157"></trkpt>
    <trkpt lat="32.579143" lon="-110.736071"></trkpt>
    <trkpt lat="32.579089" lon="-110.735971"></trkpt>
    <trkpt lat="32.578827" lon="-110.735466"></trkpt>
    <trkpt lat="32.578551" lon="-110.735026"></trkpt>
    <trkpt lat="32.578317" lon="-110.734805"></trkpt>
    <trkpt lat="32.578225" lon="-110.734586"></trkpt>
    <trkpt lat="32.578111" lon="-110.734456"></trkpt>
    <trkpt lat="32.577685" lon="-110.734303"></trkpt>
    <trkpt lat="32.577406" lon="-110.734273"></trkpt>
    <trkpt lat="32.577221" lon="-110.734215"></trkpt>
    <trkpt lat="32.577055" lon="-110.734138"></trkpt>
    <trkpt lat="32.576984" lon="-110.734063"></trkpt>
    <trkpt lat="32.576944" lon="-110.733976"></trkpt>
    <trkpt lat="32.576906" lon="-110.733704"></trkpt>
    <trkpt lat="32.576857" lon="-110.733419"></trkpt>
    <trkpt lat="32.576800" lon="-110.733309"></trkpt>
    <trkpt lat="32.576687" lon="-110.733194"></trkpt>
    <trkpt lat="32.576574" lon="-110.732976"></trkpt>
    <trkpt lat="32.576538" lon="-110.732696"></trkpt>
    <trkpt lat="32.576448" lon="-110.732380"></trkpt>
    <trkpt lat="32.576124" lon="-110.731776"></trkpt>
    <trkpt lat="32.576068" lon="-110.731570"></trkpt>
    <trkpt lat="32.576151" lon="-110.731139"></trkpt>
    <trkpt lat="32.576115" lon="-110.730844"></trkpt>
    <trkpt lat="32.575996" lon="-110.730489"></trkpt>
    <trkpt lat="32.575937" lon="-110.730346"></trkpt>
    <trkpt lat="32.575896" lon="-110.730111"></trkpt>
    <trkpt lat="32.575826" lon="-110.729963"></trkpt>
    <trkpt lat="32.575717" lon="-110.729824"></trkpt>
    <trkpt lat="32.575581" lon="-110.729720"></trkpt>
    <trkpt lat="32.575394" lon="-110.729659"></trkpt>
    <trkpt lat="32.575163" lon="-110.729624"></trkpt>
    <trkpt lat="32.574801" lon="-110.729636"></trkpt>
  </trkseg></trk>
</gpx>
